{"type":"Topology","bbox":[-180,-55.070042051117994,180,83.17604406948747],"transform":{"scale":[0.036003600360036005,0.013825991211181665],"translate":[-180,-55.070042051117994]},"objects":{"countries":{"type":"GeometryCollection","geometries":[{"type":"MultiPolygon","arcs":[[[0]],[[1]],[[2]],[[3]],[[4]],[[5]],[[6]],[[7]],[[8]],[[9]]],"id":"papuan","properties":{"name":"Papuan","subjecto":"Papuan","partof":"Papuan","prec":1}},{"type":"MultiPolygon","arcs":[[[10]]],"id":"simhala","properties":{"name":"Simhala","subjecto":"Simhala","partof":"Simhala","prec":1}},{"type":"MultiPolygon","arcs":[[[11]]],"id":"teotihuac_n","properties":{"name":"Teotihuacán","subjecto":"Teotihuacán","partof":"Teotihuacán","prec":1}},{"type":"MultiPolygon","arcs":[[[12]]],"id":"monte_alb_n","properties":{"name":"Monte Albán","subjecto":"Monte Albán","partof":"Monte Albán","prec":1}},{"type":"MultiPolygon","arcs":[[[13,14]]],"id":"maya_chiefdoms_and_states","properties":{"name":"Maya chiefdoms and states","subjecto":"Maya chiefdoms and states","partof":"Maya chiefdoms and states","prec":1}},{"type":"MultiPolygon","arcs":[[[15,16,17,18,19,20]]],"id":"meroe","properties":{"name":"Meroe","subjecto":"Meroe","partof":"Meroe","prec":1}},{"type":"MultiPolygon","arcs":[[[21,22,23,24]]],"id":"kingdom_of_syphax","properties":{"name":"Kingdom of Syphax","subjecto":"Kingdom of Syphax","partof":"Numidia","prec":1}},{"type":"MultiPolygon","arcs":[[[25,26]]],"id":"x","properties":{"name":"?","subjecto":"?","partof":"?","prec":1}},{"type":"MultiPolygon","arcs":[[[27,28,29,30]]],"id":"minor_states","properties":{"name":"minor states","subjecto":"minor states","partof":"minor states","prec":1}},{"type":"MultiPolygon","arcs":[[[31,32,33,34]]],"id":"parthia","properties":{"name":"Parthia","subjecto":"Parthia","partof":"Parthia","prec":1}},{"type":"MultiPolygon","arcs":[[[35,36,37,38]]],"id":"nabatean_kingdom","properties":{"name":"Nabatean Kingdom","subjecto":"Nabatean Kingdom","partof":"Nabatean Kingdom","prec":1}},{"type":"MultiPolygon","arcs":[[[39,-38,40,41]]],"id":"maan","properties":{"name":"Maan","subjecto":"Maan","partof":"Maan","prec":1}},{"type":"MultiPolygon","arcs":[[[42,-42,43,44]]],"id":"saba","properties":{"name":"Saba","subjecto":"Saba","partof":"Saba","prec":1}},{"type":"MultiPolygon","arcs":[[[45,-45,46,47]]],"id":"qataban","properties":{"name":"Qataban","subjecto":"Qataban","partof":"Qataban","prec":1}},{"type":"MultiPolygon","arcs":[[[48,-47,-44,-41,-37,49,50]]],"id":"arabs","properties":{"name":"Arabs","subjecto":"Arabs","partof":"Arabs","prec":1}},{"type":"MultiPolygon","arcs":[[[-48,-49,51]]],"id":"hadramaut","properties":{"name":"Hadramaut","subjecto":"Hadramaut","partof":"Hadramaut","prec":1}},{"type":"MultiPolygon","arcs":[[[52,53,54,55,56,-32,57]]],"id":"bactria","properties":{"name":"Bactria","subjecto":"Scythians","partof":"Bactria","prec":1}},{"type":"MultiPolygon","arcs":[[[58,59]]],"id":"iron_age_chieftainships","properties":{"name":"Iron Age chieftainships","subjecto":"Iron Age chieftainships","partof":"Iron Age chieftainships","prec":1}},{"type":"MultiPolygon","arcs":[[[-59,60,-55,61,62,63,64,65],[66]]],"id":"mauryan_empire","properties":{"name":"Mauryan Empire","subjecto":"Mauryan Empire","partof":"Mauryan Empire","prec":1}},{"type":"MultiPolygon","arcs":[[[67]],[[68]],[[69,70,71]]],"id":"min_yue","properties":{"name":"Min-Yue","subjecto":"Min-Yue","partof":"Min-Yue","prec":1}},{"type":"MultiPolygon","arcs":[[[72]],[[-71,73,74,75]]],"id":"nan_yue","properties":{"name":"Nan-Yue","subjecto":"Nan-Yue","partof":"Nan-Yue","prec":1}},{"type":"MultiPolygon","arcs":[[[76,77]],[[78,79]]],"id":"bosporan_kingdom","properties":{"name":"Bosporan Kingdom","subjecto":"Scythians","partof":"Bosporan Kingdom","prec":1}},{"type":"MultiPolygon","arcs":[[[-23,80,81]]],"id":"mauretania","properties":{"name":"Mauretania","subjecto":"Mauretania","partof":"Mauretania","prec":1}},{"type":"MultiPolygon","arcs":[[[82,83,84,-20,85,86,87,-36]],[[88]],[[89,90]]],"id":"ptolemaic_kingdom","properties":{"name":"Ptolemaic Kingdom","subjecto":"Ptolemaic Kingdom","partof":"Ptolemaic Kingdom","prec":1}},{"type":"MultiPolygon","arcs":[[[91,92,93]]],"id":"carthage","properties":{"name":"Carthage","subjecto":"Carthage","partof":"Carthage","prec":1}},{"type":"MultiPolygon","arcs":[[[94]],[[95,96,97]],[[98]],[[99]],[[100]],[[101]],[[102]]],"id":"rome","properties":{"name":"Rome","subjecto":"Rome","partof":"Rome","prec":1}},{"type":"MultiPolygon","arcs":[[[103]],[[104]],[[105]]],"id":"guanches","properties":{"name":"Guanches","subjecto":"Guanches","partof":"Guanches","prec":1}},{"type":"MultiPolygon","arcs":[[[106]],[[107]],[[108]],[[109]],[[110]],[[111]],[[112]],[[113]],[[114]],[[115]],[[116]],[[117]],[[118]],[[119]],[[120]],[[121]],[[-97,122,123,124,-26,125]],[[-91,126]],[[127]],[[128]],[[129]],[[130]],[[131]],[[132]],[[133]],[[134]],[[135]]],"id":"macedon_and_hellenic_league","properties":{"name":"Macedon and Hellenic League","subjecto":"Macedon and Hellenic League","partof":"Macedon and Hellenic League","prec":1}},{"type":"MultiPolygon","arcs":[[[-124,136,137]]],"id":"dardania","properties":{"name":"Dardania","subjecto":"Dardania","partof":"Dardania","prec":1}},{"type":"MultiPolygon","arcs":[[[138,139]]],"id":"pergamon","properties":{"name":"Pergamon","subjecto":"Pergamon","partof":"Pergamon","prec":1}},{"type":"MultiPolygon","arcs":[[[140,141,142,143,144,145,146,147,148,149,150]]],"id":"subarctic_forest_hunter_gatherers","properties":{"name":"Subarctic forest hunter-gatherers","subjecto":"Subarctic forest hunter-gatherers","partof":"Subarctic forest hunter-gatherers","prec":1}},{"type":"MultiPolygon","arcs":[[[151]]],"id":"australian_aboriginal_hunter_gatherers","properties":{"name":"Australian aboriginal hunter-gatherers","subjecto":"Australian aboriginal hunter-gatherers","partof":"Australian aboriginal hunter-gatherers","prec":1}},{"type":"MultiPolygon","arcs":[[[152]]],"id":"tasmanian_hunter_gatherers","properties":{"name":"Tasmanian hunter-gatherers","subjecto":"Tasmanian hunter-gatherers","partof":"Tasmanian hunter-gatherers","prec":1}},{"type":"MultiPolygon","arcs":[[[153]],[[154]],[[155]],[[156]],[[157]],[[158]],[[159]],[[160]],[[161]],[[162]],[[163]],[[164]],[[165]],[[166]],[[167]],[[168]],[[169]],[[170]],[[171]],[[172]],[[173]]],"id":"ainu","properties":{"name":"Ainu","subjecto":"Ainu","partof":"Ainu","prec":1}},{"type":"MultiPolygon","arcs":[[[174,175,176,177,178,179,180]]],"id":"paleo_siberian_hunter_gatherers","properties":{"name":"Paleo-Siberian hunter-gatherers","subjecto":"Paleo-Siberian hunter-gatherers","partof":"Paleo-Siberian hunter-gatherers","prec":1}},{"type":"MultiPolygon","arcs":[[[181,182,183,184]]],"id":"saami","properties":{"name":"Saami","subjecto":"Saami","partof":"Saami","prec":1}},{"type":"MultiPolygon","arcs":[[[-181,185,186,-185,187],[188],[189],[190]],[[191]]],"id":"finno_ugric_taiga_hunter_gatherers","properties":{"name":"Finno-Ugric taiga hunter-gatherers","subjecto":"Finno-Ugric taiga hunter-gatherers","partof":"Finno-Ugric taiga hunter-gatherers","prec":1}},{"type":"MultiPolygon","arcs":[[[192]],[[193]],[[194]],[[195]],[[-149,196]],[[197]],[[198]],[[199]],[[200]],[[201]],[[202,-147]],[[203]],[[204]],[[205]],[[206]],[[207]],[[208]],[[209,-151]],[[210,-176]],[[211]]],"id":"arctic_marine_mammal_hunters","properties":{"name":"Arctic marine mammal hunters","subjecto":"Arctic marine mammal hunters","partof":"Arctic marine mammal hunters","prec":1}},{"type":"MultiPolygon","arcs":[[[212,213]]],"id":"chorrera","properties":{"name":"Chorrera","subjecto":"Chorrera","partof":"Chorrera","prec":1}},{"type":"MultiPolygon","arcs":[[[214,215]]],"id":"shellfish_gatherers","properties":{"name":"Shellfish gatherers","subjecto":"Shellfish gatherers","partof":"Shellfish gatherers","prec":1}},{"type":"MultiPolygon","arcs":[[[216,217,218]]],"id":"amazon_hunter_gatherers","properties":{"name":"Amazon hunter-gatherers","subjecto":"Amazon hunter-gatherers","partof":"Amazon hunter-gatherers","prec":1}},{"type":"MultiPolygon","arcs":[[[219,-219,220,-215,221,222,223]]],"id":"savanna_hunter_gatherers","properties":{"name":"Savanna hunter-gatherers","subjecto":"Savanna hunter-gatherers","partof":"Savanna hunter-gatherers","prec":1}},{"type":"MultiPolygon","arcs":[[[224,225,-223,226]]],"id":"pampas_cultures","properties":{"name":"Pampas cultures","subjecto":"Pampas cultures","partof":"Pampas cultures","prec":1}},{"type":"MultiPolygon","arcs":[[[-226,227,228,229,-224]]],"id":"andean_hunter_gatherers","properties":{"name":"Andean hunter-gatherers","subjecto":"Andean hunter-gatherers","partof":"Andean hunter-gatherers","prec":1}},{"type":"MultiPolygon","arcs":[[[230]],[[231]],[[232]],[[233,-228,-225]]],"id":"patagonian_shellfish_and_marine_mammal_h","properties":{"name":"Patagonian shellfish and marine mammal hunters","subjecto":"Patagonian shellfish and marine mammal hunters","partof":"Patagonian shellfish and marine mammal hunters","prec":1}},{"type":"MultiPolygon","arcs":[[[234]],[[235,236]],[[237]],[[238]],[[239]],[[240]],[[241]],[[242]],[[243]],[[244]],[[245]],[[246]],[[247]],[[248]],[[249]],[[250]],[[251]],[[252]],[[253]],[[254]],[[255]],[[256]],[[257]],[[258]],[[259]]],"id":"caribbean_hunter_gatherers","properties":{"name":"Caribbean hunter-gatherers","subjecto":"Caribbean hunter-gatherers","partof":"Caribbean hunter-gatherers","prec":1}},{"type":"MultiPolygon","arcs":[[[260,261]]],"id":"paracas","properties":{"name":"Paracas","subjecto":"Paracas","partof":"Paracas","prec":1}},{"type":"MultiPolygon","arcs":[[[262,-214,263,-236,264,-217,-220,-230,265,-261],[266],[267]]],"id":"manioc_farmers","properties":{"name":"Manioc farmers","subjecto":"Manioc farmers","partof":"Manioc farmers","prec":1}},{"type":"MultiPolygon","arcs":[[[-268]]],"id":"wankarani","properties":{"name":"Wankarani","subjecto":"Wankarani","partof":"Wankarani","prec":1}},{"type":"MultiPolygon","arcs":[[[268,269,270,271,272,-143,273]]],"id":"plain_bison_hunters","properties":{"name":"Plain bison hunters","subjecto":"Plain bison hunters","partof":"Plain bison hunters","prec":1}},{"type":"MultiPolygon","arcs":[[[274,275,-272,276,277,278]]],"id":"desert_hunter_gatherers","properties":{"name":"Desert hunter-gatherers","subjecto":"Desert hunter-gatherers","partof":"Desert hunter-gatherers","prec":1}},{"type":"MultiPolygon","arcs":[[[279,-144,-273,-276]]],"id":"plateau_fichers_and_hunter_gatherers","properties":{"name":"Plateau fichers and hunter gatherers","subjecto":"Plateau fichers and hunter gatherers","partof":"Plateau fichers and hunter gatherers","prec":1}},{"type":"MultiPolygon","arcs":[[[280]],[[-145,-280,-275,281]],[[282]],[[283]]],"id":"north_american_pacifi_foraging_hunting_a","properties":{"name":"North American Pacifi foraging, hunting and fishing peoples","subjecto":"North American Pacifi foraging, hunting and fishing peoples","partof":"North American Pacifi foraging, hunting and fishing peoples","prec":1}},{"type":"MultiPolygon","arcs":[[[-18,284,285,286,287],[288]]],"id":"west_african_cereal_farmers","properties":{"name":"West African cereal farmers","subjecto":"West African cereal farmers","partof":"West African cereal farmers","prec":1}},{"type":"MultiPolygon","arcs":[[[289]],[[290,-286]]],"id":"khoiasan","properties":{"name":"Khoiasan","subjecto":"Khoiasan","partof":"Khoiasan","prec":1}},{"type":"MultiPolygon","arcs":[[[-16,291,292,293]]],"id":"blemmyes","properties":{"name":"Blemmyes","subjecto":"Blemmyes","partof":"Blemmyes","prec":1}},{"type":"MultiPolygon","arcs":[[[294,295,296,297,298,299,300,301]]],"id":"xiongnu","properties":{"name":"Xiongnu","subjecto":"Xiongnu","partof":"Xiongnu","prec":1}},{"type":"MultiPolygon","arcs":[[[-75,302,303,304,305,-65,306,307,308]]],"id":"thai","properties":{"name":"Thai","subjecto":"Thai","partof":"Thai","prec":1}},{"type":"MultiPolygon","arcs":[[[-183,309],[310],[311]]],"id":"norsemen","properties":{"name":"Norsemen","subjecto":"Norsemen","partof":"Norsemen","prec":1}},{"type":"MultiPolygon","arcs":[[[-304,312]]],"id":"mon_khmer","properties":{"name":"Mon-Khmer","subjecto":"Mon-Khmer","partof":"Mon-Khmer","prec":1}},{"type":"MultiPolygon","arcs":[[[313]],[[314]],[[315]],[[316]],[[317]],[[318]],[[319]],[[320]],[[321]],[[322]],[[323]],[[324]],[[325]],[[326]]],"id":"malays","properties":{"name":"Malays","subjecto":"Malays","partof":"Malays","prec":1}},{"type":"MultiPolygon","arcs":[[[327,-81,-22,328,-92,329,-86,-19,-288]]],"id":"saharan_pastoral_nomads","properties":{"name":"Saharan Pastoral Nomads","subjecto":"Saharan Pastoral Nomads","partof":"Saharan Pastoral Nomads","prec":1}},{"type":"MultiPolygon","arcs":[[[330]],[[331]],[[332]],[[333]]],"id":"celts","properties":{"name":"Celts","subjecto":"Celts","partof":"Celts","prec":1}},{"type":"MultiPolygon","arcs":[[[-140,334,-30,335,-33,-57,336,-50,-88,337]]],"id":"seleucid_kingdom","properties":{"name":"Seleucid Kingdom","subjecto":"Seleucid Kingdom","partof":"Seleucid Kingdom","prec":1}},{"type":"MultiPolygon","arcs":[[[-278,338,-14,339],[-12],[-13]]],"id":"maize_farmers","properties":{"name":"Maize farmers","subjecto":"Maize farmers","partof":"Maize farmers","prec":1}},{"type":"MultiPolygon","arcs":[[[340,341]]],"id":"adena_culture","properties":{"name":"Adena Culture","subjecto":"Adena Culture","partof":"Adena Culture","prec":1}},{"type":"MultiPolygon","arcs":[[[342,-274,-142,343,344,345,-270],[346,-342],[347],[348],[349],[350],[351]],[[352]]],"id":"eastern_north_amercian_hunter_gatherers","properties":{"name":"Eastern North Amercian hunter-gatherers","subjecto":"Eastern North Amercian hunter-gatherers","partof":"Eastern North Amercian hunter-gatherers","prec":1}},{"type":"MultiPolygon","arcs":[[[353,-345]]],"id":"glades_culture","properties":{"name":"Glades Culture","subjecto":"Glades Culture","partof":"Glades Culture","prec":1}},{"type":"MultiPolygon","arcs":[[[-25,354,-93,-329]]],"id":"kingdom_of_gala","properties":{"name":"Kingdom of Gala","subjecto":"Kingdom of Gala","partof":"Numidia","prec":1}},{"type":"MultiPolygon","arcs":[[[355,356,357]]],"id":"pomeranian_culture","properties":{"name":"Pomeranian culture ","subjecto":"Pomeranian culture ","partof":"Baltic archeological cultures","prec":1}},{"type":"MultiPolygon","arcs":[[[358,359,360,361]]],"id":"sambian_nothangian_culture","properties":{"name":"Sambian-Nothangian culture","subjecto":"Sambian-Nothangian culture","partof":"Baltic archeological cultures","prec":1}},{"type":"MultiPolygon","arcs":[[[362,363,-356,364]]],"id":"bell_shaped_burials_culture","properties":{"name":"Bell-shaped burials culture","subjecto":"Bell-shaped burials culture","partof":"Baltic archeological cultures","prec":1}},{"type":"MultiPolygon","arcs":[[[365,-365,-358,366,367,-360]]],"id":"western_masurian_culture","properties":{"name":"Western Masurian culture","subjecto":"Western Masurian culture","partof":"Baltic archeological cultures","prec":1}},{"type":"MultiPolygon","arcs":[[[-363,-366,-359,368,369,370,371,372]]],"id":"eastern_masurian_culture","properties":{"name":"Eastern Masurian culture","subjecto":"Eastern Masurian culture","partof":"Baltic archeological cultures","prec":1}},{"type":"MultiPolygon","arcs":[[[373,-370,374]]],"id":"curonians","properties":{"name":"Curonians","subjecto":"Curonians","partof":"Baltic archeological cultures","prec":1}},{"type":"MultiPolygon","arcs":[[[375,376,-371,-374,377]]],"id":"brushed_pottery_culture","properties":{"name":"Brushed Pottery culture","subjecto":"Brushed Pottery culture","partof":"Baltic archeological cultures","prec":1}},{"type":"MultiPolygon","arcs":[[[378,379,380,-372,-377]]],"id":"milograd_culture","properties":{"name":"Milograd culture","subjecto":"Milograd culture","partof":"Baltic archeological cultures","prec":1}},{"type":"MultiPolygon","arcs":[[[-379,-376,381,382]]],"id":"plain_pottery_culture","properties":{"name":"Plain-Pottery culture","subjecto":"Plain-Pottery culture","partof":"Baltic archeological cultures","prec":1}},{"type":"MultiPolygon","arcs":[[[-296,383,384,-308,385,386,-53,387,388,389,390]]],"id":"yuezhi","properties":{"name":"Yuezhi","subjecto":"Yuezhi","partof":"Yuezhi","prec":1}},{"type":"MultiPolygon","arcs":[[[-267]]],"id":"chavin","properties":{"name":"Chavin","subjecto":"Chavin","partof":"Chavin","prec":1}},{"type":"MultiPolygon","arcs":[[[391]],[[392]],[[-180,393,394,395,-390,396,-388,-58,-35,397,-28,398,-78,399,-80,400,-380,-383,401,-186],[402],[403]]],"id":"scythians","properties":{"name":"Scythians","subjecto":"Scythians","partof":"Scythians","prec":1}},{"type":"MultiPolygon","arcs":[[[-391,-396,404,-394,-179,405,-297]]],"id":"turcik_tribes","properties":{"name":"Turcik tribes","subjecto":"Turcik tribes","partof":"Turcik tribes","prec":1}},{"type":"MultiPolygon","arcs":[[[406,-298,-406,-178,407]],[[408]],[[409]],[[410]],[[411]],[[412]],[[413]],[[414]],[[415]],[[416]],[[417]],[[418]],[[419]],[[420]],[[421]],[[422]],[[423]],[[424]]],"id":"tungus","properties":{"name":"Tungus","subjecto":"Tungus","partof":"Tungus","prec":1}},{"type":"MultiPolygon","arcs":[[[-387,425,-64,426,-62,-54]]],"id":"zhangzhung_kingdom","properties":{"name":"Zhangzhung Kingdom","subjecto":"Zhangzhung Kingdom","partof":"Zhangzhung Kingdom","prec":1}},{"type":"MultiPolygon","arcs":[[[-72,-76,-309,-385,427,428,-301,429,-299,-407,430]]],"id":"han_empire","properties":{"name":"Han Empire","subjecto":"Han Empire","partof":"Han Empire","prec":1}},{"type":"MultiPolygon","arcs":[[[431,-306]]],"id":"arakan","properties":{"name":"Arakan","subjecto":"Arakan","partof":"Arakan","prec":1}}]}},"arcs":[[[8912,3781],[43,-37],[29,-22],[18,-27],[12,-1],[7,-25],[16,-24],[10,-23],[-4,-31],[5,-15],[8,-3],[23,-26],[14,-7],[10,-44],[-23,-12],[-1,-16],[14,-49],[18,-32],[3,-28],[9,-34],[4,-4],[16,2],[-3,-24],[3,-7],[18,-11],[-7,-16],[3,-8],[20,-18],[2,-33],[-13,1],[-6,23],[-13,4],[-21,13],[-19,0],[-14,18],[-5,26],[-15,21],[-23,85],[-25,13],[-15,12],[-10,-8],[-10,14],[3,-25],[-3,-9],[-9,1],[2,-16],[-13,-2],[-20,5],[14,-15],[14,-22],[3,-13],[-21,-27],[-8,3],[-38,4],[-18,46],[-9,29],[-5,2],[-24,-7],[7,42],[-15,43],[11,8],[-13,27],[-20,89],[-13,22],[-48,38],[-7,2],[-17,18],[0,20],[-11,-2],[-10,9],[-5,12],[-3,43],[-5,-17],[-4,-41],[-13,-21],[-6,28],[5,14],[-4,21],[-16,26],[-5,16],[20,-8],[11,24],[6,-10],[12,1],[2,35],[-15,-10],[-30,3],[-7,16],[-4,33],[-21,9],[3,9],[1,28],[17,14],[12,22],[9,-3],[19,-21],[18,-11],[6,-36],[-4,-36],[8,-61],[5,-11],[3,21],[6,-43],[13,-17],[14,21],[14,60],[23,12],[1,20],[16,25],[4,1],[49,-55],[35,-30]],[[9153,3520],[-9,18],[-5,-6],[-9,18],[-8,8],[-1,16],[12,1],[16,-7],[10,8],[3,16],[12,-22],[16,14],[8,30],[8,1],[4,14],[-1,35],[11,-8],[4,12],[5,-31],[-4,-22],[-8,-14],[6,-16],[-7,-15],[-15,3],[-6,-25],[-22,-24],[-20,-4]],[[8429,3234],[5,44],[9,16],[18,20],[8,15],[5,20],[5,5],[20,3],[29,13],[3,-9],[-8,-15],[-46,-42],[-7,-12],[-22,-47],[-19,-11]],[[8544,3982],[-5,40],[2,18],[-2,14],[4,40],[6,26],[5,-23],[-8,-47],[3,-15],[7,18],[2,17],[12,18],[2,-31],[-12,-29],[13,-14],[1,-16],[-18,12],[-5,-20],[2,-31],[12,-43],[-2,-7],[-12,28],[-6,24],[-1,21]],[[8414,3377],[-6,-16],[-28,-29],[-12,6],[-9,-10],[-11,9],[-17,0],[-3,26],[20,13],[24,-24],[4,10],[11,3],[6,-6],[19,35],[2,-17]],[[8632,3703],[-13,14],[-11,21],[-9,4],[-3,-19],[-13,13],[-3,12],[-15,-21],[-9,35],[3,6],[21,-2],[7,-10],[16,12],[17,-11],[10,-26],[2,-28]],[[8837,3364],[-14,7],[15,57],[10,11],[9,-19],[-5,-27],[-11,-28],[-4,-1]],[[8517,3703],[-14,18],[-1,24],[17,4],[11,-20],[0,-15],[-13,-11]],[[8340,3232],[-24,37],[-14,14],[6,11],[19,5],[18,-34],[4,-12],[-9,-21]],[[8344,4029],[10,36],[14,-2],[9,-18],[16,1],[15,-14],[8,7],[23,-2],[17,15],[0,18],[11,31],[4,1],[0,-25],[-4,-18],[-17,-54],[-21,-11],[-14,16],[-14,2],[-59,-3],[-6,-12],[-7,-48],[4,-31],[11,-20],[3,-20],[15,-7],[11,41],[15,-10],[21,18],[6,11],[8,-13],[-1,-24],[-13,10],[-15,-41],[-13,-14],[-4,-11],[-9,5],[0,-12],[17,-40],[10,-40],[-3,-33],[1,-13],[13,-32],[0,-16],[-14,0],[-5,-10],[-2,-23],[-14,13],[3,40],[-17,37],[-2,17],[5,32],[-2,16],[-9,1],[-12,-19],[3,-42],[-4,-54],[5,-29],[-5,-31],[3,-26],[-21,-16],[-5,28],[4,26],[2,63],[-1,28],[-7,17],[-12,-7],[-3,55],[14,53],[2,15],[-2,39],[6,38],[5,2],[0,28],[3,35],[6,39],[9,18],[5,-11]],[[7237,4412],[-9,9],[-6,32],[-5,41],[0,75],[-3,23],[2,17],[-3,20],[6,-1],[7,38],[-1,18],[15,-28],[12,-49],[-1,-16],[7,-11],[4,-23],[10,-45],[1,-17],[-7,-46],[-11,-26],[-18,-11]],[[2208,5495],[19,0],[20,-23],[17,-57],[-4,-43],[-14,-20],[-21,7],[-24,41],[-7,50],[14,45]],[[2244,5264],[17,20],[43,5],[24,-13],[21,-32],[-2,-65],[-26,-23],[-35,13],[-37,31],[-4,34],[-1,30]],[[2400,5122],[12,89],[6,116]],[[2418,5327],[23,13],[0,-18],[11,-7],[7,16],[-7,14],[14,20],[34,20],[0,129],[4,6],[22,11],[20,14],[20,-8],[12,3],[7,-16],[0,-24],[-20,-57],[0,-22],[-6,-22],[6,0],[-6,-86],[-8,37],[-4,-11],[-3,-32],[8,6],[0,-14],[-5,-40],[2,-9],[-3,-26],[3,-10],[-6,-42],[-8,-12],[-6,-27],[8,-13],[1,19],[10,-17],[19,12],[-18,-78],[-49,-78],[0,13],[-35,1],[-7,8],[-27,53],[-31,69]],[[5926,5672],[11,-63],[22,-167]],[[5959,5442],[19,-120],[7,-93],[14,-126],[-7,-164]],[[5992,4939],[-10,-30],[-32,-18],[-37,-6]],[[5913,4885],[-30,4],[-21,44],[-22,174],[-7,136],[-5,196],[27,131],[7,54]],[[5862,5624],[26,0],[17,9],[21,39]],[[5926,5672],[0,0]],[[5138,6395],[-193,-95]],[[4945,6300],[-35,132],[21,87]],[[4931,6519],[12,-1],[15,13],[10,29],[20,17],[9,-9],[8,21],[16,26],[8,5],[41,8],[8,11],[14,-5],[11,13],[19,0],[20,-12],[20,8]],[[5162,6643],[20,-58],[-21,-38],[-23,-152]],[[5775,6945],[-31,28]],[[5744,6973],[11,140],[23,80],[-2,40],[7,40],[39,-6],[3,-10],[-7,-25],[-11,-3],[-11,-28],[-3,-21],[-3,-52],[-12,-6],[-5,-48],[-10,-16],[12,-32],[5,-35],[8,-11],[19,-17],[-7,-21],[-18,11],[-7,-8]],[[6157,7006],[30,5],[57,-8],[61,-26],[54,-78],[20,-5]],[[6379,6894],[-11,-89],[-4,12],[-8,-63],[-3,-42],[3,-16],[18,-16],[15,-5],[6,-23],[9,-15],[24,-17]],[[6428,6620],[-14,-19],[-84,29],[-47,-15],[-42,20],[-20,69],[-16,125],[-56,-65],[-59,-17],[-63,-52],[-82,0],[-30,-8],[-8,48],[-18,10],[-12,87],[-44,10],[-43,63]],[[5790,6905],[16,-5],[-4,21],[27,9],[-15,0],[-9,17],[4,17],[28,-6],[3,4],[13,-11],[14,1],[4,17],[29,34],[20,14],[12,3],[30,-8],[10,12],[2,-17],[9,-13],[15,4],[6,-24],[6,-8],[12,3],[12,-18],[39,-8],[20,10],[18,-8],[10,1],[25,23],[7,13],[4,24]],[[6698,6710],[-23,-124],[6,-65],[12,-35],[9,-129],[-19,-109]],[[6683,6248],[-84,-25],[-59,15],[-15,30],[-24,387]],[[6501,6655],[-2,42]],[[6499,6697],[56,38],[23,79],[12,10],[26,-20],[82,-94]],[[5911,6115],[63,69],[19,87]],[[5993,6271],[29,-95],[65,-295]],[[6087,5881],[-54,-78]],[[6033,5803],[-15,62],[-10,29],[-24,95],[-9,24],[-10,2],[3,19],[6,71],[-3,9],[-6,-16],[-6,-37],[-6,-65],[-8,-3],[-20,55],[-4,32],[-10,35]],[[6172,5250],[-16,38],[-7,29],[-10,61],[-9,42],[-26,39],[-17,59],[-1,85],[-6,34],[-16,70],[-9,20],[-12,12],[-10,28],[0,36]],[[6087,5881],[88,-400],[32,-111],[9,-37]],[[6216,5333],[-44,-83]],[[6195,5040],[-8,76],[4,23],[-4,48],[-15,63]],[[6216,5333],[45,-64]],[[6261,5269],[-9,-108],[-11,-54],[-46,-67]],[[6380,5052],[-10,-11],[-11,-30],[-11,-12],[-14,0],[-19,-27],[-21,-20],[-22,1],[-24,-42],[-7,0],[-7,-14],[-17,2],[-10,19],[-5,23],[2,23],[-9,76]],[[6261,5269],[63,-26],[36,14]],[[6360,5257],[20,-205]],[[6535,5262],[-46,33],[-60,-14],[-69,-24]],[[5993,6271],[40,76],[44,15],[63,0],[25,-49],[157,-213]],[[6322,6100],[5,-6],[9,6],[13,-85],[7,-41],[8,1],[1,-12],[10,-26],[11,-6],[6,-14],[-6,-18],[4,-13],[-4,-26],[6,-30],[7,-5],[6,-43],[0,-14],[10,-18],[-3,60],[6,50],[8,6],[6,-31],[0,-57],[-8,-39],[8,-20],[10,-4],[12,12],[16,-6],[4,4],[17,-7],[18,12],[7,16],[5,26],[19,50],[2,-4],[13,29],[10,34],[1,-27],[-7,-28],[6,-2],[1,-46],[11,-40],[10,-20],[26,-35],[15,-3],[23,-67],[10,-19],[-8,-34],[-19,-50],[-9,-50],[-16,-1],[-4,-17],[-1,-62],[2,-20],[-18,-7],[-13,-18],[-5,-34],[-8,-18],[-19,-3],[-8,-18]],[[6535,5262],[-2,-39],[-8,-13],[-23,4],[-33,-30],[-7,-8],[-12,-28],[-2,-30],[-23,-32],[-45,-34]],[[7007,6948],[6,-55],[30,-15],[117,0],[1,-29],[-34,-65],[-28,-86]],[[7099,6698],[-23,-73],[-15,-170],[15,-38]],[[7076,6417],[-17,-75],[-107,-96],[-81,-221],[-26,-198]],[[6845,5827],[-19,-13],[-37,-10],[-10,16],[-12,-4],[-6,-13],[-27,0],[-31,-10],[-13,5],[-11,15],[-32,3],[-8,-2],[-8,16]],[[6631,5830],[-11,120],[2,40],[53,10],[10,55],[-13,84],[11,109]],[[6698,6710],[143,149],[166,89]],[[7067,5023],[33,-60],[35,-159],[15,0],[13,44],[56,11]],[[7219,4859],[-6,-48],[4,-79],[-1,-8],[-16,-4],[-8,-50],[6,-16],[-23,-20],[-5,-36],[-7,-18],[-11,-16],[-4,2],[-18,47],[-5,30],[-4,45],[-9,58],[-11,63],[-13,49],[-13,115],[-8,50]],[[7067,5023],[-17,73],[-12,85],[-9,106],[-6,88],[-3,59],[10,45],[0,10],[-9,24],[-3,50],[1,21],[-11,-1],[-5,-21],[4,-20],[-4,-29],[-7,-12],[-24,-24],[-15,9],[-7,12],[-31,74],[-6,23],[17,-3],[13,8],[12,29],[-36,10],[-20,31],[-9,32],[-10,4],[-11,20],[-3,35],[-14,12],[0,27],[-7,27]],[[7076,6417],[51,-189]],[[7127,6228],[63,-124]],[[7190,6104],[86,-109],[36,-31]],[[7312,5964],[81,-71],[49,-25],[51,-6],[50,44],[42,19],[19,-25],[-2,-57],[-8,-50],[-37,-134],[-14,-45]],[[7543,5614],[-5,12],[-9,-11],[-30,0],[0,-46],[-3,15],[-2,-22],[-6,-9],[-4,17],[-6,-21],[-5,9],[-1,-16],[-8,-1],[-5,26],[-5,-23],[-3,1],[-6,25],[-11,-27],[-20,-20],[-4,-11],[4,-32],[-8,-36],[-15,-28],[-20,-15],[-7,-12],[-24,-71],[-8,-18],[-8,-9],[-9,-27],[-28,-45],[-3,-32],[-13,-23],[-11,1],[-12,-45],[-6,9],[-12,-14],[-6,-34],[2,-93],[-2,-16],[6,-25],[0,-16],[-11,-72]],[[7282,5672],[-13,-54],[5,-65],[-2,-44],[-55,-139],[-10,-70],[21,-59],[31,-15],[101,253],[42,54],[0,30],[-38,85],[-45,44],[-37,-20]],[[8167,5599],[0,0]],[[8168,5613],[9,-7],[-7,-19],[-7,17],[5,9]],[[8372,6106],[6,-2],[-6,-35],[-2,-33],[-5,-19],[-4,11],[-14,-49],[-5,-30],[-13,-34],[-12,-9],[3,-23],[-2,-36],[-4,-17],[-7,-7],[-7,-43],[-13,-27],[-12,7],[-4,-11],[2,-27],[-13,-25],[-12,-10],[-15,-26],[-2,-21],[-13,-5],[-5,-15],[-11,10],[-13,-19],[-8,-3],[0,15],[-23,-14],[-6,19]],[[8152,5628],[2,13]],[[8154,5641],[37,215],[32,129],[13,5],[24,-39],[75,121],[37,34]],[[8039,5292],[-22,28],[-2,51],[17,36],[7,-2],[3,18],[10,-8],[4,10],[16,6],[7,-23],[-12,-34],[-5,-44],[-16,-15],[-7,-23]],[[8152,5628],[-3,-42],[-8,-13],[-6,6],[-4,-22],[-20,-7],[-5,7],[-9,-19],[-12,-1],[-15,-18],[-9,3],[-4,-30],[10,-31],[-14,-14],[-6,24],[-3,35],[5,31],[-8,8],[-11,-14],[-8,7],[-7,24],[-5,-22],[-14,-3],[-13,-22],[-1,-22],[-16,2],[-1,-19],[-11,-38],[-11,-17],[-4,-13]],[[7939,5408],[-30,61],[-2,69],[7,40],[23,25],[31,20],[122,12]],[[8090,5635],[64,6]],[[6049,7219],[-9,-3],[-14,38],[20,9],[1,17],[8,31],[13,5],[-6,17],[-14,21],[18,8],[25,26],[-4,14],[-48,-14],[-6,-13],[-38,-17],[-12,-12],[-5,10]],[[5978,7356],[71,145],[18,10],[37,0],[15,-39],[-29,-165],[-41,-88]],[[5973,7276],[0,-14],[7,-1],[15,9],[19,-4],[-7,-21],[-11,-5],[-14,4],[-9,-16],[-19,-8],[-10,-19],[-17,8],[5,24]],[[5932,7233],[41,43]],[[4945,6300],[-62,-30],[-151,-88]],[[4732,6182],[-5,26],[0,38],[14,49],[2,45],[17,39],[9,15],[27,26],[9,13],[14,42],[16,92],[10,10],[11,-32],[16,-20],[32,2],[12,16],[5,-18],[10,-6]],[[5911,6115],[-5,27],[-6,-5],[-3,-17],[9,-56],[20,-62],[16,-98],[5,-15],[11,-56],[19,-85]],[[5977,5748],[-43,-28]],[[5934,5720],[1,-34],[-9,-14]],[[5862,5624],[4,113],[-78,253],[-46,60],[-35,29],[-1,123],[-93,78],[-55,-58]],[[5558,6222],[-5,47],[4,31],[8,19],[19,24],[17,14],[25,-7],[13,-18],[4,-24],[15,-5],[9,-10],[22,-2],[12,-34],[25,4],[45,-23],[4,-13],[17,-3],[20,-15],[12,22],[12,13],[24,17],[20,-6],[3,-15],[7,-12],[7,5],[13,-9],[7,13],[15,-12],[17,19],[9,28],[9,76],[3,3],[16,102],[8,16]],[[5994,6467],[16,-55],[-2,-70],[-15,-71]],[[5937,6543],[23,21],[-17,-27],[3,-25],[-10,1],[-3,-12],[-25,-12],[-8,8],[-4,20],[8,10],[10,2],[0,14],[12,-5],[11,5]],[[5716,6522],[14,13],[-2,-18],[-12,-1]],[[5716,6516],[0,6]],[[5304,6411],[-31,-47],[-34,80]],[[5239,6444],[-20,199]],[[5219,6643],[20,8],[22,28],[9,1],[11,-13],[4,-26],[8,3],[13,20],[-3,-30],[-12,-32],[3,-23],[11,-19],[3,-28],[-7,-32],[-8,-11],[-15,-41],[11,-32],[10,-12],[5,7]],[[5449,7002],[-9,-17],[4,-7],[26,-23],[30,-36],[14,-36],[-4,-25],[-10,14],[-5,22],[-12,3],[-5,15],[-8,-1],[-9,-28],[-2,-29],[17,-20],[-2,-36],[-8,0],[-8,-14],[2,-19],[-7,-10],[-8,-28],[-11,5],[0,16],[8,23],[-3,6],[11,11],[-6,47],[-9,48],[-7,-8],[-15,19],[2,22],[-6,11],[-11,-8],[1,19],[-9,-6],[-7,31],[-23,12],[-9,12],[-32,61],[-11,13],[-10,21],[-7,28],[-6,34],[-10,29],[-28,24],[-7,-1],[-19,-33],[-12,-7],[-7,-15],[-13,108],[0,49],[15,48],[74,0],[26,29],[22,0],[56,-10],[-3,-76],[-6,-5],[-8,6],[-2,-10],[-18,-14],[-7,-13],[9,-24],[-7,-15],[2,-27],[10,-26],[25,-29],[14,-67],[12,-28],[11,-18],[15,-9],[15,4],[5,-12]],[[5580,7010],[0,0]],[[5580,7010],[-19,-177]],[[5561,6833],[-5,30],[-19,32],[4,10],[-4,14],[5,20],[0,25],[-3,9],[5,16],[0,15],[36,6]],[[5233,6819],[-1,7],[4,46],[-2,38],[-7,14],[1,14],[15,1],[15,23],[14,-45],[-5,-34],[2,-29],[-6,-40],[-12,6],[-7,-18],[-11,17]],[[5263,7050],[-1,-26],[-8,-50],[-12,15],[0,23],[-6,19],[3,25],[11,15],[11,7],[2,-28]],[[5085,7030],[1,-19],[-25,-30],[-4,-11],[-21,-10],[-12,-10],[-5,-17],[2,-9],[-7,-5],[-8,-25],[-11,-26],[-6,-33],[6,-34],[9,-16],[-17,-22],[-6,-19],[-6,-30],[2,-10],[-15,-5],[-13,-19],[-3,-24],[-9,-16],[-10,6],[-10,-6],[-41,-1],[-9,-17],[-12,-6],[-6,-24],[-7,-5],[-15,20],[-2,21],[-10,33],[-10,10],[26,26],[41,29],[19,68],[63,29],[15,29],[-19,165],[12,19],[123,17],[0,-23]],[[5385,6671],[-24,26],[-11,4],[-5,14],[10,25],[7,-4],[8,11],[13,-18],[27,7],[17,10],[2,-7],[-8,-30],[-2,-29],[5,-17],[-7,-22],[-11,2],[-12,20],[-9,8]],[[5554,6860],[0,0]],[[4596,6012],[11,25],[9,47],[8,28],[3,-25],[-10,-15],[-3,-49],[-18,-11]],[[4567,6021],[5,2],[5,-22],[-10,-12],[-9,12],[9,20]],[[4519,6029],[12,3],[22,15],[-16,-35],[-19,-2],[1,19]],[[5657,6761],[-1,8],[-14,25],[-7,-2],[10,15],[15,-23],[10,-5],[4,-33],[8,-3],[-1,-14],[-6,1],[-8,29],[-10,2]],[[5715,6611],[0,0]],[[5704,6623],[0,0]],[[5720,6648],[0,0]],[[5685,6642],[-6,-8],[-5,7],[8,9],[3,-8]],[[5693,6633],[0,0]],[[5697,6633],[0,0]],[[5701,6642],[0,0]],[[5681,6668],[0,0]],[[5677,6707],[0,0]],[[5680,6688],[0,0]],[[5692,6696],[0,0]],[[5687,6732],[20,-41],[-4,-3],[-19,36],[3,8]],[[5686,6663],[0,0]],[[5697,6655],[-5,1],[10,17],[-5,-18]],[[5707,6654],[-4,12],[6,9],[-2,-21]],[[5580,7010],[19,-44]],[[5599,6966],[37,34]],[[5636,7000],[3,14],[67,-7],[38,-34]],[[5775,6945],[-12,1],[-6,-22],[-18,-19],[-10,-23],[-2,16],[10,14],[-12,8],[-4,18],[-19,3],[-8,9],[-8,-10],[-10,6],[-13,-17],[-7,3],[4,-21],[14,-22],[-14,16],[-4,-12],[6,-5],[-2,-13],[-5,15],[-9,3],[9,-22],[-9,3],[-4,21],[-11,16],[3,12],[-10,-11],[3,-7],[-3,-20],[9,-38],[12,-28],[-11,11],[-3,-5],[4,-19],[-11,-11],[19,-15],[11,-23],[7,0],[5,-43],[-4,-5],[-10,27],[-14,-8],[2,-22],[7,-1],[3,-12],[-12,-6],[-10,8],[7,-32],[3,-32],[-9,10],[-8,-16],[-11,36],[-6,-15],[-6,22],[2,21],[-11,36],[6,20],[8,-4],[5,10],[23,-23],[11,15],[-22,19],[-14,3],[-18,-8],[-12,36],[11,11],[-4,8],[-9,-2],[-13,23]],[[5716,6516],[-29,-6],[-1,11],[-9,7],[-24,7],[1,18],[15,-3],[6,-10],[18,4],[19,-5],[4,-17]],[[5723,6704],[0,0]],[[5741,6710],[0,0]],[[5703,6865],[-8,10],[11,4],[-3,-14]],[[5707,6909],[0,0]],[[5684,6918],[0,0]],[[5712,6885],[0,0]],[[5684,6787],[0,0]],[[5583,6711],[-5,-5],[-4,20],[9,-15]],[[5570,6772],[3,20],[2,-15],[-5,-5]],[[5599,6966],[-19,44]],[[5580,7010],[1,79],[29,40],[41,-38],[-15,-91]],[[5744,6813],[-6,9],[10,22],[-22,-8],[1,40],[16,27],[14,6],[7,-11]],[[5764,6898],[1,0],[11,-64],[1,-33],[-31,7],[-2,5]],[[3441,7850],[9,-22],[-9,-40],[13,-30],[-37,-51],[-43,-8],[-17,-39],[-16,-24],[-12,-7],[-42,-10],[-43,6],[-18,-4],[-48,5],[-22,-4],[-13,-16],[-13,-48],[-28,-14],[-13,-19],[-20,-37],[-30,-74],[-12,-50]],[[3027,7364],[-3,-8],[-33,-25],[-267,189],[-86,14],[-77,60],[-205,3],[-11,2]],[[2345,7599],[-93,17],[-174,89],[-258,39]],[[1820,7744],[-16,2],[-296,229],[-80,-10]],[[1428,7965],[-35,-4]],[[1393,7961],[-4,21],[-2,-14],[-11,-9],[-9,7],[2,29],[-13,41],[-16,-2],[-14,-11],[-1,20],[5,16],[-21,48],[-15,15],[2,11],[-8,26],[4,8],[-10,11],[-8,17],[-19,24],[-9,44],[-9,12],[-1,-27],[6,-43],[-13,7],[-11,31],[-7,-4],[-15,7],[16,-23],[0,-7],[-20,-6],[-14,12],[-24,40],[-21,8],[-16,18],[12,8],[-6,20],[-16,-10],[-21,1],[-13,8],[-2,14],[-27,-5],[-19,4],[-27,-2],[-9,3],[-12,17],[-5,17],[-14,-13],[-11,10],[-3,11],[-16,12],[-19,8],[-19,19],[-15,-10],[1,-14],[-11,-24],[14,-9],[1,-23],[-5,-14],[-23,9],[-7,-3],[-12,-20],[-14,-7],[-24,-29],[-14,-4],[3,14],[9,13],[-9,33],[10,19],[7,29],[20,18],[28,-3],[3,5],[-27,28],[-13,-2],[-16,-24],[-24,-22],[-10,-19],[-9,-8],[0,-28],[-7,-11],[-16,-7],[-16,-29],[5,-15],[18,-11],[-6,-17],[-15,-16],[-12,-25],[-26,-13],[-9,-13],[-21,-23],[5,-22],[-14,-13],[-21,-11],[-22,-23],[-5,-19],[-10,-14],[-30,-14],[-12,12],[4,17],[9,9],[10,19],[14,14],[18,-2],[-1,23],[27,38],[3,49],[9,16],[3,26],[-24,-10],[-8,1],[-6,19],[-11,-9],[1,-30],[-7,2],[-19,33],[-17,5],[-12,-3],[-8,-16],[-14,-5],[-8,3],[-4,41],[4,17],[-2,14],[-11,33],[-32,-24],[-13,-3],[-16,30],[-13,15],[-2,9],[8,20],[25,-15],[12,7],[-11,24],[-18,-7],[-24,23],[-13,1],[-8,34],[9,6],[1,15],[7,7],[4,21],[11,16],[15,38],[5,6],[28,-16],[9,5],[14,22],[15,9],[22,2],[4,6],[1,25]],[[529,8611],[301,-48],[151,-9],[143,-57],[197,6],[208,169],[188,-153],[100,-153],[92,-148],[253,-97],[232,-25],[30,-2],[9,10]],[[2433,8104],[6,0],[24,14],[24,-2],[20,-15],[27,-14],[24,-30],[12,-30],[44,-22],[20,-20],[19,-12],[25,4],[33,-12],[5,-6],[-5,-51],[6,-20],[-1,-47],[-4,-26],[14,-20],[3,-11],[0,-28],[12,-3],[12,-16],[9,-19],[5,-24],[8,-1],[21,-33],[-7,31],[9,24],[12,-32],[4,30],[-3,15],[7,17],[1,18],[-7,35]],[[2812,7798],[127,13],[88,164],[149,5],[77,-39],[74,-101]],[[3327,7840],[1,-2]],[[3328,7838],[39,-52],[74,64]],[[8953,3194],[8,-13],[3,-17],[2,-43],[10,-15],[-5,-30],[8,-11],[4,-28],[1,-42],[8,-58],[9,-9],[9,16],[4,-22],[18,-27],[1,-45],[3,-25],[0,-35],[15,-51],[4,-48],[-2,-28],[11,-60],[21,-31],[9,-4],[5,-21],[16,-23],[15,-2],[-4,-33],[4,-14],[11,-15],[12,-99],[13,-22],[-2,29],[19,-21],[4,-14],[1,-57],[11,-25],[15,-15],[9,-42],[7,-6],[6,-39],[10,-20],[5,-43],[0,-56],[-3,-24],[12,-57],[3,-52],[-4,-23],[-4,-54],[-8,-57],[1,-52],[-4,-26],[-8,-31],[-2,-22],[-8,-27],[-11,-9],[-11,-37],[-4,-50],[-11,-37],[-2,-39],[-15,-32],[-6,-67],[-1,-52],[-3,-21],[-10,-21],[-34,-7],[-7,-5],[-34,-54],[-14,-4],[6,-21],[-27,33],[-1,21],[-15,27],[-15,-13],[9,-15],[-12,-8],[-27,-30],[-18,22],[-22,18],[-10,-8],[-9,6],[-16,21],[-18,38],[-5,28],[1,34],[-3,29],[-8,24],[-3,31],[-6,1],[-10,-13],[-12,-6],[-4,8],[6,15],[4,45],[-13,41],[-6,-24],[-5,-46],[-21,-11],[5,29],[8,-1],[4,13],[-1,33],[10,42],[1,26],[5,5],[2,18],[-8,33],[-2,-23],[-10,-18],[-10,-47],[-10,-7],[-17,-35],[-11,-48],[-5,11],[-5,43],[-6,29],[-8,26],[-6,31],[-12,1],[-3,16],[4,21],[-11,29],[-20,0],[-12,18],[-9,-5],[-10,7],[-20,31],[-12,-7],[-46,-5],[-16,-11],[-13,-14],[-25,-17],[-33,-4],[-12,-9],[-22,-28],[-17,-14],[-17,-56],[-7,-9],[-17,1],[-16,-11],[-12,16],[-9,-1],[-32,-11],[-14,0],[-12,-33],[-18,-2],[-13,-35],[-19,-12],[-27,5],[-17,18],[-9,22],[-16,15],[-2,49],[12,-1],[7,29],[3,44],[-1,40],[-5,39],[-14,62],[-4,48],[0,32],[-8,58],[-18,63],[1,29],[-11,54],[-13,33],[-1,26],[9,-37],[9,-7],[-5,38],[-8,23],[1,10],[9,-27],[7,-32],[5,-2],[-1,18],[4,19],[-16,60],[-5,23],[-2,43],[9,36],[2,22],[-4,66],[8,38],[5,-41],[6,3],[5,34],[24,36],[22,44],[8,11],[33,6],[10,20],[18,7],[7,23],[8,2],[10,-7],[20,11],[18,22],[14,40],[5,30],[18,34],[-4,61],[14,36],[5,23],[7,-20],[11,-52],[3,34],[9,-10],[1,24],[-9,16],[1,22],[11,-2],[8,-8],[12,2],[-10,17],[2,44],[8,13],[9,-12],[4,43],[0,17],[9,10],[10,-2],[7,36],[5,9],[7,-20],[9,41],[9,-20],[10,-10],[12,-36],[3,-49],[10,35],[21,-7],[12,-21],[6,33],[-11,24],[-1,13],[10,21],[0,15],[14,33],[-1,15],[6,28],[14,10],[-3,13],[9,15],[10,-12],[24,5],[10,12],[-4,30],[-16,27],[9,6],[8,-17],[8,0],[17,-30],[24,-13],[10,5],[4,-20],[7,-3],[7,14],[14,-13],[4,-15],[6,4],[4,29],[12,-24],[-6,-13],[-5,-43],[-6,-1],[-12,-18],[4,-30],[-2,-22],[-12,-35],[-2,-15],[7,-20],[13,-20],[16,-42],[11,0],[19,-27],[14,-32],[19,-11],[8,-32],[16,-24],[12,-2],[15,17],[9,44],[5,36],[3,43],[9,46],[-7,34],[5,46],[-4,22],[2,55],[9,25],[-6,17],[7,38],[5,57],[6,18]],[[9074,821],[-20,23],[-7,12],[-15,55],[11,-8],[-1,17],[-17,46],[-6,40],[-1,22],[34,-21],[13,-12],[10,1],[15,11],[9,-1],[13,17],[6,-12],[1,-52],[-9,-49],[-5,-34],[-12,-9],[-7,-13],[-8,-31],[-4,-2]],[[9059,7127],[0,0]],[[9079,7155],[0,0]],[[9065,7196],[4,-5],[-12,-8],[-8,-23],[-11,-7],[10,16],[9,30],[8,-3]],[[9125,7259],[-16,-20],[-9,-4],[-11,-29],[-11,-10],[9,20],[-1,7],[21,31],[12,3],[11,18],[4,-12],[-9,-4]],[[9153,7280],[4,19],[18,26],[5,-1],[-27,-44]],[[9190,7342],[0,0]],[[9187,7361],[0,0]],[[9233,7410],[0,0]],[[9251,7441],[0,0]],[[9254,7465],[0,0]],[[9281,7521],[0,0]],[[9277,7524],[0,0]],[[9293,7535],[0,0]],[[9298,7569],[4,3],[-5,-26],[1,23]],[[9289,7587],[0,0]],[[9226,7387],[0,0]],[[9318,7608],[-7,-5],[1,18],[10,6],[8,23],[6,4],[1,-17],[-10,-24],[-9,-5]],[[9337,7653],[9,7],[-2,-15],[-7,8]],[[9317,7664],[0,0]],[[8973,7821],[2,-40],[-5,-40],[0,-25],[3,-25],[8,-27],[8,-48],[11,-52],[14,-55],[-26,35],[-12,2],[-9,-10],[-6,-34],[-4,-54],[4,-32],[10,-37],[7,-6],[6,-21],[-4,-41],[-9,41],[-10,10],[-8,-11],[-12,-47],[-6,16],[-2,31],[8,37],[-5,29],[9,35],[-2,23],[-7,38],[5,10],[4,30],[1,68],[2,43],[-4,39],[-10,28],[-2,29],[6,30],[-1,46],[12,2],[13,18],[11,-35]],[[8888,6976],[3,41],[-9,12],[-2,26],[22,31],[-4,21],[7,10],[13,-17],[6,7],[0,38],[11,14],[1,52],[-6,40],[10,18],[32,-70],[13,-22],[15,-15],[16,-8],[21,29],[-8,-33],[10,-45],[-12,-16],[-12,-6],[-11,6],[-9,-12],[-14,-42],[-4,-19],[-35,41],[-15,1],[-13,-19],[-7,22],[-13,-14],[1,-10],[14,-16],[11,-18],[-5,-7],[-11,2],[-9,-26],[-7,4]],[[7927,9245],[19,8],[12,14],[36,6],[60,22],[13,9],[-7,17],[10,17],[11,-7],[8,-12],[15,-8],[20,0],[14,8],[6,-2],[3,-26],[6,-13],[18,25],[21,1],[19,4],[29,0],[50,-7],[-4,-25],[5,-10],[25,-5],[33,-10],[46,5],[18,-11],[17,30],[0,25]],[[8430,9300],[29,-139],[175,-122],[695,-125],[340,-52],[101,-115],[19,-202],[-82,-136],[24,-66]],[[9731,8343],[-2,-19],[-11,-10],[-7,10],[-5,20],[-8,10],[-26,0],[-31,-12],[-30,-40],[-2,4],[7,42],[-12,0],[-10,-17],[-13,-11],[-2,-16],[-8,-6],[-13,30],[-10,-14],[-10,-5],[-10,-25],[6,-13],[-14,-23],[4,-5],[-19,-30],[-11,-28],[-1,-17],[12,-13],[17,1],[8,-10],[-14,-28],[-3,-10],[7,-31],[10,-3],[1,-33],[-4,-12],[-13,5],[5,24],[-11,-7],[-13,-28],[-10,-41],[4,-22],[10,-18],[-12,-23],[-25,2],[-7,-6],[-13,-20],[-7,-16],[0,-21],[6,-24],[-16,-8],[-24,-22],[-2,-45],[-14,-39],[-33,-51],[-10,69],[0,26],[-9,37],[-9,74],[0,18],[-6,62],[-1,26],[5,72],[2,7],[24,42],[9,30],[-3,16],[20,12],[23,20],[30,42],[7,25],[33,43],[19,29],[8,23],[16,14],[26,17],[14,39],[-7,7],[10,29],[2,29],[7,7],[28,4],[-6,11],[-26,7],[-31,-15],[0,-11],[-8,-30],[1,-11],[-14,-7],[-20,-23],[-25,-34],[-17,-10],[6,26],[-12,3],[-2,8],[12,41],[-5,7],[-21,-15],[-11,17],[-48,-11],[-19,-17],[0,-20],[-21,-25],[2,-16],[-16,-12],[-23,-29],[-11,-30],[0,-13],[7,-7],[16,-1],[4,-13],[-27,-13],[-22,6],[-18,-17],[-8,11],[-24,-17],[-9,7],[1,10],[22,9],[-9,21],[-11,7],[-28,-3],[-11,14],[-19,0],[-9,-8],[1,-13],[-9,-15],[-14,12],[-26,-5],[-19,7],[-7,-2],[-3,-20],[-12,4],[-3,21],[-71,-4],[-14,-9],[-12,-15],[-16,-32],[-21,-19],[-15,-43],[-32,-37],[-15,-23],[-31,-60],[-20,-28],[-34,-41],[-8,-12],[-3,-22],[6,-9],[17,-2],[22,4],[-4,-55],[11,0],[8,12],[9,-4],[-8,-23],[25,-2],[7,8],[5,17],[0,20],[27,0],[20,-21],[6,-19],[22,-35],[-8,-16],[6,-10]],[[8917,7794],[-171,-49],[-210,-147],[-89,40]],[[8447,7638],[-116,52],[-90,246],[-75,354],[-168,20],[-235,-301],[1,-28],[-162,87],[-426,-5],[-362,-99],[-13,8]],[[6801,7972],[-160,93]],[[6641,8065],[103,38],[362,323],[628,605],[193,214]],[[5699,8704],[-2,19],[-14,4],[-11,14],[-10,1],[-18,-8],[-16,18],[-12,-16],[-7,-19],[-12,-6],[-7,-11],[6,-14],[-15,-22],[12,-24],[-9,-12],[-10,-29],[-28,-31],[-10,4],[-7,-18],[-16,-16],[-5,-14],[-12,0],[2,-17]],[[5498,8507],[-3,-7],[-35,5],[-32,-47],[-108,2]],[[5320,8460],[-38,159],[23,29],[10,-6],[1,15],[14,21],[6,16],[11,-2],[0,20],[-6,4],[11,34],[11,-2],[2,19],[12,3],[-12,20],[6,16],[17,0],[-7,17],[29,22],[-6,8],[11,14],[12,-4],[10,15],[-5,10],[14,17],[9,-13],[7,13],[-4,21],[15,0],[-5,16],[15,15],[4,15],[15,6],[6,22],[7,-8],[12,4],[16,-9],[16,41],[6,-3],[-5,-28],[10,14],[5,19],[11,3],[8,14],[14,-15],[11,30],[12,-4],[13,-16],[8,24],[9,15],[11,-1],[10,20],[23,11],[12,0],[-17,-25],[-4,-30],[5,-2],[9,19],[19,30],[9,9],[1,-38],[14,14],[11,28],[19,4],[3,-5],[-9,-17],[-3,-21],[11,-4],[3,14],[11,22],[6,-1],[21,-18],[20,-5],[9,-17],[-15,-13],[-43,1],[23,-22],[5,-10],[28,4],[17,-6],[20,16],[4,-18],[11,-16],[19,-6],[1,-19],[9,10],[50,-4],[50,-26],[12,-12],[28,-35],[34,-15],[25,-20],[5,-9],[1,-24],[6,-20],[-11,-27],[-24,-26],[-22,-12],[-32,-2],[-63,18],[-45,27],[-20,5],[-12,21],[-10,4],[-12,-3],[15,-25],[20,-25],[30,-22],[5,-16]],[[5964,8741],[-265,-37]],[[6641,8065],[-144,84],[2,8],[-143,0]],[[6356,8157],[-76,0],[-370,229],[-7,18],[-26,23],[-6,13],[-8,0],[-7,11],[-10,-21],[-6,-1],[-35,22],[-216,47],[-5,4],[4,20],[8,10],[5,21],[12,-6],[6,7],[7,38],[7,-10],[46,76],[13,13],[11,-1],[-5,20],[1,14]],[[5964,8741],[-3,-22],[-9,-6],[4,-21],[9,-31],[3,-22],[6,-6],[26,-7],[6,-20],[33,-12],[14,7],[3,20],[-4,13],[-18,1],[-7,6],[-12,26],[9,22],[6,0],[14,-15],[44,-25],[12,-3],[10,5],[9,-5],[4,20],[-13,29],[-4,21],[3,10],[39,27],[24,33],[29,-11],[21,-17],[10,43],[-4,35],[-15,12],[15,33],[-2,27],[-9,17],[5,12],[18,-8],[25,4],[8,-4],[22,-49],[-33,-5],[-10,-7],[-6,-16],[14,-16],[9,-18],[19,-9],[33,7],[4,5],[10,49],[15,6],[16,14],[36,22],[37,19],[12,10],[2,-15],[11,1],[8,24],[14,9],[10,-2],[-3,-32],[-10,-3],[-3,-12],[9,-6],[26,8],[5,-8],[11,25],[5,6],[24,6],[23,-8],[14,3],[12,15],[23,11],[16,-11],[-8,-15],[2,-7],[17,-7],[5,20],[16,1],[12,16],[1,14],[-17,34],[19,19],[34,-2],[46,-18],[26,-17],[14,-3],[34,-22],[45,-49],[8,2],[17,43],[-17,1],[-11,22],[0,21],[-9,9],[-25,5],[2,24],[13,19],[-4,35],[-14,2],[-3,10],[4,17],[28,22],[14,16],[14,34],[7,39],[8,14],[24,-7],[40,7],[22,-1],[7,-4],[4,-20],[-10,-38],[-17,-27],[-2,-11],[9,-12],[15,-32],[3,-27],[-10,-19],[4,-39],[-1,-42],[9,-32],[13,-8],[2,-10],[-6,-16],[-9,-37],[-26,-36],[-14,-15],[4,-17],[-20,-11],[-29,14],[-20,-5],[3,-10],[16,-15],[20,-7],[48,-5],[10,24],[17,10],[14,16],[8,29],[11,10],[10,21],[-2,30],[-7,17],[3,18],[11,8],[18,5],[22,1],[19,-23],[2,-25],[-4,-34],[15,-16],[16,-1],[11,5],[2,9],[-17,12],[-12,2],[0,12],[13,13],[-9,48],[-7,9],[-50,20],[-19,-9],[-28,5],[-7,43],[4,22],[13,37],[-16,42],[-13,22],[11,18],[15,4],[21,20],[5,28],[-2,22],[17,-7],[-1,-33],[-8,-20],[0,-32],[10,-18],[37,-10],[21,-3],[10,-13],[14,0],[-7,29],[-6,9],[-36,6],[-14,19],[3,11],[17,2],[20,-8],[9,5],[-1,23],[16,7],[16,0],[31,-19],[14,-17],[23,-14],[23,-1],[9,6],[1,-11],[-18,-21],[-5,-57],[4,-4],[9,25],[8,8],[8,-17],[-1,-24],[18,15],[-1,10],[-14,43],[11,31],[-10,15],[-21,16],[-3,13],[-37,16],[-4,10],[0,31],[-11,22],[11,17],[29,4],[31,0],[45,10],[10,-12],[24,18],[18,3],[7,-6],[-12,-11],[-5,-13],[28,11],[15,21],[-4,15],[-16,14],[-4,10],[4,25],[64,49],[21,7],[45,7],[54,16],[31,22],[35,-1],[5,-6],[-5,-13],[32,-2],[32,13],[12,1],[21,-7],[9,6],[0,17],[6,11],[23,1],[16,12],[-8,17],[1,11],[15,14],[19,12],[28,14],[16,2],[31,-2],[10,-8],[1,-9],[-19,-13],[-8,-11],[6,-5],[23,4],[19,-5],[26,3],[-3,-13],[-14,-15],[-4,-10],[35,1],[3,-3],[13,18],[39,3],[49,-9],[18,-8],[15,-14],[6,-15],[20,3],[5,-17],[-17,-27],[14,-16],[-29,-28],[-27,-11],[-80,-66],[-10,-9],[-30,-12],[-30,-19],[-25,-37],[3,0]],[[6008,8428],[-17,42],[3,23],[-2,12],[-33,29],[2,-15],[20,-14],[6,-21],[-14,-1],[-1,-10],[-10,30],[0,-28],[-9,7],[-8,22],[-2,-7],[16,-30],[2,-25],[23,-21],[4,-23],[-12,3],[-5,9],[-5,-8],[18,-5],[11,-12],[15,25],[-2,18]],[[5971,8581],[-3,11],[-15,9],[6,-28],[11,-20],[-3,18],[16,1],[-12,9]],[[5926,8570],[-1,-10],[11,-7],[10,3],[-4,14],[-16,0]],[[5976,8457],[0,0]],[[2899,8981],[2,9],[-39,42],[-18,6],[-3,18],[-8,11],[-17,11],[-14,15],[-7,-5],[-31,17],[-5,-5],[12,-11],[36,-23],[6,-19],[-14,-10],[-17,3],[-24,17],[-9,2],[-3,-12],[8,-22],[-27,20],[-13,-9],[-18,11],[-11,-4],[-43,11],[-31,0],[-10,6],[-1,20],[-15,6],[-5,-11],[-23,-1],[-14,5],[-16,16],[-4,21],[11,2],[30,-5],[14,7],[-21,24],[-25,7],[-17,-1],[-15,7],[5,32],[12,6],[1,8],[-13,13],[5,31],[15,30],[28,32],[33,14],[35,3],[11,-7],[-40,-49],[-5,-17],[2,-12],[16,-18],[-7,-23],[14,-28],[20,-20],[-17,-15],[-1,-10],[31,-4],[8,21],[-6,22],[-14,8],[-11,17],[13,20],[23,-2],[-15,15],[-18,11],[0,24],[11,10],[34,-1],[-28,21],[10,10],[30,10],[21,11],[32,-7],[29,-47],[1,-5],[-16,-43],[0,-24],[13,-4],[13,11],[4,14],[17,2],[6,-5],[2,-24],[13,-2],[-2,27],[8,20],[13,8],[22,1],[26,-10],[15,3],[8,-5],[12,-19],[16,-17],[-22,-27],[-2,-8],[11,-10],[19,19],[12,-9],[11,-29],[21,34],[24,-9],[11,-11],[-17,-31],[15,2],[19,9],[0,-23],[10,-10],[17,9],[16,3],[18,-17],[-8,-12],[-23,-14],[-3,-9],[6,-8],[31,12],[9,13],[13,-9],[14,-28],[-27,-1],[-6,-5],[6,-13],[16,-2],[19,-13],[3,-10],[-27,2],[-21,9],[-4,-6],[15,-19],[-2,-7],[-20,-4],[3,-9],[46,-29],[8,-28],[9,7],[24,-11],[20,6],[20,-28],[5,-11],[-19,-7],[0,-15],[45,5],[-5,-18],[18,-6],[12,12],[24,-27],[-8,-22],[-10,-1],[-12,8],[-10,-7],[16,-20],[1,-9],[-14,-6],[-8,-17],[-15,22],[-4,-35],[5,-30],[-5,-2],[-18,14],[-7,23],[-12,-9],[-9,20],[4,21],[-19,8],[-33,39],[-10,1],[-13,-10],[-1,-7],[17,-28],[-12,-6],[-22,27],[15,-47],[14,-3],[14,-46],[7,-14],[11,9],[15,-21],[17,-13],[-8,-4],[1,-13],[23,-31],[1,-37],[-16,38],[-7,8],[1,-17],[13,-41],[0,-10],[-11,4],[11,-37],[-15,16],[-11,22],[-22,5],[-18,22],[-18,31],[3,-26],[-23,21],[-11,1],[12,-30],[10,-14],[23,-21],[16,-21],[10,-18],[11,-38],[-23,11],[-35,23],[-18,4],[-13,8],[-12,21],[-14,4],[-34,21],[-9,11],[10,26],[-17,17],[-14,4],[-10,11],[-11,24],[-1,17],[-14,2],[-16,11],[-8,1],[3,-24],[-7,-3],[-21,11],[-14,-21],[-16,-2],[-34,11],[-10,9],[2,23],[5,12],[13,5],[1,23],[19,-3],[24,-10],[12,-21],[0,25],[20,5],[16,9],[16,-3],[2,9],[-14,26],[-10,12],[1,13],[7,2],[27,27],[4,18],[16,27],[-1,19],[-16,44],[-7,12],[-21,10],[-13,16],[-10,28],[-12,-13],[-10,0],[-28,-10],[-2,22],[28,5]],[[2865,8848],[-6,5],[-5,23],[13,36],[8,9],[17,5],[21,-16],[-1,-39],[-17,-20],[-30,-3]],[[2271,9024],[14,10],[43,-39],[5,-18],[14,-17],[-20,-20],[-16,0],[-22,8],[-16,10],[-33,14],[5,11],[24,19],[2,22]],[[2724,8650],[2,-39],[25,-1],[22,-18],[-15,-16],[-12,1],[-30,13],[-14,27],[-13,8],[-9,-9],[0,-22],[-16,-6],[-16,-26],[-14,-9],[-8,2],[1,28],[-5,11],[-42,-15],[2,15],[27,28],[-5,29],[6,41],[13,55],[14,-19],[-4,-16],[17,-15],[5,16],[18,-13],[19,-25],[27,-16],[5,-9]],[[2812,7798],[-2,39],[-6,33],[8,1],[-5,23],[-13,15],[-4,30],[27,16],[37,50],[19,48],[3,39],[-3,34],[-6,28],[-17,32],[-26,32],[-4,11],[12,21],[10,42],[13,12],[-8,49],[3,20],[-22,3],[14,30],[6,27],[-11,16],[-4,26],[4,13],[14,17],[10,-2],[36,-20],[27,-3],[30,16],[19,-16],[34,-45],[-3,-13],[26,-24],[24,-11],[14,7],[4,-22],[-7,-12],[-2,-14],[11,-80],[-4,-17],[-10,1],[-2,-22],[5,-9],[14,13],[18,3],[13,-22],[3,-23],[6,6],[27,10],[9,31],[7,-5],[8,-23],[6,46],[13,21],[-8,16],[3,15],[12,3],[9,26],[9,-12],[17,-36],[7,-26],[17,-36],[-3,-21],[7,1],[4,-25],[16,-14],[5,-21],[-10,-9],[10,-17],[10,-7],[4,-21],[-6,-6],[-22,3],[11,-36],[14,-8],[27,-36],[3,-17],[-6,-26],[6,-2],[19,8],[9,-5],[22,-22],[31,-14],[-2,-9],[-18,-13],[-19,-10],[-15,-20],[-13,-2],[-8,-11],[-2,-26]],[[2359,9211],[-2,17],[-11,26],[-3,19],[4,34],[5,11],[16,-1],[-9,23],[6,5],[26,2],[34,-11],[16,-1],[30,4],[16,-11],[-24,-47],[-19,-29],[-17,-3],[-30,5],[-16,-2],[18,-23],[-3,-10],[-10,-12],[-12,-3],[-15,7]],[[1655,9182],[-4,-16],[-8,-9],[-15,-4],[-15,2],[-7,-16],[-11,-10],[-25,4],[-17,38],[-14,12],[-29,7],[-7,12],[20,20],[1,12],[-6,27],[13,6],[4,12],[14,17],[6,19],[-1,11],[-19,27],[-5,14],[21,2],[28,-2],[42,-32],[66,-32],[44,-24],[-25,-18],[-33,-42],[-19,-7],[1,-30]],[[2154,9080],[26,-19],[13,-13],[4,-26],[-15,0],[-22,15],[-15,-12],[-16,-5],[2,-23],[14,3],[16,9],[11,-18],[0,-8],[-13,-13],[-25,-7],[-28,3],[-20,8],[-29,17],[-12,18],[-13,-3],[-5,-12],[-14,-16],[-31,-4],[-16,-14],[-34,-11],[-33,-4],[-25,2],[-17,-3],[-13,10],[2,28],[-11,10],[-39,3],[-16,4],[-21,12],[-9,16],[-16,18],[10,10],[20,2],[8,6],[29,3],[60,-3],[35,2],[5,5],[-37,23],[-24,6],[-71,3],[-40,-4],[-21,17],[0,7],[30,11],[13,-1],[34,8],[6,9],[-5,11],[-25,-2],[-20,-5],[-28,25],[-9,-2],[-9,17],[16,32],[33,28],[8,3],[80,-61],[103,-62],[131,-11],[28,3],[21,-28],[20,-14],[19,-3]],[[3887,8683],[-28,4],[16,-25],[4,-12],[-4,-13],[-28,-5],[22,-25],[5,-11],[-10,-18],[-14,0],[4,-20],[-5,-15],[-14,6],[3,-32],[-13,4],[-26,-4],[8,-16],[18,-20],[-1,-33],[-4,-31],[-16,-1],[6,-19],[1,-36],[-20,-4],[10,-12],[5,-20],[-5,-15],[-16,13],[-3,76],[-12,59],[12,169],[29,87],[86,-16],[-1,-14],[-9,-1]],[[3695,8385],[-5,0],[-13,-19],[-10,32],[-26,28],[-7,25],[1,24],[-26,15],[-3,11],[9,36],[-17,6],[-4,28],[-14,3],[-7,18],[10,27],[16,11],[11,14],[-3,22],[-24,-9],[-8,-14],[-14,-14],[-5,10],[1,21],[-4,51],[-3,11],[-10,-2],[-15,28],[-1,11],[11,18],[-4,5],[-13,-2],[3,15],[22,6],[4,21],[-27,1],[-5,12],[13,16],[-12,4],[3,19],[14,11],[63,-21],[29,-33],[12,-162],[39,-144],[42,-75],[-1,-59],[-4,-5],[-18,-1]],[[529,8611],[-1,12],[-11,23],[12,4],[1,21],[-10,11],[-24,-13],[-18,-23],[-7,-2],[-23,11],[-20,2],[-16,-5],[-33,6],[-6,7],[-1,30],[21,1],[5,6],[-13,8],[-57,25],[13,12],[19,7],[29,17],[13,12],[30,17],[18,-4],[-1,-26],[30,-9],[13,1],[18,11],[10,12],[19,-5],[13,1],[3,17],[-33,11],[-16,2],[-4,24],[-19,6],[-31,4],[-3,16],[-19,26],[-65,44],[15,18],[1,16],[39,4],[23,9],[9,12],[6,20],[18,36],[19,21],[28,11],[35,-1],[0,13],[-9,18],[38,2],[29,6],[25,27],[12,1],[12,-10],[-2,-21],[18,-5],[11,16],[17,-6],[42,-4],[23,-29],[42,-5],[37,5],[15,-3],[28,-12],[43,-5],[26,-11],[54,6],[14,-7],[31,-26],[15,-10],[23,2],[12,-4],[25,-15],[20,-17],[15,-8],[42,-10],[20,-12],[-6,20],[-8,11],[-1,14],[17,14],[18,3],[31,-5],[32,26],[30,8],[10,13],[23,4],[11,-4],[-6,-13],[-18,-9],[-13,-12],[-31,-14],[-9,-17],[-22,-8],[-9,-16],[11,-9],[18,-24],[-1,29],[15,8],[14,22],[22,1],[26,25],[26,6],[8,11],[22,15],[4,16],[-17,28],[11,-4],[18,-18],[16,-44],[23,-25],[14,-7],[7,5],[-5,30],[19,9],[5,-12],[-2,-23],[22,-2],[14,15],[7,16],[20,2],[19,-9],[39,-25],[67,-30],[28,-7],[31,2],[11,-3],[25,-21],[8,-19],[-36,-9],[-4,-23],[41,-12],[44,-3],[20,4],[34,13],[12,-1],[17,-16],[19,-6],[20,-18],[0,-10],[-11,-11],[27,-37],[-2,23],[13,6],[-13,27],[-3,21],[1,25],[40,10],[9,17],[7,1],[33,-18],[24,1],[8,-13],[15,-10],[24,-7],[14,0],[11,7],[46,-1],[13,2],[15,9],[24,-26],[6,1],[3,27],[-18,12],[-17,2],[1,14],[22,1],[38,-21],[-3,-39],[2,-16],[28,-21],[-7,50],[5,25],[19,0],[15,28],[19,7],[-6,27],[-14,-6],[-13,3],[7,17],[23,8],[15,-19],[0,40],[-10,-2],[-19,4],[-11,11],[-9,-3],[-16,6],[-22,15],[-9,11],[-1,15],[15,19],[-21,20],[8,26],[12,11],[13,-9],[4,13],[-11,21],[9,11],[28,2],[16,-9],[16,-14],[8,-23],[-3,-20],[15,-17],[25,-32],[-5,-11],[-12,-2],[-11,-27],[19,-9],[22,2],[19,-11],[-12,-19],[12,-20],[4,-19],[0,-27],[17,16],[8,37],[9,14],[6,-1],[23,-27],[8,-27],[-2,-14],[-14,2],[-3,-23],[4,-13],[28,-47],[23,15],[3,22],[17,26],[8,46],[3,6],[21,0],[2,17],[-24,22],[1,29],[7,9],[23,0],[43,-20],[16,-21],[14,2],[5,-7],[3,-33],[-14,-11],[-9,18],[-13,-9],[5,-27],[9,-24],[25,-36],[-6,-31],[-23,-31],[-9,-3],[-14,-16],[-9,9],[-21,31],[-13,10],[-9,-9],[17,-17],[19,-29],[-34,-2],[-12,24],[-38,-3],[-3,-8],[24,-22],[-2,-6],[-33,-47],[-15,-5],[-11,7],[-13,19],[-31,19],[-31,-6],[33,-16],[22,-25],[21,-14],[28,-5],[-8,-36],[-26,-37],[-20,-7],[-11,4],[-13,13],[-1,-21],[3,-24],[-27,3],[-20,13],[-48,13],[26,-28],[20,-5],[24,-15],[4,-15],[-8,-11],[-14,-7],[-24,5],[-4,-9],[15,-14],[-6,-14],[-13,-10],[-23,-30],[2,-23],[-15,-14],[-14,-40],[-10,-61],[-2,-31],[4,-46],[7,-12],[15,-4],[14,3],[8,-11],[16,-63],[3,-51]],[[3181,9487],[-34,15],[4,-27],[-30,6],[-39,20],[25,22],[-7,13],[-41,1],[-18,3],[-26,21],[7,10],[16,1],[38,-4],[42,-2],[27,5],[16,10],[1,11],[-18,16],[-29,-13],[-31,3],[-20,-6],[-19,8],[-9,12],[-18,8],[-15,1],[-18,16],[4,26],[45,11],[42,8],[12,13],[24,11],[31,0],[13,4],[25,-2],[16,17],[8,41],[-12,7],[-24,1],[-14,-6],[-12,4],[-16,13],[8,25],[17,11],[78,27],[25,5],[-15,-211],[25,-138],[-33,3],[-10,-6],[-41,-14]],[[2159,9274],[21,-20],[19,-9],[24,37],[-26,32],[-1,11],[21,-3],[14,7],[13,-12],[14,0],[5,9],[16,4],[17,-3],[11,-7],[-15,-24],[-20,-12],[-5,-12],[9,-11],[9,3],[29,-14],[7,-9],[2,-14],[-8,-12],[-5,-33],[-13,-16],[-15,2],[-10,12],[-8,-4],[13,-18],[-10,-13],[-16,2],[-25,39],[-13,15],[-37,17],[-28,34],[11,22]],[[2337,9517],[-12,16],[-14,13],[2,8],[30,1],[20,-8],[20,-2],[11,-12],[-4,-24],[-53,8]],[[2546,9385],[-2,22],[-15,-4],[-9,-17],[-12,-6],[-23,7],[-15,19],[-8,-16],[-14,2],[-14,46],[7,16],[-3,22],[-23,31],[-1,11],[23,7],[31,1],[37,-19],[-8,-6],[-25,-8],[-4,-15],[27,0],[16,-8],[15,-29],[8,-3],[3,13],[17,2],[11,6],[10,-4],[19,-16],[12,-2],[10,15],[17,9],[46,12],[56,-3],[21,-18],[29,-10],[7,-14],[-28,-18],[-2,-8],[6,-22],[-56,-5],[-16,10],[-4,21],[-15,3],[1,-23],[-27,-6],[-16,0],[-30,14],[-3,-14],[-33,-6],[-18,2],[-5,9]],[[2891,9951],[3,12],[-22,26],[6,8],[41,-9],[21,-2],[20,-15],[6,5],[-4,18],[40,-2],[21,-19],[7,0],[-4,24],[13,2],[80,-22],[24,3],[38,-1],[41,-8],[23,-10],[21,-1],[17,-12],[-5,-11],[-16,-4],[-15,-12],[-23,-6],[-40,6],[-28,0],[-34,-10],[-7,-15],[9,-12],[23,0],[21,9],[10,0],[8,-18],[-33,-11],[-41,-27],[-16,-7],[-27,-21],[-28,0],[8,-30],[-5,-6],[-29,-15],[-30,2],[-18,7],[-30,5],[-8,-10],[32,-23],[-8,-5],[-41,0],[-33,7],[-25,-2],[-1,-21],[29,2],[28,-9],[7,-5],[2,-22],[-17,-10],[-7,-23],[-19,1],[-5,-6],[14,-16],[-25,-7],[-32,7],[-5,-3],[4,-33],[-18,-15],[-44,8],[-18,7],[-13,-3],[-15,-16],[18,-5],[49,-8],[19,-6],[25,-1],[8,-11],[0,-12],[-11,-12],[-45,-13],[-27,-10],[-16,30],[-15,-1],[-18,10],[4,-22],[-37,5],[-24,25],[-5,-1],[7,-24],[-13,-10],[-62,7],[-26,18],[-3,-15],[-8,-5],[-23,10],[5,27],[19,3],[19,14],[15,-1],[6,6],[-13,13],[-13,21],[7,9],[38,-5],[11,-6],[14,-17],[17,-11],[34,-2],[10,4],[8,19],[-38,0],[-13,5],[-2,28],[3,5],[-46,10],[-12,-4],[3,25],[14,18],[14,5],[23,0],[32,-3],[42,-14],[20,6],[-42,26],[-22,11],[-45,41],[-5,-8],[-17,29],[4,11],[22,-3],[49,-2],[20,-12],[32,-26],[28,-1],[-17,18],[-25,10],[15,24],[18,11],[22,1],[19,7],[57,8],[-29,17],[45,29],[27,69],[2,12]],[[3486,9014],[-5,11],[-1,27],[3,11],[27,-6],[43,-27],[6,-18],[-18,-4],[-29,-14],[-26,20]],[[3328,7838],[28,16],[15,25],[15,16],[15,3],[12,-19],[-5,-14],[5,-14],[13,13],[15,-14]],[[8430,9300],[20,13],[16,-2],[25,-19],[56,0],[22,-20],[0,-12],[-33,-18],[-31,-24],[0,-9],[25,-3],[9,-5],[28,-28],[25,-42],[23,-26],[17,-10],[8,1],[9,12],[25,58],[11,10],[3,-15],[9,-10],[31,-14],[11,3],[24,15],[20,0],[15,-7],[24,-24],[15,21],[-1,7],[15,11],[14,-14],[16,-1],[0,31],[3,29],[-14,-5],[-11,3],[10,12],[35,8],[20,22],[25,-8],[66,-16],[29,-3],[-22,-20],[23,1],[1,-17],[-22,-14],[-3,-10],[9,-1],[18,9],[12,10],[20,26],[50,-2],[23,-10],[5,-10],[-28,-19],[28,-14],[27,-7],[22,-18],[4,-14],[14,-17],[35,5],[46,15],[28,3],[37,-4],[28,-8],[23,-19],[11,-24],[-5,-33],[6,-8],[28,-5],[0,-23],[5,-13],[9,5],[7,14],[15,13],[30,1],[19,9],[9,-1],[7,-14],[9,-3],[47,-3],[11,4],[17,16],[21,-31],[25,-19],[4,-13],[7,-5],[20,5],[20,10],[2,8],[-13,38],[-10,4],[11,29],[53,-8],[15,-5],[3,-10],[17,5],[55,1],[16,-5],[25,-13],[17,-3],[26,-17],[9,-2],[29,-22],[0,-287],[-27,-13],[-8,-12],[-20,-4],[-16,4],[-9,23],[-11,-10],[-11,-1],[-10,9],[5,-16],[-7,-9],[16,-10],[8,11],[9,-4],[0,-15],[13,-15],[17,4],[7,-35],[-9,-17],[7,2],[18,-35],[-2,-15],[10,3],[-1,-21],[-14,-16],[-40,14],[-3,13],[-10,0],[-8,-21],[-38,-30],[-18,-6],[-17,-19],[-12,-1],[-16,-24],[-12,-1],[-13,-29],[-21,-15],[-5,-15],[-20,-12]],[[265,8778],[17,-20],[-21,1],[-10,-26],[-20,16],[13,-24],[-27,2],[-24,16],[14,-21],[3,-36],[-20,-4],[-3,-5],[7,-28],[-2,-9],[-18,0],[-15,5],[-3,12],[-22,16],[-3,-8],[-19,20],[-5,32],[-11,11],[-16,1],[-11,-7],[-17,-3],[-15,4],[-1,22],[-8,15],[-11,-4],[-17,-53],[0,265],[31,-20],[21,-20],[12,-6],[47,-32],[14,-13],[9,-25],[5,-26],[-3,-14],[13,-26],[12,-8],[3,17],[-8,12],[1,28],[13,6],[12,-9],[17,-6],[13,4],[11,-4],[21,-26],[21,-22]],[[2771,3732],[6,14],[7,35],[-1,45],[-15,-40],[-12,13],[-5,14],[6,17],[-2,19],[2,29],[-4,18]],[[2753,3896],[99,23],[86,-100],[32,-178],[-94,-23],[-105,114]],[[3644,1924],[-29,121],[10,162],[98,203],[74,12],[9,-71],[-7,-34]],[[3799,2317],[-16,6],[-21,-3],[-3,-19],[-13,-17],[-9,-26],[-9,8],[-12,-10],[-30,-53],[-17,-27],[-6,-22],[-17,-10],[6,-32],[-3,-27],[-4,-10],[5,-21],[1,-73],[-7,-57]],[[3217,2920],[-135,467],[-31,181],[104,635],[104,80],[114,-12],[75,-165],[2,-60],[-61,-106],[-13,-122],[59,-148],[60,-22],[142,-8],[102,114],[22,-12],[1,17]],[[3762,3759],[9,23],[25,25],[7,-1],[21,-27],[34,-11],[24,9],[14,-12],[26,-43],[25,-57]],[[3947,3665],[-18,-97],[-39,-185],[-232,-407],[-90,-33],[-242,41],[-109,-64]],[[3169,2659],[35,109],[13,152]],[[3947,3665],[20,-40],[15,-12],[27,-5],[5,-6],[12,-100],[4,-69],[-6,-76],[-7,-43],[-6,-27],[-34,-80],[-10,-8],[-5,-21],[-2,-24],[-6,-35],[-17,-68],[-6,-7],[-1,13],[-8,13],[-1,-26],[-7,-53],[-1,-44],[5,-121],[-7,-83],[1,-46],[-14,-32],[-4,-38],[3,-48],[-4,-21],[-8,-20],[-10,-48],[-12,-46],[-4,-28],[2,-30],[-15,-12],[-11,-22],[-1,-27],[-35,-8]],[[3644,1924],[-4,-17],[-17,-33],[-10,-34],[-15,-80],[-10,-33],[-18,-46],[4,27],[13,37],[8,38],[-1,8],[-10,-4],[-7,7],[-6,-54],[-5,-16],[-12,-23],[-3,-14]],[[3551,1687],[-39,22],[-22,61],[-83,66],[-173,-25],[-109,-118]],[[3125,1693],[-51,171],[20,190],[41,119],[29,354],[5,132]],[[3080,269],[-57,-15],[-9,33],[-16,169],[-4,201],[16,202],[29,189],[-41,2]],[[2998,1050],[15,61],[58,184],[50,260],[4,138]],[[3551,1687],[-6,-67],[-15,-55],[-15,-34],[-10,-36],[-7,-18],[-16,-20],[-10,-3],[-11,11],[-26,-13],[-11,22],[-17,13],[-13,-6],[-15,27],[-5,-27],[12,-27],[17,-18],[7,-16],[-5,-40],[3,-20],[14,-20],[3,-29],[-14,-46],[-9,-25],[-8,-33],[-24,-23],[-24,-13],[-51,-11],[-26,11],[-1,-33],[8,-16],[-11,-46],[0,-13],[5,-31],[-19,-24],[-25,-2],[-30,24],[-6,-11],[0,-19],[6,-22],[-2,-47],[10,-17],[15,4],[-5,13],[15,7],[4,-44],[-11,-10],[-6,17],[-13,-3],[-11,-9],[2,-7],[19,-11],[-20,-22],[-7,-20],[1,-47],[-11,-27],[6,-19],[-27,-9],[-16,-21],[-14,-44],[1,-25],[3,-19],[19,-36],[25,-15],[1,-9],[-3,-37],[-7,-20],[-33,-43],[-8,-23],[-4,-24],[2,-17],[-6,-25],[-24,-23],[-9,-20],[-4,-42],[2,-15]],[[2998,1050],[-19,-72]],[[2979,978],[-4,1],[-8,-16],[-12,4],[-7,40],[-1,22],[4,43],[16,49],[-7,68],[0,53],[-7,29],[3,16],[6,-3],[6,12],[14,109],[13,50],[6,51],[9,39],[-3,37],[9,32],[-8,137],[1,19],[9,36],[3,42],[-5,30],[8,80],[5,20],[8,106],[-1,35],[8,38],[-3,30],[1,65],[3,20],[-6,12],[0,24],[8,12],[5,90],[-1,107]],[[3051,2517],[30,15],[26,52],[-2,7],[45,7],[19,61]],[[3077,10],[-13,11],[-29,-11],[3,31],[11,5],[18,-2],[6,-10],[8,0],[-7,22],[-16,11],[-7,24],[20,19],[-2,15],[-23,-9],[-4,7],[5,20],[14,17],[11,21],[5,-9],[14,-2],[11,-16],[-11,-21],[4,-9],[12,-1],[8,-24],[24,-46],[16,-20],[14,-7],[18,-1],[-3,-14],[-35,-11],[-15,12],[-34,4],[-23,-6]],[[2946,840],[-10,14],[4,36],[-1,30],[5,24],[10,4],[5,-22],[-10,-21],[6,-26],[-4,-43],[-5,4]],[[2964,153],[1,28],[-10,-3],[1,24],[20,0],[0,-27],[-6,-28],[-6,6]],[[3080,269],[8,-40],[11,-36],[-16,-2],[-7,10],[-18,-24],[-14,-3],[-9,-10],[-5,-31],[-2,-43],[-13,-4],[-12,13],[20,53],[-8,10],[-17,-17],[-19,-5],[-1,17],[31,18],[-8,6],[-17,0],[3,29],[-10,17],[-8,-12],[-8,5],[4,23],[-9,-6],[-8,17],[6,15],[-17,26],[10,6],[10,34],[-15,-3],[-3,22],[7,13],[-9,26],[10,15],[-2,14],[-8,-14],[-2,49],[5,20],[-2,34],[22,-11],[2,13],[-11,15],[-11,-5],[-11,4],[6,36],[7,-1],[3,19],[-14,17],[-15,2],[0,16],[-12,-5],[0,8],[16,20],[8,26],[11,2],[4,-18],[-12,-15],[1,-17],[13,14],[0,-27],[11,33],[3,43],[4,14],[8,7],[-8,7],[0,14],[18,24],[3,23],[-14,18],[3,35],[-1,27],[13,19],[-5,19],[-1,26],[9,10],[-1,20],[-8,9],[4,21],[-4,5]],[[3649,3907],[-7,-27],[-13,-16],[-31,-2],[-5,30],[4,72],[8,5],[24,-7],[6,7],[20,-14],[-4,-18],[-2,-30]],[[3286,4606],[-12,2],[-26,-23],[-81,-10],[-131,27],[-14,52]],[[3022,4654],[4,8],[-1,38],[-11,53],[-2,22],[13,12],[37,30],[-5,19],[-7,-3],[-4,18],[10,17],[10,-50],[26,-12],[8,-26],[2,-21],[9,-13],[42,9],[9,-4],[5,-15],[17,-19],[13,-1],[10,9],[13,27],[38,9],[15,-5],[-5,-11],[-16,1],[0,-13],[15,-26],[2,-21],[6,22],[15,-12],[4,-11],[17,-23],[-9,-16],[-5,-29],[-11,-11]],[[3343,4947],[6,-12],[-5,-6],[-1,18]],[[3298,5087],[-3,-5],[-3,31],[5,-4],[1,-22]],[[3308,5029],[-4,0],[-5,25],[5,2],[4,-27]],[[3251,5304],[0,0]],[[3308,4983],[-5,5],[4,15],[1,-20]],[[3293,4893],[0,0]],[[3205,5267],[0,0]],[[3297,5132],[0,0]],[[3246,5290],[0,0]],[[3285,5259],[0,0]],[[3289,4873],[0,0]],[[3292,4885],[0,0]],[[3296,4901],[0,0]],[[3300,4926],[0,0]],[[3301,4951],[0,0]],[[3202,5312],[0,0]],[[3193,5312],[0,0]],[[3300,5160],[-11,-5],[-3,-18],[-3,21],[6,2],[4,17],[7,-17]],[[3253,5279],[0,0]],[[2859,5283],[-6,-12],[-13,9],[-16,30],[15,12],[17,-8],[21,-20],[-1,-18],[-10,9],[-7,-2]],[[3154,5288],[-13,-8],[-7,4],[-1,33],[4,7],[31,-5],[6,-10],[-7,-22],[-13,1]],[[2858,5468],[-5,13],[-24,8],[-8,11],[-2,24],[-6,23],[-18,-1],[-10,5],[-29,31],[-22,4],[-17,15],[14,10],[-10,14],[-23,-5],[-15,-30],[-12,-1],[-10,-27],[-14,-4],[9,20],[-2,20],[5,15],[16,20],[20,15],[25,8],[18,0],[19,-8],[27,-19],[12,-26],[32,-20],[19,-26],[4,-18],[49,-36],[-2,-24],[17,1],[6,-5],[18,-32],[-15,-5],[-22,-15],[-24,8],[-30,-11],[-6,3],[14,32],[2,13]],[[3034,5321],[-8,-11],[-10,-46],[-16,40],[-26,-2],[-15,6],[-11,-15],[-14,19],[2,23],[43,-13],[12,11],[-11,20],[1,33],[-8,14],[-11,5],[-3,13],[15,8],[30,-16],[8,12],[9,-4],[10,7],[4,-11],[12,-10],[8,3],[7,-24],[31,-35],[7,-21],[-8,-28],[-9,23],[-27,-1],[-9,-17],[-13,17]],[[2882,3002],[19,50],[26,-75],[-2,-71],[-14,-25]],[[2911,2881],[-16,37],[-13,45],[0,39]],[[2882,3002],[-3,24],[-10,34],[-17,91],[-11,18],[1,30],[-38,190],[-21,74],[-7,31],[-15,28],[-20,24],[12,10],[0,23],[-12,43],[-3,23],[3,25],[20,49],[10,13]],[[2753,3896],[-2,12],[17,27],[-4,13],[2,19],[8,20],[1,55],[20,15],[12,28],[-3,19],[15,18],[-4,18],[5,22],[13,0],[6,7],[19,88],[-10,28],[5,41],[-6,56],[7,13],[1,13],[-7,16],[3,24],[-1,18],[-14,36],[-12,66],[5,11],[10,-4],[-7,27],[-10,-12],[-4,26],[9,43],[15,-28],[5,-21],[7,-14],[11,-39],[4,13],[-4,25],[2,17],[11,21],[6,23],[13,9],[4,71],[3,16],[11,23],[8,8],[9,-21],[3,11],[3,32],[24,-3],[17,27],[10,8],[9,31],[10,14],[7,0],[9,-16],[-2,-21],[-11,-5],[-11,-17],[8,-61],[-11,-63],[14,-58],[11,13]],[[3286,4606],[12,-7],[8,5],[21,-2],[11,-8],[26,-47],[7,-22],[3,-68],[4,20],[10,-3],[17,-32],[10,-37],[8,12],[24,-16],[2,16],[26,0],[17,-9],[15,-16],[20,-16],[25,-54],[11,-33],[8,7],[6,-18],[9,-90],[6,-45],[7,-28],[13,-7],[2,-37],[-7,-12],[-14,-56],[-15,-26],[-10,-25],[-12,-64],[-1,-18],[12,8],[17,24],[9,-55],[7,-6],[21,3],[9,10],[-3,-42],[5,19],[23,50],[10,43],[22,10],[9,-18],[12,-8],[24,-24],[7,-28],[9,11],[7,-10],[10,-38],[-7,-35],[4,-25]],[[3051,2517],[-2,87],[-2,32],[-8,39],[-22,28],[-7,34],[-7,8],[-39,54],[-21,24],[-32,58]],[[2945,3329],[-43,12],[-53,2],[-6,-50],[13,-73],[31,-60],[54,66],[4,103]],[[3046,2744],[14,-43],[30,3],[-1,94],[-30,-9],[-13,-45]],[[2326,6487],[22,-115]],[[2348,6372],[-16,-2],[-5,-34],[7,-38],[14,-23],[15,4],[22,-7],[0,-141]],[[2385,6131],[-8,-11],[-10,1],[-2,16],[-6,-8],[6,-23],[-21,-40],[-17,-12],[-14,6],[4,-21],[-7,-19],[-10,-6]],[[2300,6014],[-28,80],[-175,339],[-196,562],[-3,21]],[[1898,7016],[-68,435],[-10,293]],[[2345,7599],[37,-237],[3,-476],[-12,4],[-22,-18],[-12,-200],[25,-67],[21,5],[0,-32],[-4,-54],[-38,2],[-17,-39]],[[1663,6480],[-34,374],[24,280]],[[1653,7134],[41,-33],[109,-43],[95,-42]],[[2300,6014],[-10,-12],[8,-17],[-10,-33],[0,-27],[5,-46],[5,-29],[-11,-53],[-5,-68]],[[2282,5729],[-70,-12],[-107,83],[-93,191],[-66,32],[-16,-32]],[[1930,5991],[-3,7],[-18,18],[-12,28],[-9,41],[-17,62],[-12,62],[0,26],[-16,14],[-1,15],[-8,11],[-6,-12],[-18,21],[-4,-49],[7,-21],[1,-51],[8,-27],[8,-9],[14,-39],[8,-40],[13,-16],[4,-45],[12,-14],[10,-61],[9,7],[3,-15],[4,-48],[15,-73],[1,-37],[8,-16],[8,12],[10,-45],[9,-9],[0,-28],[-11,-23],[-3,1],[-6,38],[-32,61],[-15,32],[-7,23],[2,41],[-9,45],[-16,22],[-8,22],[-8,-3],[-25,35],[-16,44],[16,-6],[10,20],[1,27],[-5,21],[-20,43],[-17,27],[-7,43],[-6,4],[-2,31],[-16,60],[3,21],[-10,20],[-10,43],[-5,41],[-14,30],[-14,9],[-3,17],[-7,-2],[-12,11],[-9,19],[-14,3]],[[1653,7134],[5,53],[-5,337],[-119,253],[-106,188]],[[1301,8042],[15,-16],[-2,-18],[4,-14],[10,-12],[0,-32],[-23,38],[-7,18],[0,15],[-7,28],[10,-7]],[[1663,6480],[-11,-1],[-5,8],[1,41],[-8,7],[1,14],[-13,22],[-5,21],[-10,19],[-2,25],[4,5],[-2,19],[-9,4],[-7,17],[-2,34],[13,-17],[-12,45],[0,-19],[-13,18],[-6,28],[-16,36],[-3,28],[2,14],[-6,27],[-9,25],[0,31],[5,32],[1,27],[-3,26],[-8,48],[-2,30],[9,24],[5,23],[-6,30],[7,70],[3,52],[-2,38],[-3,4],[0,43],[-4,38],[-12,47],[2,20],[24,-14],[15,1],[12,-13],[0,-15],[-10,-24],[12,-17],[7,25],[4,34],[-7,55],[-17,32],[0,25],[-9,-8],[-8,11],[-4,22],[-14,-11],[-9,16],[-4,41],[-13,-4],[-21,15],[-7,24],[-7,-7],[-22,2],[-6,17],[6,37],[-15,3],[13,26],[14,22],[-19,-5],[-9,7],[-1,32],[-10,0],[-12,35],[2,25],[-7,-2],[-11,-16],[-15,30],[-9,44],[13,33]],[[1313,7894],[18,-4],[2,-16],[-2,-29],[-14,-8],[-11,27],[-2,30],[9,0]],[[1484,7569],[1,18],[-12,17],[-12,-1],[-26,45],[-3,11],[17,3],[24,-20],[35,-13],[12,-26],[6,-21],[9,-19],[24,-24],[8,-38],[-4,-12],[-21,9],[-20,20],[6,21],[-13,0],[-5,-8],[-9,9],[2,14],[-6,11],[-13,4]],[[5992,4939],[3,73],[94,146],[8,-57],[8,-27],[3,30],[13,-43],[10,1],[28,-75],[9,-1],[8,-29],[1,-21],[7,-6],[19,-48],[4,-24],[-18,-23],[-8,-15],[23,-8],[25,-77],[21,4],[25,28],[14,-12],[7,2],[20,33],[17,-3],[15,16],[21,-7],[21,17],[18,34],[13,-12],[2,-9],[-5,-30],[2,-38],[-7,-32],[-1,-49],[-2,-16],[-16,-74],[-10,-26],[-1,-21],[-21,-93],[-3,-31],[-13,-57],[-26,-87],[-33,-96],[-23,-51],[-27,-36],[-12,-23]],[[6225,4066],[-44,8],[-47,-68],[-11,-121],[-27,-80],[-20,14],[-76,258],[-58,112],[-325,242],[-267,111],[-202,-171]],[[5148,4371],[1,18],[-6,2],[-15,41],[-15,17],[-4,10],[-13,-14],[-24,-3],[-29,-8],[-11,-11],[-6,-23],[-24,-8],[-19,-24],[-16,-13],[-24,-32],[-19,25],[-9,16],[-3,-9],[-22,9],[-29,-2],[-16,-8],[-21,-18],[-34,-39],[-19,22],[-28,38],[-20,50],[-13,25],[-21,28],[-16,35],[-14,20],[0,20],[-17,25],[-9,27],[7,20],[-6,11],[0,18],[-13,43],[-1,21],[-11,12],[-15,28],[1,23],[-13,10],[0,17],[-9,5],[0,21],[7,21],[-6,9],[-14,-6],[-7,9],[-6,17],[-8,8],[-5,20],[0,55],[7,9],[1,18],[-5,8],[-6,38]],[[4531,5022],[-5,15],[101,25],[198,-113],[240,-5],[164,-66],[264,33],[74,-62],[77,-14],[24,-43],[181,-5],[64,98]],[[5988,4383],[84,77],[15,179],[-56,186],[-81,5],[-52,-158],[19,-192],[71,-97]],[[6257,2822],[8,0],[5,12],[20,2],[-2,12],[15,24],[9,0],[-4,16],[9,23],[6,-12],[6,20],[-5,19],[10,23],[-4,28],[6,11],[6,-18],[3,14],[12,29],[3,37],[-1,19],[6,15],[11,-32],[7,-9],[5,-34],[4,-81],[10,-65],[0,-12],[-9,-34],[-12,40],[-4,-18],[3,-29],[5,-29],[-13,-54],[0,-43],[-2,-31],[-35,-276],[-16,-146],[-7,-51],[-11,-33],[-17,-3],[-13,-11],[-6,-15],[-10,-3],[-7,20],[-15,5],[-10,24],[-3,34],[-8,21],[0,23],[5,36],[-15,72],[6,66],[9,13],[18,83],[3,47],[-9,30],[4,23],[-7,28],[-5,62],[13,59],[0,35],[13,3],[10,11]],[[6225,4066],[-11,-25],[-36,-95],[-23,-78],[0,-21],[-14,-18],[-5,4],[-5,-37],[-8,-4],[-5,-13],[-1,-27],[-16,-64],[1,-18],[-5,-21],[-7,-11],[-9,-62],[0,-51],[8,-33],[9,-18],[-8,-55],[6,-14],[-2,-54],[7,-76],[5,-16],[15,-26],[7,-29],[-9,-41],[2,-15],[4,-75],[-4,-30],[6,-39],[1,-68],[6,-7],[-2,-25],[-7,-19],[2,-12],[-6,-28],[-16,-50],[-9,-21],[-17,-24],[-44,-48],[-11,-21],[-27,-74],[-33,-60],[-1,-52],[12,-30],[-4,-20],[8,-73],[7,7],[0,-20],[-3,-72],[-3,-27],[6,-8],[-2,-21],[-16,-36],[-8,-11],[-34,-31],[-11,-17],[-13,-38],[11,-22],[1,-11],[-4,-72],[-5,-28],[-7,-9],[1,-25],[-4,-27],[-19,-34],[-32,-116],[-16,-44],[-25,-63],[-35,-69],[-20,-33],[-8,-10],[-29,-5],[-3,-19],[-16,7],[-7,-16],[-7,-2],[-10,13],[-16,6],[-8,-13],[-15,10],[-19,-11],[-9,-18],[-22,1],[-17,-9],[-10,-27],[-16,19],[-4,22],[-9,-1],[-8,18],[-2,-15],[-5,11],[4,30],[-16,61],[10,7],[3,40],[-5,39],[-7,37],[-15,63],[-16,93],[-7,26],[-25,64],[-5,20],[-11,73],[2,19],[-5,24],[-3,28],[2,44],[-7,43],[-8,97],[5,25],[-4,34],[-17,59],[-24,123],[-12,49],[-12,42],[-6,34],[-2,30],[0,78],[0,47],[7,20],[6,47],[2,46],[7,61],[7,22],[6,30],[8,7],[9,33],[4,39],[0,49],[-5,49],[-12,48],[-3,25],[2,16],[8,18],[1,29],[-3,19],[-11,47],[-5,47],[-12,43],[-5,35],[2,22],[-14,68],[-31,79],[-3,15],[-17,38],[4,10],[-11,11],[-12,47],[6,13],[-9,17],[-9,33],[11,19],[8,54],[11,-2],[-15,33],[6,5],[2,35],[-7,6],[13,51],[-1,36],[3,32],[-4,41],[-5,21],[5,13],[-3,12],[-11,0],[-7,8],[-4,35],[-15,16],[0,-16],[-5,-11],[-20,-4],[-11,7],[-5,-16],[-21,3],[-14,22],[-5,24],[-2,29]],[[5926,5672],[9,14],[-1,34]],[[5934,5720],[43,28]],[[5977,5748],[15,-35],[-7,-14],[3,-36],[4,-23],[15,-24],[11,-30],[6,-31],[7,-44],[-72,-69]],[[7945,6700],[-307,265]],[[7638,6965],[-264,512]],[[7374,7477],[-2,4],[289,204],[312,-16],[470,-45]],[[8443,7624],[6,-1],[191,-299],[-144,-341],[-59,15]],[[8437,6998],[-35,9],[-56,-9],[-54,-19]],[[8292,6979],[-145,13],[-118,37]],[[8029,7029],[-40,-2],[-12,-24],[-11,-189]],[[7966,6814],[-21,-114]],[[7939,5408],[-8,-58]],[[7931,5350],[-313,-28]],[[7618,5322],[-9,49],[-3,-17],[-11,16],[10,6],[-2,24],[-11,31],[-12,7],[6,34]],[[7586,5472],[-6,74],[-24,109],[-13,-41]],[[7312,5964],[11,202]],[[7323,6166],[550,250]],[[7873,6416],[-50,-297],[-2,-59],[15,-50],[82,0],[86,-35],[40,-69],[34,-124],[12,-147]],[[5498,8507],[-6,-14],[-12,6],[5,-25],[-3,-31],[-9,-9],[4,-62],[21,-7],[13,-29],[11,-5],[6,-29],[-28,-26],[-26,14],[-16,3],[-3,-10],[10,2],[17,-17],[25,3],[3,-9],[-17,-21],[-1,17],[-10,-26],[-8,-7],[-18,-1],[9,-23],[-1,-31],[-7,0],[5,-32],[-7,-27],[-1,-18],[-16,-57],[-8,10],[-8,-7],[-16,3],[-10,-16],[-4,-17],[4,-11],[-4,-12],[-9,6],[-14,-9],[-14,4],[5,22],[-16,42],[13,19],[-16,27],[-12,46],[-7,21],[5,27],[-16,9],[-3,62],[-8,-4],[-11,28],[0,-17],[-7,-20],[-13,1],[-9,-15],[-33,-44],[-1,-6],[-33,-9],[-9,15],[-21,18],[-8,2],[-6,19],[7,18],[13,-12],[-9,20],[13,15],[-30,2],[-2,14],[8,15],[16,0],[6,8],[-13,-5],[5,29],[-17,-2],[-5,10],[13,18],[-14,6],[1,22],[8,9],[-7,8],[1,44],[19,5],[-12,14],[18,24],[13,0],[2,18],[19,-7],[7,8],[-12,7],[-1,15],[25,2],[7,-7],[1,16],[10,19],[9,6],[7,-9],[7,16],[11,13],[1,14],[8,16],[38,-159]],[[5388,8255],[2,18],[-12,6],[-13,-4],[2,-30],[-11,11],[-8,-19],[2,-14],[-8,-14],[8,-3],[12,16],[21,8],[5,25]],[[5415,8239],[-9,-12],[-12,-38],[1,-25],[12,43],[8,8],[0,24]],[[7931,5350],[0,-4],[23,-60],[2,-34],[19,-43],[19,-48],[8,-2],[4,-13],[7,-52],[8,-19],[8,-67],[7,-91],[-7,-31],[0,-61],[-10,-36],[-15,-13],[-21,-43],[-11,5],[-7,15],[-1,-42],[-7,-37],[-7,0],[-8,-26],[-12,-12],[-8,-27],[-13,-12],[2,71],[4,37],[-6,14],[-9,8],[-7,17],[-18,0],[4,18],[-4,21],[-14,-12],[-2,34],[-8,51],[-9,8],[-12,29],[-9,6],[-7,-8],[-13,9],[3,50],[-2,6],[-18,3],[-9,-17],[3,-19],[-6,-34],[2,-32],[-20,-115],[-3,-43],[2,-38],[5,-15],[11,7],[5,-14],[-1,-26],[8,-13],[4,-46],[2,-33],[7,-33],[26,-17],[4,-20],[11,-24],[7,-3],[13,-39],[15,-54],[1,-45],[-2,-28],[0,-56],[4,-29],[10,-33],[10,-56],[-16,4],[-5,-5],[-20,36],[-22,33],[-16,32],[-2,32],[-5,23],[-12,26],[-1,47],[-6,34],[-7,84],[2,25],[-7,-1],[-8,14],[-1,26],[-5,20],[-5,-2],[-7,40],[-13,29],[-7,-8],[-4,32],[2,24],[11,85],[-6,7],[0,26],[5,22],[4,41],[4,15],[-7,1],[1,29],[-2,49],[-3,27],[-8,39],[-10,70],[-3,29],[-4,104],[-7,5],[-3,30],[-10,30],[-3,-1],[-1,-32],[-7,-28],[-21,-25],[-11,-35],[-3,23],[-7,-12],[-6,8],[2,20],[-19,-15],[0,15],[9,76],[-1,63],[-4,27]],[[7773,4174],[7,-7],[10,-31],[11,-17],[-1,21],[6,-6],[12,-39],[11,-8],[7,-36],[10,-23],[21,-12],[13,-32],[-1,-9],[-12,-40],[4,-17],[10,-16],[10,-1],[5,-16],[2,-39],[6,-18],[7,-1],[-6,-30],[2,-7],[9,15],[12,-10],[5,-22],[9,-22],[-6,-65],[2,-45],[0,-45],[-4,-42],[-13,28],[-4,-24],[-13,20],[-3,-3],[5,-24],[-2,-7],[-29,77],[-30,60],[-9,41],[-13,21],[-9,22],[-14,49],[-5,51],[-19,82],[-7,25],[-17,27],[-11,83],[-3,25],[-17,29],[-11,10],[-2,35],[-7,29],[-15,41],[-9,-4],[-23,64],[-7,31],[-4,32],[8,12],[8,-7],[12,-24],[16,-6],[17,9],[16,-48],[6,-10],[-1,-23],[14,-29],[34,-55],[0,-19]],[[8086,4075],[-6,17],[13,79],[7,9],[31,21],[6,10],[6,34],[7,10],[11,36],[9,18],[8,4],[9,31],[3,-10],[14,2],[1,17],[-6,12],[3,13],[12,1],[1,19],[16,45],[7,39],[8,-18],[4,14],[4,-17],[9,-16],[1,-11],[-5,-32],[14,8],[-3,-23],[17,4],[19,-34],[-10,-18],[-16,1],[-3,-18],[11,-23],[-8,-16],[-14,-7],[2,-30],[-17,-9],[8,-35],[13,-52],[-3,-29],[6,-23],[16,-31],[7,-24],[-15,-5],[-10,8],[-9,-19],[-6,-54],[3,-35],[-2,-28],[-9,5],[-13,-31],[-5,-21],[-9,-20],[5,-12],[3,-23],[-8,-2],[5,-18],[-12,-61],[-7,-19],[-27,-36],[-6,50],[-7,19],[-14,-19],[-4,16],[-9,10],[-10,20],[-6,-32],[-9,1],[-14,-18],[0,28],[-4,34],[-4,-13],[-18,-14],[-4,13],[-15,-7],[-1,43],[-4,61],[-4,25],[-17,31],[7,12],[-10,22],[2,24],[-8,29],[-1,35],[4,32],[9,45],[12,-19],[16,-7],[14,-20],[9,2]],[[8140,3413],[14,-2],[10,6],[9,-14],[-5,-30],[7,-25],[-35,31],[-18,-10],[-46,12],[-20,24],[-28,20],[-12,1],[-12,-11],[-12,5],[-10,16],[-25,4],[-4,5],[6,20],[-18,17],[-20,5],[-1,6],[13,1],[2,22],[7,31],[16,-6],[3,-14],[7,3],[2,17],[11,-9],[12,-22],[11,7],[8,-23],[3,-17],[41,-9],[10,6],[2,21],[9,9],[7,-22],[34,-13],[7,-17],[-1,-15],[5,-18],[11,-12]],[[8271,3369],[-3,16],[8,8],[5,-13],[20,-10],[3,-29],[-19,-4],[-2,14],[-10,-16],[-24,-16],[-9,9],[0,26],[8,12],[15,-6],[9,-14],[7,14],[-8,9]],[[7948,3766],[-4,8],[-6,37],[-6,13],[-11,6],[7,29],[6,-17],[6,23],[5,-41],[8,-27],[9,-10],[-5,-15],[2,-19],[-11,13]],[[8191,3357],[-12,23],[17,7],[12,-16],[-12,-23],[-5,9]],[[8341,5037],[-9,24],[-6,41],[1,37],[-1,27],[12,-23],[3,28],[-2,33],[2,14],[2,70],[5,28],[13,7],[15,-17],[8,-1],[5,12],[3,-17],[-3,-14],[1,-42],[9,-23],[-9,-57],[-18,-30],[-5,-44],[6,-30],[8,-57],[10,-13],[8,28],[8,-3],[5,-27],[7,-15],[7,19],[10,-13],[-9,-18],[12,-39],[-4,-6],[-13,9],[-4,26],[-16,36],[-5,-7],[5,-26],[-3,-9],[-9,25],[-12,18],[-17,-17],[-12,19],[-2,14],[8,20],[8,-10],[5,6],[-22,34],[-5,-17]],[[8357,4877],[-4,14],[-5,43],[-6,17],[19,2],[8,-20],[-1,-44],[-5,-23],[-6,11]],[[8473,4796],[-6,18],[1,25],[-15,27],[-2,15],[19,8],[8,-17],[3,-53],[3,-25],[-11,2]],[[8385,4752],[3,82],[13,-22],[13,5],[-1,-27],[-17,-37],[-11,-13],[0,12]],[[8296,4709],[12,43],[2,36],[4,-9],[6,-36],[-19,-35],[-5,1]],[[8409,4649],[-10,20],[-1,24],[10,16],[6,59],[8,5],[2,-13],[-5,-37],[-4,-46],[5,-25],[-6,-15],[-5,12]],[[8253,4596],[11,42],[15,27],[12,36],[0,-32],[-15,-27],[-3,-20],[-20,-26]],[[8498,4464],[-6,39],[-4,3],[-9,-46],[7,-47],[-7,-33],[-6,17],[2,24],[-5,2],[-4,-21],[-16,22],[-7,17],[-3,38],[6,29],[-8,29],[-9,10],[-13,-23],[-8,-2],[-2,24],[-5,-6],[-13,-60],[-4,24],[7,41],[8,16],[10,5],[1,15],[10,13],[9,4],[5,-35],[10,7],[10,32],[8,-9],[2,35],[7,-15],[7,21],[6,4],[-3,41],[2,12],[14,-44],[4,-27],[-4,-23],[10,-5],[0,-50],[3,-14],[-2,-28],[-8,-39],[-2,3]],[[4531,5022],[-10,26],[-6,6],[16,36],[12,59],[2,43],[7,42],[4,64],[-2,36],[-4,25],[-8,25],[6,23],[0,31],[-3,29],[-13,31],[-5,-15],[1,62],[5,29],[12,36],[18,100],[21,46],[4,16],[1,30],[3,35],[8,35],[21,34],[4,16],[12,63],[5,13],[22,12],[14,15],[34,66],[13,36],[6,23],[1,32]],[[5138,6395],[101,49]],[[5304,6411],[7,-23],[25,-27],[12,-10],[18,4],[27,-8],[7,-16],[16,-7],[7,-14],[3,-27],[14,-37],[13,-9],[30,-12],[15,-17],[27,-40],[11,3],[18,34],[4,17]],[[4929,7123],[-61,-67],[-114,-75],[-2,23],[7,47],[-8,29],[-8,6],[-1,11],[7,16],[20,6],[2,19],[7,9],[9,-2],[14,-12],[19,1],[13,10],[13,-9],[20,-8],[27,-2],[12,-5],[11,13],[13,-10]],[[4793,7966],[22,10],[17,-8],[7,-26],[3,-30],[-7,-21],[-14,-10],[7,-33],[4,-39],[-10,-49],[-14,-1],[-2,-7],[-22,-6],[-22,-30],[-19,-10],[-16,-3],[-1,27],[-10,-3],[-2,15],[9,9],[-15,0],[1,8],[16,-1],[4,21],[15,5],[2,9],[-14,-3],[9,35],[11,3],[-20,13],[-15,3],[1,14],[9,4],[3,18],[-13,2],[0,16],[8,14],[36,-9],[-3,12],[11,9],[2,11],[-17,0],[9,8],[5,25],[16,11],[9,-13]],[[4841,7985],[0,22],[6,-14],[-6,-8]],[[4994,7854],[8,-10],[5,-18],[-7,-25],[9,-6],[11,14],[18,-6],[6,-12],[2,-24],[-5,-21],[-13,-15],[-9,-19],[-12,-7],[30,-8],[0,-16],[-19,-14],[-13,-15],[-15,7],[-14,-7],[-7,7],[-27,-9],[1,-9],[-14,0],[-12,11],[-15,-8],[-1,-18],[-9,-12],[-10,14],[-20,-13],[-9,-18],[-14,12],[15,16],[6,15],[12,16],[1,16],[8,13],[12,4],[21,-4],[9,33],[-12,-12],[-9,-1],[-18,16],[-23,2],[-7,11],[5,11],[21,14],[5,12],[-1,33],[-13,0],[9,19],[10,8],[29,5],[-4,18],[4,47],[-10,-2],[-9,20],[12,30],[-12,7],[-15,-12],[-9,7],[-4,-12],[-14,7],[1,11],[12,35],[-8,17],[8,18],[-2,16],[-12,-17],[-12,-11],[-2,14],[10,44],[-8,8],[-7,-19],[-6,6],[11,38],[-3,18],[8,10],[-9,17],[6,11],[14,-2],[-8,25],[12,5],[-6,17],[6,12],[11,-12],[19,8],[19,1],[0,-18],[-28,-32],[0,-20],[36,-1],[20,2],[5,-12],[-5,-28],[-15,-40],[-13,-9],[12,-12],[-16,-14],[-17,0],[5,-7],[16,-3],[11,8],[14,-10],[15,-26],[4,-39],[5,-17],[14,-10],[16,-37],[3,-37]],[[5764,6898],[26,7]],[[6428,6620],[10,-2],[37,15],[19,3],[7,19]],[[6631,5830],[-23,0],[-3,8],[-15,11],[-9,48],[-4,37],[-10,10],[-15,0],[-13,-11],[-22,-41],[-16,22],[-12,4],[-7,11],[-13,11],[-14,38],[-12,14],[-10,4],[-7,15],[-16,71],[-2,28],[-16,48],[-12,-5],[-11,7],[-2,27],[-8,-6],[-6,-28],[-23,-8],[3,-29],[-11,-16]],[[5994,6467],[-2,29],[2,38],[-6,11],[7,30],[-5,22],[12,25],[-6,21],[-18,-28],[-16,19],[-5,-2],[-20,-35],[-16,-12],[-15,2],[-8,9],[-12,27],[-15,15],[-13,6],[-9,-2],[-3,-42],[-23,-7],[-10,6],[-8,38],[-5,-11],[-10,14],[-12,-15],[-1,28],[-19,0],[6,16],[-10,16],[-1,39],[-12,15],[-8,0],[2,25],[7,-12],[7,8],[-8,18],[9,13],[-7,9],[1,13]],[[2282,5729],[1,-55],[-2,-76],[10,-82],[26,-92],[16,-72],[4,-9],[24,-14],[16,-31],[41,29]],[[2400,5122],[-13,26],[-22,15],[-8,-1],[-24,-31],[-9,-9],[-12,2],[-15,14],[-16,6],[-27,39],[-31,22],[-35,38],[-21,44],[-19,5],[-23,19],[-20,51],[-20,27],[-7,16],[-14,54],[11,19],[-4,12],[6,22],[-2,28],[-9,31],[2,24],[-8,20],[-19,58],[-25,67],[-14,26],[-3,24],[-13,19],[-10,27],[-11,2],[-2,23],[5,23],[-11,32],[-5,-9],[-6,32],[-12,12],[-6,18],[2,22]],[[2718,6656],[-95,43]],[[2623,6699],[-11,181],[171,101],[41,-58],[-46,-222],[-60,-45]],[[2348,6372],[-22,115]],[[3027,7364],[9,23],[13,20],[13,31],[14,25],[25,31],[38,30],[27,15],[18,5],[11,-2],[18,-19],[4,-21],[-6,-14],[-13,-10],[-10,-14],[-18,6],[-17,-8],[18,-10],[6,-22],[16,16],[11,-7],[-8,-16],[-1,-17],[-12,-14],[16,-1],[-1,-29],[9,-32],[22,-8],[-9,-8],[9,-13],[7,3],[31,-14],[12,14],[6,-17],[7,4],[6,-13],[-4,-12],[12,-6],[-29,-17],[-29,-26],[-1,9],[-13,-23],[-9,4],[-10,-9],[-13,-23],[-3,-18],[-7,-11],[-7,2],[-4,-17],[-7,3],[-6,21],[-2,-7],[-5,28],[6,25],[-6,0],[48,65],[4,-17],[24,20],[-40,2],[14,19],[3,14],[-8,-2],[-8,-16],[-25,-27],[-8,0],[-10,-13],[-3,5],[-19,5],[7,-27],[-6,-12],[-16,-4],[-9,-18],[-2,12],[-9,-10],[-1,-10],[-9,7],[1,17],[-13,-46],[-4,7],[-3,-14],[-9,-10],[-3,11],[-8,-8],[1,-12],[-10,-17],[-9,-38],[8,-11],[-13,-26],[8,-4],[13,-40],[9,8],[1,-10],[-20,-10],[0,13],[-14,-17],[2,21],[-8,1],[-2,-30],[-39,-9],[-15,-11],[-25,-37],[10,-14],[-6,-49],[-7,-25],[-13,-31],[-2,19],[-5,0],[-14,31],[11,-58],[4,-3],[1,-24],[-11,-37],[-12,-51],[-4,3],[4,28],[6,13],[-18,47],[8,9],[-7,10],[-1,12],[7,16],[-6,0],[9,33],[-12,-27],[-4,-36],[6,-49],[-13,14],[-13,21],[-2,-7],[10,-17],[21,-23],[-6,-17],[-13,26],[9,-26],[8,-6],[-3,-12],[3,-29],[-10,16],[-9,1],[13,-19],[14,-6],[-1,-27],[6,-31],[-11,16],[3,-11],[-18,-16],[19,4],[1,-25],[3,20],[5,-7],[-11,-36],[-20,10],[10,-13],[-5,-17],[-8,-5],[18,-4],[-9,-16],[-18,-7],[-19,-53],[-18,-8],[-16,-26],[-4,-25],[-11,-23],[-14,-19],[-10,-3],[-16,-61],[-9,-66],[2,-48],[11,-58],[12,-56]],[[2761,6044],[-51,-48]],[[2710,5996],[-11,1],[5,77],[-4,15],[-9,9],[-21,58],[-12,4],[-13,-22],[-15,-9],[-5,27],[-6,12],[-10,2],[-9,17],[-19,-8],[-9,6],[0,-10],[-10,-3],[-6,23],[-10,-14],[-25,1],[-13,-16],[-13,15],[-7,-18],[2,-7],[13,6],[14,-18],[-9,-12],[4,-20],[7,-5],[8,-18],[-13,-2],[-4,14],[-16,18],[-3,-11],[6,-11],[-4,-8],[-5,15],[-10,-16],[-13,16],[-5,16],[-14,21],[-8,-2],[7,-13],[-4,-6],[-15,2],[-22,14],[-19,-5]],[[2623,6699],[95,-43]],[[2603,7053],[1,39],[-6,37],[-1,36],[8,51],[19,37],[-3,-22],[6,-1],[1,22],[12,15],[-4,10],[9,20],[-5,11],[-12,8],[-25,-13],[-11,-18],[2,16],[-9,-14],[-1,13],[-20,-65],[-5,-6],[-4,-21],[15,21],[4,-4],[-5,-43],[-4,-16],[-7,-59],[3,-25],[0,-46],[7,-32],[5,-10],[9,4],[10,14],[11,41]],[[2685,7240],[1,-30],[-3,-22],[-11,-22],[-3,-16],[5,-12],[10,21],[12,11],[5,-7],[11,-69],[15,22],[3,60],[10,29],[0,26],[-10,23],[11,0],[11,-43],[7,6],[12,-15],[6,8],[-2,15],[9,-1],[-10,31],[-15,36],[-3,17],[-23,1],[-1,8],[-45,8],[-15,4],[-5,-22],[-18,5],[0,-20],[33,-34],[3,-18]],[[2726,7042],[-12,-11],[-5,-13],[-18,7],[-9,-26],[24,-21],[21,6],[22,25],[13,10],[28,30],[16,23],[2,12],[-20,-1],[-18,-9],[-2,-10],[-30,-1],[-12,-21]],[[2440,7361],[16,4],[22,11],[-3,-22],[5,6],[12,-5],[16,15],[11,4],[28,37],[12,5],[-15,-31],[-2,-16],[7,7],[16,-7],[11,-22],[14,-5],[21,17],[28,2],[3,-16],[11,0],[-1,24],[-7,15],[4,17],[-8,19],[1,25],[-4,5],[-22,2],[-7,16],[-9,39],[-22,4],[-25,16],[-7,-27],[-3,14],[-10,-35],[-2,14],[-10,-12],[-8,-26],[-26,-22],[-19,-24],[-28,-48]],[[2885,7189],[-21,-17],[-8,-18],[-12,12],[-31,-9],[-12,-8],[-14,-20],[-4,-14],[9,-8],[27,12],[18,-1],[9,-9],[17,1],[21,28],[-3,17],[6,12],[-8,3],[6,19]],[[2988,6943],[-3,-7],[-41,-18],[3,16],[9,9],[26,4],[6,-4]],[[2761,6044],[4,-52],[10,-62],[1,-27],[-4,-59],[-4,-13],[1,-22],[-22,-9],[-1,19],[-7,34],[-10,5],[-4,38],[-5,7],[-2,23],[-5,-3],[-12,51],[9,22]],[[5162,6643],[13,23],[17,-20],[10,18],[7,-2],[10,-19]],[[5526,7797],[-10,-10],[-29,0],[-27,20],[-9,18],[-1,37],[-16,14],[-5,-2]],[[5429,7874],[-10,15],[6,11],[20,8],[14,20],[20,14],[21,7],[13,-5],[2,-23],[23,-12]],[[5538,7909],[5,-35],[-23,-36],[-3,-19],[9,-22]],[[5587,7954],[5,-7],[4,-27]],[[5596,7920],[1,-7],[-11,-23],[-25,9],[-8,18]],[[5553,7917],[-3,5]],[[5550,7922],[16,16],[-12,2],[0,18],[33,-4]],[[5582,7789],[29,-56],[36,-46],[33,13]],[[5680,7700],[3,-16],[31,-113],[-17,-56],[-29,40],[-45,83],[-36,-56],[-76,-15],[-15,78],[-40,47],[-3,55],[-34,76],[10,51]],[[5526,7797],[15,-14],[21,-4],[20,10]],[[5596,7920],[18,-7],[-11,-45],[4,-47],[-15,-27],[-10,-5]],[[5538,7909],[12,13]],[[5550,7922],[3,-5]],[[5587,7954],[1,1]],[[5588,7955],[22,5]],[[5610,7960],[31,8],[23,-15],[1,-47],[5,-41],[17,-25],[-3,-45],[13,-45],[-2,-8]],[[5695,7742],[-7,-32]],[[5688,7710],[-8,-10]],[[5607,8149],[12,-57],[14,-48],[-10,-50],[-13,-34]],[[5588,7955],[2,29],[-7,23],[2,26],[-3,17],[3,45],[9,16],[0,16],[13,22]],[[5824,8009],[6,-35],[-26,-40],[21,-96]],[[5825,7838],[-54,-71],[-59,-22],[-17,-3]],[[5607,8149],[20,12],[1,-13],[14,-16],[4,-19],[14,-9],[15,9],[39,-7],[67,-65],[43,-32]],[[5825,7838],[58,-31],[7,-55],[-10,-72],[-4,-15]],[[5876,7665],[-27,-54],[-12,9]],[[5837,7620],[-65,46],[-44,2],[-40,42]],[[5824,8009],[7,-5],[48,52],[57,30],[84,-3],[48,-54],[-42,-119],[5,-6]],[[6031,7904],[33,-40],[-1,-33],[-38,-35],[-56,-90],[-93,-41]],[[7638,6965],[307,-265]],[[7945,6700],[-25,5],[-21,-30],[0,-15],[8,-15],[2,-15],[-36,-214]],[[7323,6166],[21,377]],[[7344,6543],[-108,56],[-137,99]],[[7007,6948],[103,80],[163,88]],[[7273,7116],[103,258]],[[7376,7374],[-34,110]],[[7342,7484],[32,-7]],[[6664,7281],[0,0]],[[6642,7252],[4,6],[5,-16],[-6,-19],[-5,12],[2,17]],[[6801,7972],[-3,-27]],[[6798,7945],[492,-289]],[[7290,7656],[52,-172]],[[7376,7374],[-103,-258]],[[6499,6697],[-3,36],[2,40],[3,23],[-11,31],[-13,6],[3,12],[14,-6],[-8,21],[5,15],[-20,-4],[-4,39],[6,42],[6,-21],[10,-1],[4,9],[2,-17],[11,7],[5,-5],[-1,17],[12,-1],[-2,19],[-16,24],[-5,45],[-7,3],[-19,-8],[-3,-19],[0,-28],[-7,11],[-5,39],[9,42],[-7,13],[-14,0],[-9,25],[-9,-1],[1,16],[-8,24],[-6,35],[-16,7],[-1,19],[15,5],[12,-11],[7,6],[-13,23],[7,13],[4,23],[31,2],[18,-5],[-12,13],[0,9],[9,23],[3,26],[-4,13],[4,13],[-2,14],[-18,8],[-11,-10],[-10,12],[-12,6],[-20,-13],[-19,-25],[-12,-2],[-13,-29],[-6,-4],[-15,-23],[-12,-6],[-5,5],[-4,-21],[-10,-43],[-9,-13],[0,-17],[13,-19],[7,-25],[0,-60],[6,-11],[17,-56],[3,-11],[10,-18],[10,-28],[3,-25],[13,-27],[11,-1],[7,-22],[-12,6],[-10,-7]],[[6157,7006],[-1,24],[-6,48],[-8,17],[-25,18],[-36,68],[-23,20],[-9,18]],[[5978,7356],[-9,-26],[-23,-1],[-7,-5],[33,-42],[1,-6]],[[5932,7233],[-5,23],[-11,9],[-14,5],[11,16],[21,19],[-3,15],[-28,-1],[-9,3],[-8,18],[8,13],[-7,20],[-5,-12],[-26,-9],[-6,-16],[-13,284]],[[6031,7904],[325,253]],[[5909,7562],[-3,-7],[-15,11],[-5,-2],[24,-28],[11,-9],[0,9],[-12,26]],[[6694,7304],[15,49],[-2,13],[-15,-20],[-3,20],[-11,-18],[-4,13],[-8,-10],[6,-20],[17,-3],[-6,-9],[-22,4],[-8,12],[0,-25],[-3,-14],[-3,16],[-14,-7],[-11,-49],[-5,-29],[-1,-24],[6,-25],[-1,-32],[11,1],[10,19],[3,-11],[7,4],[6,-17],[10,-5],[24,60],[5,20],[17,16],[4,8],[-19,10],[-5,22],[0,31]],[[7290,7656],[-492,289]],[[8447,7638],[-4,-14]],[[8446,6868],[0,100],[-9,30]],[[8917,7794],[-3,-31],[9,-11],[-15,-48],[-9,-45],[-2,-22],[4,-30],[-4,-54],[-7,-62],[-24,-50],[-7,-35],[-17,-33],[-10,-43],[-7,-20],[-34,-75],[-13,-41],[-17,-26],[-13,-38],[-11,-21],[-12,-16],[-33,-24],[-3,14],[-10,2],[-8,22],[-14,-12],[5,19],[-8,-5],[-14,-34],[-35,-64],[-5,-15],[0,-27],[-4,-43],[-9,-4],[-20,-41],[-21,-14],[-7,-18],[-4,-29],[3,-11],[24,-47],[3,15],[8,-37],[19,-62],[4,-41],[-3,-48],[6,-3],[-4,-37],[-9,-26],[-15,4],[-6,-10],[2,-14],[-12,11],[-10,-27],[-4,17],[-4,-7],[4,-13],[-10,-4],[5,16],[-9,-10],[-3,-14],[-3,12],[-5,-20],[-9,21],[2,41],[3,35],[9,18],[-7,18],[-1,42],[-6,5],[6,19],[7,0],[3,15],[-9,30],[-9,6],[-8,-18],[-5,20],[-5,4],[-8,-26],[-5,21],[-9,12],[-2,15],[6,23],[10,8],[-7,18],[8,39],[-11,19],[-10,-6],[-13,25]],[[8516,6387],[-12,2],[4,14],[13,7],[4,-7],[-9,-16]],[[8520,6462],[0,0]],[[8531,6472],[0,0]],[[8549,6476],[0,0]],[[8504,6468],[0,0]],[[8549,6484],[0,0]],[[8498,6489],[0,0]],[[8499,6499],[0,0]],[[8557,6502],[0,0]],[[8500,6504],[0,0]],[[8554,6500],[0,0]],[[8575,6499],[-6,7],[5,7],[1,-14]],[[8502,6518],[0,0]],[[8511,6616],[0,0]],[[8504,6646],[0,0]],[[8635,6692],[0,0]],[[8462,6725],[0,0]],[[7344,6543],[-32,-579]],[[7190,6104],[-63,124]],[[7945,6700],[0,0]],[[7945,6700],[21,114]],[[8029,7029],[118,-37],[145,-13]],[[8446,6868],[-5,-6],[-24,-10],[-28,-30],[-15,-27],[-12,-9],[17,42],[-11,1],[-1,15],[24,58],[-10,27],[-9,10],[-11,-1],[-21,-51],[-12,-8],[-13,-14],[-11,-45],[-12,-4],[-7,-12],[-6,18],[-9,-3],[-9,-44],[5,-23],[17,-17],[15,1],[3,-8],[-2,-37],[4,-26],[18,3],[16,33],[14,11],[21,-28],[13,2],[14,-5],[-4,-41],[-11,9],[-28,-20],[-9,-14],[0,-24],[-7,-5],[-4,15],[-6,-4],[2,-15],[-8,-28],[-18,-36],[-1,-26],[8,-7],[19,-33],[5,-17],[5,-41],[8,-21],[1,-36],[11,-16],[5,-19],[10,-17],[1,-15],[-10,-12],[6,-12],[4,-26],[-2,-16],[-15,-8],[-12,-18],[-18,-17],[14,-8],[11,14],[9,0],[6,-20],[11,-6],[-10,-35]],[[7586,5472],[-5,-17],[-8,4],[-13,35],[-7,34],[-2,40],[-8,46]]]}