{"type":"Topology","bbox":[-180,-55.070042051117994,180,83.1760440692461],"transform":{"scale":[0.036003600360036005,0.013825991211157527],"translate":[-180,-55.070042051117994]},"objects":{"countries":{"type":"GeometryCollection","geometries":[{"type":"MultiPolygon","arcs":[[[0]],[[1]],[[2]],[[3]],[[4]],[[5]],[[6]],[[7]],[[8]],[[9]],[[10]],[[11]]],"id":"thule","properties":{"name":"Thule","subjecto":"Thule","partof":"Thule","prec":1}},{"type":"MultiPolygon","arcs":[[[12]]],"id":"beothuk","properties":{"name":"Beothuk","subjecto":"Beothuk","partof":"Beothuk","prec":1}},{"type":"MultiPolygon","arcs":[[[13]],[[14]],[[15]]],"id":"polynesians","properties":{"name":"Polynesians","subjecto":"Polynesians","partof":"Polynesians","prec":1}},{"type":"MultiPolygon","arcs":[[[16]]],"id":"cyprus","properties":{"name":"Cyprus","subjecto":"Cyprus","partof":"Cyprus","prec":1}},{"type":"MultiPolygon","arcs":[[[17]],[[18]],[[19]],[[20]],[[21]],[[22]],[[23]],[[24]],[[25]],[[26]],[[27]],[[28]],[[29]],[[30]],[[31]],[[32]],[[33]],[[34]],[[35]],[[36]],[[37]]],"id":"ainus","properties":{"name":"Ainus","subjecto":"Ainus","partof":"Ainus","prec":1}},{"type":"MultiPolygon","arcs":[[[38],[39]]],"id":"madagascar","properties":{"name":"Madagascar","subjecto":"Madagascar","partof":"Madagascar","prec":1}},{"type":"MultiPolygon","arcs":[[[40]],[[41]]],"id":"maori","properties":{"name":"Maori","subjecto":"Maori","partof":"Maori","prec":1}},{"type":"MultiPolygon","arcs":[[[42]],[[43,44,45]],[[46]],[[47]]],"id":"norway","properties":{"name":"Norway","subjecto":"Norway","partof":"Norway","prec":1}},{"type":"MultiPolygon","arcs":[[[48,49]]],"id":"portugal","properties":{"name":"Portugal","subjecto":"Portugal","partof":"Portugal","prec":1}},{"type":"MultiPolygon","arcs":[[[-40]]],"id":"expansionist_kingdom_of_merina","properties":{"name":"Expansionist Kingdom of Merina","subjecto":"Expansionist Kingdom of Merina","partof":"Expansionist Kingdom of Merina","prec":1}},{"type":"MultiPolygon","arcs":[[[50]]],"id":"sardinia","properties":{"name":"Sardinia","subjecto":"Sardinia","partof":"Sardinia","prec":1}},{"type":"MultiPolygon","arcs":[[[51]]],"id":"hainan","properties":{"name":"Hainan","subjecto":"Hainan","partof":"Hainan","prec":1}},{"type":"MultiPolygon","arcs":[[[52]]],"id":"sinhalese_kingdom","properties":{"name":"Sinhalese kingdom","subjecto":"Sinhalese kingdom","partof":"Sinhalese kingdom","prec":1}},{"type":"MultiPolygon","arcs":[[[53,54,55,56,57,58,59]]],"id":"teutonic_knights","properties":{"name":"Teutonic Knights","subjecto":"Teutonic Knights","partof":"Teutonic Knights","prec":1}},{"type":"MultiPolygon","arcs":[[[60,61,62,63]]],"id":"navarre","properties":{"name":"Navarre","subjecto":"Navarre","partof":"Navarre","prec":1}},{"type":"MultiPolygon","arcs":[[[64,65]]],"id":"shoa","properties":{"name":"Shoa","subjecto":"Shoa","partof":"Shoa","prec":1}},{"type":"MultiPolygon","arcs":[[[66,67,68]]],"id":"benin","properties":{"name":"Benin","subjecto":"Benin","partof":"Benin","prec":1}},{"type":"MultiPolygon","arcs":[[[69]],[[70,71]]],"id":"bornu_kanem","properties":{"name":"Bornu-Kanem","subjecto":"Bornu-Kanem","partof":"Bornu-Kanem","prec":1}},{"type":"MultiPolygon","arcs":[[[72,73]]],"id":"yemen","properties":{"name":"Yemen","subjecto":"Yemen","partof":"Yemen","prec":1}},{"type":"MultiPolygon","arcs":[[[74,75,76]]],"id":"orissa","properties":{"name":"Orissa","subjecto":"Orissa","partof":"Orissa","prec":1}},{"type":"MultiPolygon","arcs":[[[77]]],"id":"maya_city_states","properties":{"name":"Maya city-states","subjecto":"Maya city-states","partof":"Maya city-states","prec":1}},{"type":"MultiPolygon","arcs":[[[78,79]]],"id":"mixtec_empire","properties":{"name":"Mixtec Empire","subjecto":"Mixtec Empire","partof":"Mixtec Empire","prec":1}},{"type":"MultiPolygon","arcs":[[[-79,80]]],"id":"zapotec_empire","properties":{"name":"Zapotec Empire","subjecto":"Zapotec Empire","partof":"Zapotec Empire","prec":1}},{"type":"MultiPolygon","arcs":[[[81,82]]],"id":"chim_empire","properties":{"name":"Chimú Empire","subjecto":"Chimú Empire","partof":"Chimú Empire","prec":1}},{"type":"MultiPolygon","arcs":[[[83,84,85,86,87,88]]],"id":"aymara_kingdoms","properties":{"name":"Aymara kingdoms","subjecto":"Aymara kingdoms","partof":"Aymara kingdoms","prec":1}},{"type":"MultiPolygon","arcs":[[[89,-83,90,-84]]],"id":"andean_states_and_chiefdoms","properties":{"name":"Andean states and chiefdoms","subjecto":"Andean states and chiefdoms","partof":"Andean states and chiefdoms","prec":1}},{"type":"MultiPolygon","arcs":[[[91,92]]],"id":"morocco","properties":{"name":"Morocco","subjecto":"Morocco","partof":"Morocco","prec":1}},{"type":"MultiPolygon","arcs":[[[93,94,95,96]]],"id":"mali","properties":{"name":"Mali","subjecto":"Mali","partof":"Mali","prec":1}},{"type":"MultiPolygon","arcs":[[[97,98]]],"id":"ethiopia","properties":{"name":"Ethiopia","subjecto":"Ethiopia","partof":"Ethiopia","prec":1}},{"type":"MultiPolygon","arcs":[[[99,100,101,102,103,104,105,106]]],"id":"great_zimbabwe","properties":{"name":"Great Zimbabwe","subjecto":"Great Zimbabwe","partof":"Great Zimbabwe","prec":1}},{"type":"MultiPolygon","arcs":[[[107,108]]],"id":"makkura","properties":{"name":"Makkura","subjecto":"Makkura","partof":"Makkura","prec":1}},{"type":"MultiPolygon","arcs":[[[-108,109]]],"id":"alwa","properties":{"name":"Alwa","subjecto":"Alwa","partof":"Alwa","prec":1}},{"type":"MultiPolygon","arcs":[[[110,111,-74]]],"id":"hadramaut","properties":{"name":"Hadramaut","subjecto":"Hadramaut","partof":"Hadramaut","prec":1}},{"type":"MultiPolygon","arcs":[[[112]]],"id":"muscat","properties":{"name":"Muscat","subjecto":"Muscat","partof":"Muscat","prec":1}},{"type":"MultiPolygon","arcs":[[[113,114,115,116,117,118]]],"id":"islamic_city_states","properties":{"name":"Islamic city-states","subjecto":"Islamic city-states","partof":"Islamic city-states","prec":1}},{"type":"MultiPolygon","arcs":[[[119,120,121]]],"id":"pandya_state","properties":{"name":"Pandya state","subjecto":"Pandya state","partof":"Pandya state","prec":1}},{"type":"MultiPolygon","arcs":[[[-121,122,123]]],"id":"chola_state","properties":{"name":"Chola state","subjecto":"Chola state","partof":"Chola state","prec":1}},{"type":"MultiPolygon","arcs":[[[-76,124,-123,-120,125,126]]],"id":"minor_hindu_kingdoms","properties":{"name":"minor Hindu kingdoms","subjecto":"minor Hindu kingdoms","partof":"minor Hindu kingdoms","prec":1}},{"type":"MultiPolygon","arcs":[[[127,128,129]]],"id":"pagan","properties":{"name":"Pagan","subjecto":"Pagan","partof":"Pagan","prec":1}},{"type":"MultiPolygon","arcs":[[[130,131,132,133,134]]],"id":"i_vi_t","properties":{"name":"Đại Việt","subjecto":"Đại Việt","partof":"Đại Việt","prec":1}},{"type":"MultiPolygon","arcs":[[[135,136,-131,137]]],"id":"khmer_empire","properties":{"name":"Khmer Empire","subjecto":"Khmer Empire","partof":"Khmer Empire","prec":1}},{"type":"MultiPolygon","arcs":[[[-138,-135,138]]],"id":"champa","properties":{"name":"Champa","subjecto":"Champa","partof":"Champa","prec":1}},{"type":"MultiPolygon","arcs":[[[139,140]]],"id":"luva","properties":{"name":"Luva","subjecto":"Luva","partof":"Luva","prec":1}},{"type":"MultiPolygon","arcs":[[[141,142,143,144]]],"id":"tibet","properties":{"name":"Tibet","subjecto":"Tibet","partof":"Tibet","prec":1}},{"type":"MultiPolygon","arcs":[[[145,146,-145,147,-77,-127,148,149]]],"id":"sultanate_of_delhi","properties":{"name":"Sultanate of Delhi","subjecto":"Sultanate of Delhi","partof":"Sultanate of Delhi","prec":1}},{"type":"MultiPolygon","arcs":[[[150,151,-142,-147]]],"id":"kashmir_and_ladakh","properties":{"name":"Kashmir and Ladakh","subjecto":"Kashmir and Ladakh","partof":"Kashmir and Ladakh","prec":1}},{"type":"MultiPolygon","arcs":[[[152,153,-151,-146,154]]],"id":"chagatai_khanate","properties":{"name":"Chagatai Khanate","subjecto":"Mongol Empire","partof":"Mongol Empire","prec":1}},{"type":"MultiPolygon","arcs":[[[155,156,157,-56,158]]],"id":"poland","properties":{"name":"Poland","subjecto":"Poland","partof":"Poland","prec":1}},{"type":"MultiPolygon","arcs":[[[-54,159]]],"id":"lithuania","properties":{"name":"Lithuania","subjecto":"Lithuania","partof":"Lithuania","prec":1}},{"type":"MultiPolygon","arcs":[[[160,161,162,163,164]]],"id":"bulgar_khanate","properties":{"name":"Bulgar Khanate","subjecto":"Bulgar Khanate","partof":"Bulgar Khanate","prec":1}},{"type":"MultiPolygon","arcs":[[[-59,165,166,167,168,169,170,171]]],"id":"novgorod","properties":{"name":"Novgorod","subjecto":"Novgorod","partof":"Novgorod","prec":1}},{"type":"MultiPolygon","arcs":[[[-159,-55,-160,-60,-172,172,173],[174]]],"id":"ryazan","properties":{"name":"Ryazan","subjecto":"Khanate of the Golden Horde","partof":"Ryazan","prec":1}},{"type":"MultiPolygon","arcs":[[[175]],[[176,177,-170,178]]],"id":"siberians","properties":{"name":"Siberians","subjecto":"Siberians","partof":"Siberians","prec":1}},{"type":"MultiPolygon","arcs":[[[179,-165,180,181]]],"id":"ra_ka","properties":{"name":"Raška","subjecto":"Raška","partof":"Raška","prec":1}},{"type":"MultiPolygon","arcs":[[[182,183]],[[184,185]]],"id":"venice","properties":{"name":"Venice","subjecto":"Venice","partof":"Venice","prec":1}},{"type":"MultiPolygon","arcs":[[[186]]],"id":"corsica","properties":{"name":"Corsica","subjecto":"Corsica","partof":"Corsica","prec":1}},{"type":"MultiPolygon","arcs":[[[187,188,189,190]]],"id":"papal_states","properties":{"name":"Papal States","subjecto":"Papal States","partof":"Papal States","prec":1}},{"type":"MultiPolygon","arcs":[[[191,-189]],[[192]]],"id":"sicily","properties":{"name":"Sicily","subjecto":"Sicily","partof":"Sicily","prec":1}},{"type":"MultiPolygon","arcs":[[[193,-161,-180,194,195,-156,-174]]],"id":"hungary","properties":{"name":"Hungary","subjecto":"Hungary","partof":"Hungary","prec":1}},{"type":"MultiPolygon","arcs":[[[196,197,198,199,200,201,202,203,204]],[[205]],[[206]],[[207]],[[208]],[[209,210]],[[211,212]]],"id":"france","properties":{"name":"France","subjecto":"France","partof":"France","prec":1}},{"type":"MultiPolygon","arcs":[[[213,214]]],"id":"granada","properties":{"name":"Granada","subjecto":"Granada","partof":"Granada","prec":1}},{"type":"MultiPolygon","arcs":[[[215,-64,216,217,-215,218,-50]]],"id":"castile","properties":{"name":"Castile","subjecto":"Castile","partof":"Castile","prec":1}},{"type":"MultiPolygon","arcs":[[[219,220,221,222]]],"id":"mamluke_sultanate","properties":{"name":"Mamluke Sultanate","subjecto":"Mamluke Sultanate","partof":"Mamluke Sultanate","prec":1}},{"type":"MultiPolygon","arcs":[[[-92,223,-220,224]]],"id":"hafsid_caliphate","properties":{"name":"Hafsid Caliphate","subjecto":"Hafsid Caliphate","partof":"Hafsid Caliphate","prec":1}},{"type":"MultiPolygon","arcs":[[[225,226]]],"id":"trebizond","properties":{"name":"Trebizond","subjecto":"Trebizond","partof":"Trebizond","prec":1}},{"type":"MultiPolygon","arcs":[[[227,228,229,-227,230]]],"id":"seljuk_caliphate","properties":{"name":"Seljuk Caliphate","subjecto":"Seljuk Caliphate","partof":"Seljuk Caliphate","prec":1}},{"type":"MultiPolygon","arcs":[[[231,232,-155,-150,233,-222,234,-231,235,236]]],"id":"ilkhanate","properties":{"name":"Ilkhanate","subjecto":"Ilkhanate","partof":"Ilkhanate","prec":1}},{"type":"MultiPolygon","arcs":[[[237,238,-236]]],"id":"georgia","properties":{"name":"Georgia","subjecto":"Georgia","partof":"Georgia","prec":1}},{"type":"MultiPolygon","arcs":[[[-162,-194,-173,-171,-178,239,-153,-233,240,-237,-239,241]]],"id":"khanate_of_the_golden_horde","properties":{"name":"Khanate of the Golden Horde","subjecto":"Mongol Empire","partof":"Mongol Empire","prec":1}},{"type":"MultiPolygon","arcs":[[[242,243]]],"id":"aceh","properties":{"name":"Aceh","subjecto":"Aceh","partof":"Aceh","prec":1}},{"type":"MultiPolygon","arcs":[[[244,245]],[[246,247,248,249]],[[-243,250]],[[251,252]],[[253]]],"id":"srivijaya_empire","properties":{"name":"Srivijaya Empire","subjecto":"Srivijaya Empire","partof":"Srivijaya Empire","prec":1}},{"type":"MultiPolygon","arcs":[[[254,-249,255,256]],[[257,-245]],[[258]],[[259]]],"id":"kediri","properties":{"name":"Kediri","subjecto":"Kediri","partof":"Kediri","prec":1}},{"type":"MultiPolygon","arcs":[[[260,-257,261,-247]],[[262]]],"id":"minor_hindu_and_buddhist_kingdoms","properties":{"name":"minor Hindu and Buddhist kingdoms","subjecto":"minor Hindu and Buddhist kingdoms","partof":"minor Hindu and Buddhist kingdoms","prec":1}},{"type":"MultiPolygon","arcs":[[[263,-132,-137,-141,264,-252,265,-129]]],"id":"sukhothai","properties":{"name":"Sukhothai","subjecto":"Sukhothai","partof":"Sukhothai","prec":1}},{"type":"MultiPolygon","arcs":[[[266,267]],[[268]]],"id":"scotland","properties":{"name":"Scotland","subjecto":"Scotland","partof":"Scotland","prec":1}},{"type":"MultiPolygon","arcs":[[[269,-62,270,-201]],[[-268,271]],[[272]]],"id":"english_territory","properties":{"name":"English territory","subjecto":"English territory","partof":"English territory","prec":1}},{"type":"MultiPolygon","arcs":[[[273]],[[274]],[[275,276,277,-157,-196,278,-186,279,-184,280,-191,281,-205,282]]],"id":"holy_roman_empire","properties":{"name":"Holy Roman Empire","subjecto":"Holy Roman Empire","partof":"Holy Roman Empire","prec":1}},{"type":"MultiPolygon","arcs":[[[283]],[[284]],[[285]]],"id":"guanches","properties":{"name":"Guanches","subjecto":"Guanches","partof":"Guanches","prec":1}},{"type":"MultiPolygon","arcs":[[[286]],[[287]],[[288]]],"id":"shogun_japan_kamakura","properties":{"name":"Shogun Japan (Kamakura)","subjecto":"Shogun Japan (Kamakura)","partof":"Shogun Japan (Kamakura)","prec":1}},{"type":"MultiPolygon","arcs":[[[-44,289,-168,290,291]]],"id":"samis","properties":{"name":"Samis","subjecto":"Samis","partof":"Samis","prec":1}},{"type":"MultiPolygon","arcs":[[[292]],[[293]],[[294]],[[295]],[[296]],[[297]],[[298]],[[299]],[[300]],[[301]]],"id":"arawaks","properties":{"name":"Arawaks","subjecto":"Arawaks","partof":"Arawaks","prec":1}},{"type":"MultiPolygon","arcs":[[[302]],[[303]]],"id":"dorset","properties":{"name":"Dorset","subjecto":"Dorset","partof":"Dorset","prec":1}},{"type":"MultiPolygon","arcs":[[[304,305]]],"id":"innu","properties":{"name":"Innu","subjecto":"Innu","partof":"Innu","prec":1}},{"type":"MultiPolygon","arcs":[[[306]]],"id":"shuar","properties":{"name":"Shuar","subjecto":"Shuar","partof":"Shuar","prec":1}},{"type":"MultiPolygon","arcs":[[[307]]],"id":"australian_aboriginal_hunter_gatherers","properties":{"name":"Australian aboriginal hunter-gatherers","subjecto":"Australian aboriginal hunter-gatherers","partof":"Australian aboriginal hunter-gatherers","prec":1}},{"type":"MultiPolygon","arcs":[[[308]]],"id":"tasmanian_hunter_gatherers","properties":{"name":"Tasmanian hunter-gatherers","subjecto":"Tasmanian hunter-gatherers","partof":"Tasmanian hunter-gatherers","prec":1}},{"type":"MultiPolygon","arcs":[[[309,310]]],"id":"guanahatabeyes","properties":{"name":"Guanahatabeyes","subjecto":"Guanahatabeyes","partof":"Guanahatabeyes","prec":1}},{"type":"MultiPolygon","arcs":[[[311]],[[312]],[[313]],[[314]],[[315,316,317,318]],[[319]],[[320]],[[321]],[[322]],[[323]],[[324]],[[325]],[[326]],[[327]],[[328]],[[329]],[[330]],[[331]],[[-310,332]]],"id":"taino","properties":{"name":"Taino","subjecto":"Taino","partof":"Taino","prec":1}},{"type":"MultiPolygon","arcs":[[[333,334]]],"id":"thule_2","properties":{"name":"Thule","subjecto":"Thule","partof":"Thule","prec":1}},{"type":"MultiPolygon","arcs":[[[-334,335,336,337,338,339]]],"id":"athabaskan","properties":{"name":"Athabaskan","subjecto":"Athabaskan","partof":"Athabaskan","prec":1}},{"type":"MultiPolygon","arcs":[[[340,341,342,343,-337,344,-305]]],"id":"subarctic_forest_hunter_gatherers","properties":{"name":"Subarctic forest hunter-gatherers","subjecto":"Subarctic forest hunter-gatherers","partof":"Subarctic forest hunter-gatherers","prec":1}},{"type":"MultiPolygon","arcs":[[[345,346,347,348,349,350,-88,351]],[[352,353]]],"id":"savanna_hunter_gatherers","properties":{"name":"Savanna hunter-gatherers","subjecto":"Savanna hunter-gatherers","partof":"Savanna hunter-gatherers","prec":1}},{"type":"MultiPolygon","arcs":[[[354]],[[355]],[[356]],[[357,358,359]]],"id":"patagonian_shellfish_and_marine_mammal_h","properties":{"name":"Patagonian shellfish and marine mammal hunters","subjecto":"Patagonian shellfish and marine mammal hunters","partof":"Patagonian shellfish and marine mammal hunters","prec":1}},{"type":"MultiPolygon","arcs":[[[360,-86,361,-352]],[[362,-359,363,-350]]],"id":"andean_hunter_gatherers","properties":{"name":"Andean hunter-gatherers","subjecto":"Andean hunter-gatherers","partof":"Andean hunter-gatherers","prec":1}},{"type":"MultiPolygon","arcs":[[[-347,364]],[[-353,365]]],"id":"amazon_hunter_gatherers","properties":{"name":"Amazon hunter-gatherers","subjecto":"Amazon hunter-gatherers","partof":"Amazon hunter-gatherers","prec":1}},{"type":"MultiPolygon","arcs":[[[366]],[[367]],[[368]],[[-317,369]],[[-319,370]]],"id":"caribbean_hunter_gatherers","properties":{"name":"Caribbean hunter-gatherers","subjecto":"Caribbean hunter-gatherers","partof":"Caribbean hunter-gatherers","prec":1}},{"type":"MultiPolygon","arcs":[[[-360,-363,-349,371]]],"id":"pampas_cultures","properties":{"name":"Pampas cultures","subjecto":"Pampas cultures","partof":"Pampas cultures","prec":1}},{"type":"MultiPolygon","arcs":[[[372]],[[-339,373,374,375]],[[376]],[[377]]],"id":"north_american_pacifi_foraging_hunting_a","properties":{"name":"North American Pacifi foraging, hunting and fishing peoples","subjecto":"North American Pacifi foraging, hunting and fishing peoples","partof":"North American Pacifi foraging, hunting and fishing peoples","prec":1}},{"type":"MultiPolygon","arcs":[[[378,379,380,381,382,-343,383]]],"id":"plain_bison_hunters","properties":{"name":"Plain bison hunters","subjecto":"Plain bison hunters","partof":"Plain bison hunters","prec":1}},{"type":"MultiPolygon","arcs":[[[-338,-344,-383,384,-374]]],"id":"plateau_fichers_and_hunter_gatherers","properties":{"name":"Plateau fichers and hunter gatherers","subjecto":"Plateau fichers and hunter gatherers","partof":"Plateau fichers and hunter gatherers","prec":1}},{"type":"MultiPolygon","arcs":[[[-385,-382,385,-375]],[[386,-380]],[[387]]],"id":"desert_hunter_gatherers","properties":{"name":"Desert hunter-gatherers","subjecto":"Desert hunter-gatherers","partof":"Desert hunter-gatherers","prec":1}},{"type":"MultiPolygon","arcs":[[[-98,388,-65,389,-116,390,391,392,-69,393,-97,394,-72,395]],[[-95,396]],[[397,-118]],[[398]]],"id":"west_african_cereal_farmers","properties":{"name":"West African cereal farmers","subjecto":"West African cereal farmers","partof":"West African cereal farmers","prec":1}},{"type":"MultiPolygon","arcs":[[[399,400,401,-102,402,-100,403,404]]],"id":"khoiasan","properties":{"name":"Khoiasan","subjecto":"Khoiasan","partof":"Khoiasan","prec":1}},{"type":"MultiPolygon","arcs":[[[-342,405,406,407,-384],[408],[409],[410],[411],[412]],[[413]]],"id":"eastern_north_amercian_hunter_gatherers","properties":{"name":"Eastern North Amercian hunter-gatherers","subjecto":"Eastern North Amercian hunter-gatherers","partof":"Eastern North Amercian hunter-gatherers","prec":1}},{"type":"MultiPolygon","arcs":[[[414]],[[415]],[[416]],[[417]],[[418]],[[419]],[[420]],[[421]],[[422]],[[423]],[[424]],[[425]],[[426]],[[427]],[[428]],[[-229,429]],[[-181,-164,430]],[[431]],[[432]]],"id":"byzantine_empire","properties":{"name":"Byzantine Empire","subjecto":"Byzantine Empire","partof":"Byzantine Empire","prec":1}},{"type":"MultiPolygon","arcs":[[[433,434,435,-210,436,-212,437,-203]]],"id":"britany","properties":{"name":"Britany","subjecto":"Britany","partof":"Britany","prec":1}},{"type":"MultiPolygon","arcs":[[[-404,-107,438,-105,439,-400,440,441,-392,442,443,444]]],"id":"bantou","properties":{"name":"Bantou","subjecto":"Bantou","partof":"Bantou","prec":1}},{"type":"MultiPolygon","arcs":[[[445,-407]]],"id":"caloosahatchee_cultureure","properties":{"name":"Caloosahatchee cultureure","subjecto":"Caloosahatchee cultureure","partof":"Caloosahatchee cultureure","prec":1}},{"type":"MultiPolygon","arcs":[[[-175]]],"id":"grand_duchy_of_moscow","properties":{"name":"Grand Duchy of Moscow","subjecto":"Grand Duchy of Moscow","partof":"Grand Duchy of Moscow","prec":1}},{"type":"MultiPolygon","arcs":[[[-166,-58,446]],[[447]],[[-276,448]],[[449]],[[450]],[[451]],[[452]],[[453]],[[454,455]]],"id":"denmark","properties":{"name":"Denmark","subjecto":"Denmark","partof":"Denmark","prec":1}},{"type":"MultiPolygon","arcs":[[[-456,456,-45,-292,457]]],"id":"sweden","properties":{"name":"Sweden","subjecto":"Sweden","partof":"Sweden","prec":1}},{"type":"MultiPolygon","arcs":[[[-270,-200,458,-198,459,-217,-63]]],"id":"arag_n","properties":{"name":"Aragón","subjecto":"Aragón","partof":"Aragón","prec":1}},{"type":"MultiPolygon","arcs":[[[460]],[[461]],[[462]],[[463]],[[464]],[[465]],[[466]],[[467]],[[468]],[[469]],[[470]],[[471]],[[472]],[[473]],[[474]],[[475]],[[476]],[[477]],[[478]],[[479]],[[480]],[[481]],[[482]],[[483]],[[484]],[[485]],[[486]],[[487]],[[488]],[[489]],[[490]],[[491]],[[492]],[[493]],[[494]],[[495]],[[496]],[[497]],[[498]],[[499]],[[500]],[[501]],[[502]],[[503]],[[504]],[[505]],[[506]],[[507]],[[508]],[[509]],[[510]],[[511]],[[512]],[[513]],[[514]],[[515]],[[516]],[[517]],[[518]],[[519]]],"id":"tu_i_tonga_empire","properties":{"name":"Tuʻi Tonga Empire","subjecto":"Tuʻi Tonga Empire","partof":"Tuʻi Tonga Empire","prec":1}},{"type":"MultiPolygon","arcs":[[[520]]],"id":"polynesians_2","properties":{"name":"Polynesians","subjecto":"Polynesians","partof":"Polynesians","prec":1}},{"type":"MultiPolygon","arcs":[[[521]],[[522]],[[-133,-264,-128,523,-143,-152,-154,-240,-177,524],[525],[526],[527]],[[528]],[[529]],[[530]],[[531]],[[532]],[[533]],[[534]],[[535]],[[536]],[[537]],[[538]],[[539]],[[540]],[[541]],[[542]],[[543]],[[544]]],"id":"great_khanate","properties":{"name":"Great Khanate","subjecto":"Mongol Empire","partof":"Mongol Empire","prec":1}}]}},"arcs":[[[2673,8700],[19,-25],[27,-16],[8,-18],[-1,-30],[25,-1],[22,-18],[-15,-16],[-12,1],[-30,13],[-14,27],[-13,8],[-9,-9],[0,-22],[-16,-6],[-16,-26],[-14,-9],[-8,2],[1,28],[-5,11],[-42,-15],[2,15],[27,28],[-5,29],[6,41],[13,55],[14,-19],[-4,-16],[17,-15],[5,16],[18,-13]],[[2875,8921],[17,5],[21,-16],[-1,-39],[-17,-20],[-14,-4],[-22,6],[-5,23],[13,36],[8,9]],[[2273,8958],[-33,14],[5,11],[24,19],[2,22],[14,10],[43,-39],[5,-18],[14,-17],[-20,-20],[-16,0],[-22,8],[-16,10]],[[2251,9316],[12,10],[16,4],[17,-3],[11,-7],[-15,-24],[-20,-12],[-5,-12],[9,-11],[9,3],[29,-14],[7,-9],[2,-14],[-8,-12],[-5,-33],[-13,-16],[-15,2],[-10,12],[-8,-4],[13,-18],[-10,-13],[-16,2],[-25,39],[-13,15],[-37,17],[-28,34],[11,22],[21,-20],[19,-9],[24,37],[-26,32],[-1,11],[21,-3],[14,7],[20,-13]],[[2444,9252],[-17,-3],[-30,5],[-16,-2],[18,-23],[-3,-10],[-10,-12],[-12,-3],[-15,7],[-2,17],[-11,26],[-3,19],[4,34],[5,11],[16,-1],[-9,23],[6,5],[26,2],[34,-11],[16,-1],[16,4],[43,-4],[0,-29],[-37,-25],[-19,-29]],[[2654,9465],[25,8],[56,-3],[21,-18],[29,-10],[7,-14],[-28,-18],[-2,-8],[6,-22],[-56,-5],[-16,10],[-4,21],[-15,3],[1,-23],[-27,-6],[-16,0],[-30,14],[-3,-14],[-33,-6],[-18,2],[-5,9],[-2,22],[-15,-4],[-9,-17],[-12,-6],[-38,26],[-8,-16],[-14,2],[-14,46],[7,16],[-3,22],[-23,31],[-1,11],[23,7],[31,1],[32,-3],[5,-16],[-5,-14],[-32,-15],[32,-2],[11,-6],[15,-29],[8,-3],[3,13],[17,2],[11,6],[10,-4],[19,-16],[12,-2],[10,15],[17,9],[21,4]],[[2011,9183],[2,9],[-16,44],[-5,43],[3,12],[46,-14],[25,-23],[8,-16],[2,-23],[7,-21],[15,-28],[-6,-34],[2,-10],[21,-25],[20,-14],[19,-3],[26,-19],[13,-13],[4,-26],[-15,0],[-22,15],[-15,-12],[-16,-5],[2,-23],[14,3],[16,9],[11,-18],[0,-8],[-13,-13],[-25,-7],[-28,3],[-20,8],[-29,17],[-12,18],[-13,-3],[-5,-12],[-14,-16],[-31,-4],[-16,-14],[-34,-11],[-33,-4],[-25,2],[-17,-3],[-13,10],[2,28],[-11,10],[-39,3],[-16,4],[-21,12],[-9,16],[-16,18],[10,10],[20,2],[8,6],[29,3],[60,-3],[35,2],[5,5],[-37,23],[-24,6],[-71,3],[-40,-4],[-21,17],[0,7],[30,11],[13,-1],[34,8],[6,9],[-5,11],[-25,-2],[-20,-5],[-28,25],[-9,-2],[-9,17],[16,32],[33,28],[32,19],[17,5],[8,9],[14,3],[13,-8],[-8,-19],[0,-26],[20,5],[14,18],[11,1],[22,-8],[12,-9],[-3,-28],[15,2],[17,13],[14,1],[-12,32],[19,-4],[23,-16],[6,-24],[12,-35],[8,-11],[13,10]],[[667,9129],[-4,-16],[18,-5],[11,16],[17,-6],[42,-4],[23,-29],[42,-5],[37,5],[15,-3],[28,-12],[43,-5],[26,-11],[54,6],[14,-7],[31,-26],[15,-10],[23,2],[12,-4],[25,-15],[20,-17],[15,-8],[42,-10],[20,-12],[-6,20],[-8,11],[-1,14],[17,14],[18,3],[31,-5],[32,26],[30,8],[10,13],[23,4],[11,-4],[-6,-13],[-18,-9],[-13,-12],[-31,-14],[-9,-17],[-22,-8],[-9,-16],[11,-9],[18,-24],[-1,29],[15,8],[14,22],[22,1],[26,25],[26,6],[8,11],[22,15],[4,16],[-17,28],[11,-4],[18,-18],[16,-44],[23,-25],[14,-7],[7,5],[-5,30],[19,9],[5,-12],[-2,-23],[22,-2],[14,15],[7,16],[20,2],[19,-9],[39,-25],[67,-30],[28,-7],[31,2],[11,-3],[25,-21],[8,-19],[-36,-9],[-4,-23],[41,-12],[44,-3],[20,4],[34,13],[12,-1],[17,-16],[19,-6],[20,-18],[0,-10],[-11,-11],[27,-37],[-2,23],[13,6],[-13,27],[-3,21],[1,25],[40,10],[9,17],[7,1],[33,-18],[24,1],[8,-13],[15,-10],[24,-7],[14,0],[11,7],[46,-1],[13,2],[15,9],[24,-26],[6,1],[3,27],[-18,12],[-17,2],[1,14],[22,1],[38,-21],[-3,-39],[2,-16],[28,-21],[-7,50],[5,25],[19,0],[15,28],[19,7],[-6,27],[-14,-6],[-13,3],[7,17],[23,8],[15,-19],[0,40],[-10,-2],[-19,4],[-11,11],[-9,-3],[-16,6],[-22,15],[-9,11],[-1,15],[15,19],[-21,20],[8,26],[12,11],[13,-9],[4,13],[-11,21],[9,11],[28,2],[16,-9],[16,-14],[8,-23],[-3,-20],[15,-17],[25,-32],[-5,-11],[-12,-2],[-11,-27],[19,-9],[22,2],[33,-11],[0,-81],[7,12],[8,37],[9,14],[6,-1],[23,-27],[8,-27],[-2,-14],[-14,2],[-3,-23],[4,-13],[28,-47],[23,15],[3,22],[17,26],[8,46],[3,6],[21,0],[2,17],[-24,22],[1,29],[7,9],[23,0],[43,-20],[16,-21],[14,2],[5,-7],[3,-33],[-14,-11],[-9,18],[-13,-9],[5,-27],[9,-24],[25,-36],[-6,-31],[-23,-31],[-9,-3],[-14,-16],[-9,9],[-21,31],[-13,10],[-9,-9],[17,-17],[19,-29],[-34,-2],[-12,24],[-38,-3],[-3,-8],[24,-22],[-2,-6],[-33,-47],[-15,-5],[-11,7],[-13,19],[-24,16],[-13,3],[0,-15],[30,-32],[21,-14],[28,-5],[-8,-36],[-26,-37],[-20,-7],[-11,4],[-13,13],[-1,-21],[4,-19],[-4,-2],[-92,26],[26,-28],[20,-5],[17,-9],[29,-6],[0,-26],[-40,-7],[-24,5],[-4,-9],[15,-14],[-6,-14],[-22,-21],[-140,220],[-359,57],[-32,17],[-454,50],[-875,265],[-10,23],[38,2],[29,6],[25,27],[12,1],[14,-15]],[[2172,9512],[1,7],[17,-8],[30,-30],[4,11],[-16,20],[-5,12],[17,5],[32,-19],[8,19],[23,-15],[4,-24],[0,-20],[-14,-19],[5,-32],[-5,-4],[-21,2],[-28,-3],[-13,7],[-2,9],[16,22],[-6,11],[-14,2],[-43,-11],[-10,9],[0,11],[9,1],[14,10],[-5,19],[2,8]],[[2891,9951],[3,12],[-22,26],[6,8],[41,-9],[21,-2],[20,-15],[6,5],[-4,18],[40,-2],[21,-19],[7,0],[-4,24],[13,2],[80,-22],[24,3],[38,-1],[41,-8],[23,-10],[21,-1],[17,-12],[-5,-11],[-16,-4],[-15,-12],[-23,-6],[-40,6],[-28,0],[-34,-10],[-7,-15],[9,-12],[23,0],[21,9],[10,0],[8,-18],[-33,-11],[-41,-27],[-16,-7],[-27,-21],[-28,0],[8,-30],[-5,-6],[-29,-15],[-30,2],[-18,7],[-30,5],[-8,-10],[32,-23],[-8,-5],[-41,0],[-33,7],[-25,-2],[-1,-21],[29,2],[28,-9],[7,-5],[2,-22],[-17,-10],[-7,-23],[-19,1],[-5,-6],[14,-16],[-25,-7],[-32,7],[-5,-3],[4,-33],[-18,-15],[-44,8],[-18,7],[-13,-3],[-15,-16],[18,-5],[49,-8],[19,-6],[25,-1],[8,-11],[0,-12],[-11,-12],[-45,-13],[-27,-10],[-16,30],[-15,-1],[-18,10],[4,-22],[-37,5],[-24,25],[-5,-1],[7,-24],[-13,-10],[-62,7],[-26,18],[-3,-15],[-8,-5],[-23,10],[5,27],[19,3],[19,14],[15,-1],[6,6],[-13,13],[-13,21],[7,9],[38,-5],[11,-6],[14,-17],[17,-11],[34,-2],[10,4],[8,19],[-38,0],[-13,5],[-2,28],[3,5],[-46,10],[-12,-4],[3,25],[14,18],[14,5],[23,0],[32,-3],[42,-14],[20,6],[-42,26],[-22,11],[-45,41],[-5,-8],[-17,29],[4,11],[22,-3],[49,-2],[20,-12],[32,-26],[28,-1],[-17,18],[-25,10],[15,24],[18,11],[22,1],[19,7],[57,8],[-22,15],[-18,5],[-31,-1],[-15,-8],[-35,-12],[-25,-3],[-19,14],[-10,-9],[-27,1],[-19,-12],[4,27],[12,9],[-8,15],[-17,5],[-17,0],[-53,-16],[-25,-22],[-12,12],[13,5],[-10,23],[-42,9],[-4,21],[34,10],[0,3],[70,9],[22,-11],[10,16],[16,9],[22,3],[25,-6],[41,-5],[33,-10],[36,-9],[6,6],[-39,25],[-10,14],[3,8],[31,13],[48,9],[45,-10],[32,-25]],[[3439,9344],[-14,42],[-7,16],[-23,12],[-12,15],[-1,23],[-11,13],[-32,9],[-48,25],[-27,6],[-32,2],[-10,-6],[-41,-14],[-34,15],[4,-27],[-30,6],[-39,20],[25,22],[-7,13],[-41,1],[-18,3],[-26,21],[7,10],[16,1],[38,-4],[42,-2],[27,5],[16,10],[1,11],[-18,16],[-29,-13],[-31,3],[-20,-6],[-19,8],[-9,12],[-18,8],[-15,1],[-18,16],[4,26],[45,11],[42,8],[12,13],[24,11],[31,0],[13,4],[25,-2],[9,12],[176,-78],[188,-256],[6,-35],[-116,-21],[-5,14]],[[2803,9093],[-8,-5],[-31,17],[-5,-5],[12,-11],[36,-23],[6,-19],[-14,-10],[-17,3],[-24,17],[-9,2],[-3,-12],[8,-22],[-27,20],[-13,-9],[-18,11],[-11,-4],[-43,11],[-31,0],[-10,6],[-1,20],[-15,6],[-5,-11],[-23,-1],[-14,5],[-16,16],[-4,21],[11,2],[30,-5],[14,7],[-21,24],[-25,7],[-17,-1],[-15,7],[5,32],[12,6],[1,8],[-13,13],[5,31],[15,30],[28,32],[33,14],[35,3],[11,-7],[-40,-49],[-5,-17],[2,-12],[16,-18],[-7,-23],[14,-28],[20,-20],[-17,-15],[-1,-10],[31,-4],[8,21],[-6,22],[-14,8],[-11,17],[13,20],[23,-2],[-15,15],[-18,11],[0,24],[11,10],[34,-1],[-28,21],[10,10],[30,10],[21,11],[32,-7],[29,-47],[1,-5],[-16,-43],[0,-24],[13,-4],[13,11],[4,14],[17,2],[6,-5],[1,-21],[0,-98]],[[3385,7563],[7,36],[14,44],[19,42],[15,21],[16,6],[4,-9],[-14,-13],[4,-14],[-24,-72],[-2,-27],[6,6],[12,24],[14,-10],[-11,-22],[24,-28],[9,1],[4,14],[13,0],[18,-14],[-17,-33],[10,-22],[15,9],[3,-9],[-8,-17],[-13,-8],[8,-32],[7,15],[6,-5],[1,-24],[10,-7],[-10,-52],[-15,11],[0,21],[-8,-13],[-6,9],[7,32],[-9,18],[-10,-23],[-10,-11],[-13,-28],[-11,1],[-1,12],[15,13],[14,29],[-16,6],[-4,-15],[-7,5],[0,16],[-9,-1],[-7,-16],[-13,-2],[-36,11],[-30,-7],[-4,21],[18,30],[15,16],[-15,8],[8,24],[11,3],[5,9],[-9,21]],[[669,5450],[19,-28],[9,-25],[-6,-16],[-10,-6],[-8,-22],[-7,12],[-4,51],[6,13],[1,21]],[[602,5544],[4,8],[9,-29],[-12,-1],[-5,21],[4,1]],[[663,5487],[-10,-14],[-9,25],[3,9],[16,-20]],[[5938,6530],[4,-19],[-11,0],[-1,-11],[-25,-13],[-9,7],[-4,24],[10,8],[7,-3],[1,18],[16,-4],[31,24],[-19,-31]],[[8888,6976],[3,41],[-9,12],[-2,26],[22,31],[-4,21],[7,10],[13,-17],[6,7],[0,38],[11,14],[1,52],[-6,40],[10,18],[32,-70],[13,-22],[15,-15],[16,-8],[21,29],[-8,-33],[10,-45],[-12,-16],[-12,-6],[-11,6],[-9,-12],[-14,-42],[-4,-19],[-35,41],[-15,1],[-13,-19],[-7,22],[-13,-14],[1,-10],[14,-16],[11,-18],[-5,-7],[-11,2],[-9,-26],[-7,4]],[[8973,7821],[2,-40],[-5,-40],[0,-25],[3,-25],[8,-27],[8,-48],[11,-52],[14,-55],[-26,35],[-12,2],[-9,-10],[-6,-34],[-4,-54],[4,-32],[10,-37],[7,-6],[6,-21],[-4,-41],[-9,41],[-10,10],[-8,-11],[-12,-47],[-6,16],[-2,31],[8,37],[-5,29],[9,35],[-2,23],[-7,38],[5,10],[4,30],[1,68],[2,43],[-4,39],[-10,28],[-2,29],[6,30],[-1,46],[12,2],[13,18],[11,-35]],[[9059,7127],[0,0]],[[9079,7155],[0,0]],[[9065,7196],[4,-5],[-12,-8],[-8,-23],[-11,-7],[10,16],[9,30],[8,-3]],[[9125,7259],[-16,-20],[-9,-4],[-11,-29],[-11,-10],[9,20],[-1,7],[21,31],[12,3],[11,18],[4,-12],[-9,-4]],[[9153,7280],[4,19],[18,26],[5,-1],[-27,-44]],[[9190,7342],[0,0]],[[9187,7361],[0,0]],[[9233,7410],[0,0]],[[9251,7441],[0,0]],[[9254,7465],[0,0]],[[9281,7521],[0,0]],[[9277,7524],[0,0]],[[9293,7535],[0,0]],[[9298,7569],[4,3],[-5,-26],[1,23]],[[9289,7587],[0,0]],[[9226,7387],[0,0]],[[9318,7608],[-7,-5],[1,18],[10,6],[8,23],[6,4],[1,-17],[-10,-24],[-9,-5]],[[9337,7653],[9,7],[-2,-15],[-7,8]],[[9317,7664],[0,0]],[[6240,2809],[15,14],[6,-4],[9,15],[20,2],[-2,12],[15,24],[9,0],[-4,16],[9,23],[6,-12],[6,20],[-5,19],[10,23],[-4,28],[6,11],[6,-18],[3,14],[12,29],[3,37],[-1,19],[6,15],[11,-32],[7,-9],[5,-34],[4,-81],[10,-65],[0,-12],[-9,-34],[-12,40],[-4,-18],[3,-29],[5,-29],[-13,-54],[0,-43],[-2,-31],[-35,-276],[-16,-146],[-7,-51],[-11,-33],[-17,-3],[-13,-11],[-6,-15],[-10,-3],[-7,20],[-15,5],[-10,24],[-3,34],[-8,21],[0,23],[5,36],[-15,72],[6,66],[9,13],[18,83],[3,47],[-9,30],[4,23],[-7,28],[-5,62],[13,59],[0,35],[6,1]],[[6333,2752],[-15,8],[-23,-60],[-38,-355],[7,-68],[13,0],[33,34],[36,223],[0,42],[-13,176]],[[9869,1284],[9,-7],[-2,34],[7,-6],[8,-56],[28,-28],[11,-1],[20,27],[9,-7],[1,-21],[-5,-40],[-13,-4],[-2,-28],[-15,-1],[-9,-16],[4,-29],[-32,-102],[-18,-29],[-13,26],[13,72],[-13,23],[-25,27],[-5,14],[24,32],[2,16],[0,33],[6,27],[-6,27],[1,19],[-16,53],[-4,27],[-8,11],[7,-29],[-27,85],[-3,28],[-9,22],[11,4],[-1,-16],[10,-25],[4,3],[20,-22],[11,-32],[-7,-10],[12,-26],[-2,-13],[7,-23],[-9,-4],[16,-17],[3,-18]],[[9779,806],[-19,-30],[-11,5],[7,-20],[-2,-28],[-15,5],[11,-15],[-12,-63],[-16,-30],[-17,-25],[-20,8],[-8,-4],[-7,14],[-15,8],[-8,13],[-3,-10],[-10,-3],[-9,8],[0,19],[9,4],[-6,16],[10,-9],[-4,24],[12,-5],[-4,26],[22,42],[1,10],[12,19],[14,9],[20,25],[10,28],[29,34],[1,13],[9,14],[2,38],[17,21],[4,47],[6,22],[9,-7],[7,-17],[7,-34],[12,21],[10,-2],[0,-30],[5,-22],[-11,-35],[-17,-36],[-22,-38],[5,-13],[11,-11],[-10,-6],[-6,10],[-10,-10]],[[4327,8723],[7,11],[19,3],[-9,18],[7,11],[12,-13],[12,3],[-10,21],[5,8],[25,-10],[9,-9],[5,-18],[-7,-23],[12,-26],[7,12],[18,14],[-1,32],[7,8],[11,-25],[11,-3],[-3,15],[17,11],[15,-22],[7,-2],[-4,23],[30,-7],[16,11],[-1,24],[15,-3],[8,-15],[26,-19],[-3,-18],[10,-10],[20,-5],[4,-22],[-5,-30],[-18,-8],[-1,-14],[-12,-20],[-13,6],[-10,-16],[-25,-20],[-29,-6],[-10,-20],[-19,-7],[-26,7],[-23,20],[-32,2],[-23,4],[-4,6],[20,18],[9,19],[-17,5],[-5,13],[-34,-5],[-3,14],[13,7],[32,8],[7,17],[-6,14],[-24,6],[-24,-11],[-15,16]],[[5550,9000],[-24,-77],[-15,-77],[3,-58],[-33,-116],[11,-20],[-13,-25]],[[5479,8627],[-17,-33],[-44,-16],[-53,-109],[-16,-72],[-11,-5],[10,-38],[-3,-28],[1,-107],[-21,-63]],[[5325,8156],[-3,8],[5,27],[-16,9],[-3,62],[-8,-4],[-11,28],[0,-17],[-7,-20],[-13,1],[-9,-15],[-33,-44],[-1,-6],[-33,-9],[-9,15],[-21,18],[-8,2],[-6,19],[7,18],[13,-12],[-9,20],[13,15],[-30,2],[-2,14],[8,15],[16,0],[6,8],[-13,-5],[5,29],[-17,-2],[-5,10],[13,18],[-14,6],[1,22],[8,9],[-7,8],[1,44],[19,5],[-12,14],[18,24],[13,0],[2,18],[19,-7],[7,8],[-12,7],[-1,15],[25,2],[7,-7],[1,16],[10,19],[9,6],[7,-9],[7,16],[11,13],[6,27],[26,32],[10,-6],[1,15],[14,21],[6,16],[11,-2],[0,20],[-6,4],[11,34],[11,-2],[2,19],[12,3],[-12,20],[6,16],[17,0],[-7,17],[29,22],[-6,8],[11,14],[12,-4],[10,15],[-5,10],[14,17],[9,-13],[7,13],[-4,21],[15,0],[-5,16],[15,15],[4,15],[15,6],[6,22],[7,-8],[12,4],[16,-9],[7,13]],[[5368,9755],[0,-23],[25,-9],[4,26],[14,6],[27,-41],[10,-7],[7,7],[-9,21],[-4,23],[11,13],[19,-9],[16,-1],[7,-5],[-3,-24],[8,-9],[15,14],[16,-23],[22,-9],[27,-22],[-16,-9],[-25,-7],[-9,-9],[-9,-38],[-11,-29],[-15,-3],[-10,-18],[-6,-31],[-17,-6],[-43,28],[-17,18],[8,12],[42,6],[12,12],[-8,8],[-43,-8],[-21,-1],[-6,17],[12,2],[44,17],[19,14],[-32,14],[-11,9],[-7,-4],[-13,-21],[-20,-12],[-16,6],[-27,25],[-9,13],[21,13],[-10,19],[-17,-11],[-6,3],[-11,24],[10,12],[20,5],[35,2]],[[5610,9754],[-45,1],[-32,-5],[-24,11],[10,15],[10,5],[24,34],[17,-22],[12,-4],[25,0],[9,-11],[11,11],[6,14],[11,10],[-2,-37],[10,0],[13,16],[13,9],[10,-4],[7,-16],[34,3],[19,-6],[7,-13],[-31,-27],[-21,-12],[-25,-6],[-17,-12],[-78,3],[-1,12],[19,9],[9,22]],[[4791,6674],[-9,-12],[-23,6],[-9,-10],[4,39],[0,71],[-11,-6],[-1,14],[9,9],[-3,13],[-3,-14],[-10,-3],[3,40],[8,29],[12,98],[-6,56],[3,9]],[[4755,7013],[18,14],[7,-14],[22,-2],[11,7],[16,-31],[-3,-15],[-15,-17],[-3,-63],[0,-37],[-15,-13],[14,-41],[-11,-33],[-2,-15],[10,-4],[5,-10],[-11,-21],[-7,-44]],[[5244,6802],[-12,24],[4,46],[-2,38],[-7,14],[1,14],[15,1],[15,23],[14,-45],[-5,-34],[2,-29],[-6,-40],[-12,6],[-7,-18]],[[8039,5292],[-22,28],[-2,51],[17,36],[7,-2],[3,18],[10,-8],[4,10],[16,6],[7,-23],[-12,-34],[-5,-44],[-16,-15],[-7,-23]],[[7237,4412],[-9,9],[-6,32],[-5,41],[0,75],[-3,23],[2,17],[-3,20],[6,-1],[7,38],[-1,18],[15,-28],[12,-49],[-1,-16],[7,-11],[4,-23],[10,-45],[1,-17],[-7,-46],[-11,-26],[-18,-11]],[[5760,8013],[-32,13],[-26,43],[-16,-11],[-78,1],[-21,-16],[4,-45],[10,0],[10,-18],[-2,-23],[5,-11],[3,-48]],[[5617,7898],[-21,-22]],[[5596,7876],[-10,0],[-9,-13],[-10,10],[-1,-20],[-9,0],[0,12],[-24,-30],[-17,-11],[-9,18],[11,65]],[[5518,7907],[18,1],[0,-8],[28,30],[-14,-3],[3,23],[29,-3],[6,11],[1,28],[-6,21],[-3,33],[2,37],[10,18],[0,24],[10,20],[24,11],[1,-7],[13,-18],[4,-21],[16,-8],[13,12],[3,9],[-3,41],[7,35],[-5,7],[-7,-14],[-11,10],[1,30],[-5,-6],[-5,14],[2,25],[17,4]],[[5667,8263],[-2,0],[16,-34],[22,32],[31,-2],[3,-33],[31,21]],[[5768,8247],[-4,-97],[2,-65]],[[5766,8085],[2,-31],[-8,-41]],[[4940,7117],[6,-2]],[[4946,7115],[12,-7],[-2,-12],[18,-11]],[[4974,7085],[-21,-55],[2,-26],[-15,4]],[[4940,7008],[-5,18],[7,0],[-4,13],[-13,12],[4,48],[11,4],[0,14]],[[6229,4735],[-21,-48],[-29,-16],[-25,56]],[[6154,4727],[-2,34],[4,43],[33,31],[-8,-15],[23,-8],[25,-77]],[[5191,4426],[-22,-130]],[[5169,4296],[-14,22],[-7,45],[3,16]],[[5151,4379],[-8,12],[-15,41],[-15,17],[-4,10],[39,155],[43,-6],[13,-53],[0,-70],[-13,-59]],[[5232,4206],[0,17],[7,24],[6,-3],[-7,-39],[-6,1]],[[5290,4885],[-11,127],[21,27],[26,117],[6,298],[13,48],[24,-2],[47,-429],[23,-54],[0,-85],[-31,-44]],[[5408,4888],[-65,-95],[-46,7],[-7,85]],[[6302,4958],[-8,-6],[-22,1],[-24,-42],[-7,0],[-7,-14],[-17,2],[-10,19],[-5,23],[2,23],[-16,138],[3,37],[-4,48],[69,76],[29,-42],[10,-122]],[[6295,5099],[-9,-96],[11,-12],[5,-33]],[[7371,5401],[-7,-12],[-24,-71],[-8,-18],[-8,-9],[-9,-27],[-28,-45],[-3,-32],[-13,-23],[-11,1],[-12,-45],[-6,9],[-8,-5]],[[7234,5124],[-28,18],[-3,88],[70,108],[68,146]],[[7341,5484],[11,-39],[19,-44]],[[2500,5385],[0,129],[4,6],[22,11],[20,14],[20,-8],[12,3],[7,-16],[0,-24],[-20,-57],[0,-22],[-6,-22],[6,0],[-6,-86],[-8,37],[-4,-11],[-3,-32],[8,6],[0,-14],[-5,-40],[2,-9],[-3,-26],[3,-10],[-6,-42],[-8,-12],[-33,51],[11,55],[18,69],[-5,42],[-26,8]],[[2258,5357],[-11,-109]],[[2247,5248],[-86,147],[-12,77],[18,31],[91,-146]],[[2258,5357],[52,-55],[30,-78],[17,-62],[-24,-31],[-9,-9],[-12,2],[-15,14],[-16,6],[-27,39],[-10,9],[3,56]],[[2869,3060],[-17,91],[-11,18],[1,30],[-38,190],[-21,74],[-7,31]],[[2776,3494],[40,-32],[19,-51],[43,-187],[0,-59],[-9,-105]],[[3010,2737],[58,246]],[[3068,2983],[9,-14],[35,-102],[20,-212],[-3,-60]],[[3129,2595],[-13,-237]],[[3116,2358],[-6,-258]],[[3110,2100],[-1,-31]],[[3109,2069],[-16,-34],[-26,0],[-25,106],[2,16],[-3,30],[1,65],[3,20],[-6,12],[0,24],[8,12],[5,90],[0,76],[-3,118],[-2,32],[-8,39],[-22,28],[-7,34]],[[3010,2737],[-7,8],[-39,54],[-21,24],[-33,59],[-15,36],[-13,45],[0,44],[-13,53]],[[2776,3494],[-15,28],[-20,24],[12,10],[0,23],[-12,43],[-3,23],[3,25],[8,20],[27,-16],[36,-127],[30,-17],[9,-102],[49,-213],[121,-152],[47,-80]],[[4939,6518],[3,-16],[9,-16],[2,-29],[0,-68],[2,-16],[-6,-45]],[[4949,6328],[-217,-146],[-5,26],[0,38],[14,49],[2,45],[17,39],[9,15],[27,26],[9,13],[14,42],[16,92],[10,10],[11,-32],[16,-20],[32,2],[12,16],[5,-18],[18,-7]],[[4574,4846],[-14,-6]],[[4560,4840],[-7,9],[-6,17],[-8,8],[-5,20],[0,55],[7,9],[1,18],[-16,61]],[[4526,5037],[-11,17],[16,36],[12,59],[2,43],[7,42],[2,27],[231,15],[201,64],[35,0],[98,-51],[29,-64],[-5,-153],[-24,-77],[-157,-229]],[[4962,4766],[-59,-39],[-93,-12],[-232,127],[-4,4]],[[6131,4715],[2,-43],[-17,-104],[-29,-70],[-12,0]],[[6075,4498],[-39,0],[-38,70],[-12,139],[33,280],[26,47],[42,-47],[37,-163],[7,-109]],[[5927,2535],[0,-54],[-15,-89]],[[5912,2392],[-49,-76]],[[5863,2316],[-49,0]],[[5814,2316],[-24,38],[-5,76]],[[5785,2430],[10,115]],[[5795,2545],[29,77]],[[5824,2622],[44,13]],[[5868,2635],[39,0],[20,-39],[0,-61]],[[5976,5105],[-66,-16],[-50,24]],[[5860,5113],[-41,319],[16,49],[25,16],[60,-25],[121,-128],[33,-59],[6,-46],[-104,-134]],[[5976,5105],[-35,-253],[-18,-41],[-19,0],[-38,24],[-12,41],[6,237]],[[6295,5099],[33,72],[74,52],[96,187],[83,66],[28,-17]],[[6609,5459],[-4,-17],[-1,-62],[2,-20],[-18,-7],[-13,-18],[-5,-34],[-8,-18],[-19,-3],[-8,-18],[-2,-39],[-8,-13],[-23,4],[-33,-30],[-7,-8],[-12,-28],[-2,-30],[-23,-32],[-29,-21],[-26,-24],[-11,-30],[-11,-12],[-14,0],[-19,-27],[-13,-14]],[[6609,5459],[-32,136],[-34,89],[-22,88],[19,50],[2,-4],[13,29],[10,34],[1,-27],[-7,-28],[6,-2],[1,-46],[11,-40],[10,-20],[26,-35],[15,-3],[23,-67],[10,-19],[-8,-34],[-19,-50],[-9,-50],[-16,-1]],[[6122,3171],[-32,6],[-28,134]],[[6062,3311],[-14,341],[46,232],[135,342]],[[6229,4226],[61,52],[33,1]],[[6323,4279],[-36,-103]],[[6287,4176],[-4,-8]],[[6283,4168],[-19,-43],[-27,-36],[-23,-48],[-36,-95],[-23,-78],[0,-21],[-14,-18],[-5,4],[-5,-37],[-8,-4],[-5,-13],[-1,-27],[-16,-64],[1,-18],[-5,-21],[-7,-11],[-9,-62],[0,-51],[8,-33],[9,-18],[-8,-55],[6,-14],[-2,-54],[7,-76],[5,-16],[15,-26],[7,-29],[-6,-33]],[[7112,4746],[58,37]],[[7170,4783],[43,28]],[[7213,4811],[4,-79],[-1,-8],[-16,-4],[-8,-50],[6,-16],[-23,-20],[-5,-36],[-7,-18],[-11,-16],[-4,2],[-18,47],[-5,30],[-4,45],[-9,58]],[[7170,4783],[-3,49],[-20,147],[4,31],[73,54]],[[7224,5064],[2,-76],[-2,-16],[6,-25],[-2,-36],[-13,-79],[-2,-21]],[[7234,5124],[-4,-9],[-6,-34],[0,-17]],[[7112,4746],[-11,63],[-13,49],[-13,115],[-9,53],[-16,70],[-12,85],[-9,106],[-6,88],[-3,59],[10,45],[0,10],[-9,24],[-3,50],[1,21],[-11,-1],[-5,-21],[4,-20],[-4,-29],[-7,-12],[-24,-24],[-15,9],[-7,12],[-31,74],[-6,23],[17,-3],[13,8],[12,29],[-1,8],[-20,-6],[-21,15]],[[6913,5646],[119,122],[22,-16],[6,-36],[-18,-157],[6,-21],[38,-21],[111,47],[8,26],[0,84],[14,5],[16,-11],[6,-36],[36,5],[10,-16],[22,-78],[32,-59]],[[7738,5846],[0,-26],[53,-78],[-10,-68],[24,-141],[-22,-75]],[[7783,5458],[-10,6],[-63,-291]],[[7710,5173],[-7,5],[-3,30],[-10,30],[-3,-1],[-1,-32],[-7,-28],[-21,-25],[-11,-35],[-3,23],[-7,-12],[-6,8],[2,20],[-19,-15],[0,15],[9,76],[-1,63],[-13,76],[-3,-17],[-11,16],[10,6],[-2,24],[-11,31],[-12,7],[0,19],[-7,2],[-13,35],[-7,34],[-2,40],[-8,46],[-5,12],[18,196],[74,40],[108,-16]],[[7972,5070],[-27,-39],[-5,-2]],[[7940,5029],[-3,70],[-23,146],[-23,40],[-68,0],[0,120]],[[7823,5405],[5,63],[99,99],[23,-15],[34,-52]],[[7984,5500],[-2,-7],[-16,2],[-1,-19],[-11,-38],[-11,-17],[-4,-13],[-8,-62],[23,-60],[2,-34],[16,-37]],[[7972,5215],[-6,-48],[2,-63],[4,-34]],[[8025,4808],[-6,-19],[-15,-13],[-21,-43],[-11,5],[-7,15],[-1,-42],[-7,-37],[-7,0],[-8,-26],[-12,-12],[-8,-27],[-13,-12],[2,71],[4,37],[-6,14],[-9,8],[-7,17],[-18,0],[4,18],[-4,21],[-14,-12],[-2,34],[-8,51],[-9,8],[-12,29],[-9,6],[-7,-8],[-13,9],[3,50],[-2,6]],[[7802,4956],[25,38],[113,35]],[[7972,5070],[8,-62],[0,-21],[6,-33],[-1,-61],[-3,-16],[4,-50],[39,-19]],[[7972,5215],[22,-54],[8,-2],[4,-13],[7,-52],[8,-19],[8,-67],[7,-91],[-7,-31],[0,-61],[-4,-17]],[[7802,4956],[-18,3],[-9,-17]],[[7775,4942],[-2,47],[10,21],[12,0],[8,-11],[-1,-43]],[[7223,6152],[-7,52],[0,33],[8,52],[-8,85],[3,72],[37,0],[15,33],[0,19]],[[7271,6498],[25,-2],[115,27],[86,5],[2,32],[-2,27],[2,37],[47,-11],[107,54],[171,-58],[20,-187],[-48,-364],[-57,-87]],[[7739,5971],[-2,58],[-26,47],[-71,-16],[-90,-104],[-88,-62]],[[7462,5894],[-67,42],[-172,216]],[[6939,6280],[51,146],[31,32]],[[7021,6458],[9,-68],[10,-21],[183,-217]],[[7462,5894],[37,-53],[0,-272],[-3,15],[-2,-22],[-6,-9],[-4,17],[-6,-21],[-5,9],[-1,-16],[-8,-1],[-5,26],[-5,-23],[-3,1],[-6,25],[-11,-27],[-20,-20],[-4,-11],[4,-32],[-8,-36],[-15,-28],[-20,-15]],[[6913,5646],[-14,24],[-9,32],[-10,4],[-11,20],[-3,35],[-14,12],[-2,41],[-9,13]],[[6841,5827],[54,281],[44,172]],[[7021,6458],[90,92],[68,-26],[77,13]],[[7256,6537],[15,-39]],[[6667,7047],[98,209],[193,353],[241,-52],[90,13],[90,52],[75,6],[45,-23]],[[7499,7605],[106,-29],[-15,-39],[15,-39],[0,-39],[-106,-118],[0,-183],[56,-144],[-299,-477]],[[6939,6280],[-54,368],[-15,27],[-18,0],[-5,65],[-52,52],[-25,46],[-46,65],[-2,59],[-25,0],[-30,85]],[[5604,7581],[-12,9],[-18,-16],[-4,11],[-15,0],[-3,-24],[-9,5],[-5,19],[-13,-13]],[[5525,7572],[-3,7],[-1,33],[-4,34],[-14,25],[-14,32],[-2,16],[-7,10],[-3,-13],[-9,3],[0,19],[-10,19],[0,-13],[-21,19],[3,32],[5,1],[5,45],[5,13],[-5,14],[12,10],[4,-28],[0,28],[-3,14],[12,6],[17,22],[-2,18]],[[5490,7938],[17,3],[7,-29],[4,-5]],[[5596,7876],[-3,-45],[0,-66],[11,-19],[-2,-33],[-7,-5],[9,-52],[0,-75]],[[5760,8013],[-2,-26],[11,-29],[0,-33],[-17,-42],[-1,-71],[-26,-14],[-9,-33],[-67,4],[-22,43],[-10,86]],[[5583,7216],[10,5],[20,-23],[7,23],[9,-9]],[[5629,7212],[-5,-19],[12,-14],[0,-28],[17,18],[20,-18],[10,14],[24,-19],[27,38],[42,0],[4,23],[-8,19],[6,35],[10,3],[19,-14],[18,7]],[[5825,7257],[-7,-25],[-11,-3],[-11,-28],[-3,-21],[-3,-52],[-12,-6],[-4,-24]],[[5774,7098],[-34,-37],[-2,-52],[-15,19],[-49,-5],[-78,61]],[[5596,7084],[6,62],[-19,70]],[[5768,8247],[1,25]],[[5769,8272],[9,11],[2,15],[5,-7],[5,12],[9,-4],[8,17],[19,-12],[10,5],[-12,23],[-28,150],[-40,83]],[[5756,8565],[94,115],[102,33]],[[5952,8713],[4,-21],[9,-31],[3,-22],[6,-6],[26,-7],[6,-20],[33,-12],[14,7],[3,20],[-4,13],[-18,1],[-7,6],[-12,26],[9,22],[6,0],[14,-15],[44,-25],[12,-3],[10,5],[9,-5],[4,20],[-13,29],[-4,21],[3,10],[39,27],[24,33],[29,-11],[17,-18],[5,3]],[[6223,8760],[110,-79],[90,-123],[51,-127],[46,-189],[5,-56]],[[6525,8186],[-249,-27]],[[6276,8159],[2,314],[-9,10],[-125,-76],[0,-52],[-7,-19],[-31,-5],[-54,67],[-22,9],[-22,-38],[-2,-38],[60,-61],[13,-66],[-31,-99],[-45,-19],[-51,80],[-22,10],[-27,-5],[-3,-45],[-32,0],[-15,-22],[6,-42],[-7,-36],[-21,46],[-24,0],[-7,25],[-20,-6],[-2,-17],[-12,11]],[[6276,8159],[-10,-31],[3,-146],[-11,-28],[-47,4],[-14,-19],[14,-56],[0,-123],[-81,-90],[-53,5],[-14,-10],[-4,-94],[-31,9],[-65,-85],[-134,52],[-11,-66],[-57,-71]],[[5761,7410],[-7,43],[-80,57],[-70,60],[0,11]],[[6027,8026],[24,-42],[23,38],[-25,29],[-22,-25]],[[6582,9289],[-34,16],[-30,-8],[-18,19],[24,24],[28,3],[1,12],[-9,11],[10,13],[19,6],[-10,13],[20,29],[20,2],[12,17],[24,19],[28,9],[16,-2],[9,5],[10,20],[15,4],[21,-9],[30,12],[63,13],[14,23],[56,7],[11,-12],[2,-11],[-10,-15],[-24,-16],[-32,-14],[-54,-16],[-54,-19],[-23,-11],[-26,-7],[-12,-7],[-4,-9],[8,-7],[-17,-19],[-32,1],[-7,-13],[8,-8],[-19,-23],[-15,8],[-7,-10],[11,-9],[1,-11],[-14,-21],[-10,-9]],[[8790,7864],[-279,91],[-231,143],[-251,51],[-419,-51]],[[7610,8098],[-247,92],[-224,276],[-176,40],[-245,-194],[-99,-103],[-79,-21],[-15,-2]],[[6223,8760],[9,41],[-4,35],[-15,12],[15,33],[-2,27],[-9,17],[5,12],[18,-8],[25,4],[8,-4],[22,-49],[-33,-5],[-10,-7],[-6,-16],[14,-16],[9,-18],[19,-9],[33,7],[4,5],[10,49],[15,6],[16,14],[36,22],[37,19],[12,10],[2,-15],[11,1],[8,24],[14,9],[10,-2],[-3,-32],[-10,-3],[-3,-12],[9,-6],[26,8],[5,-8],[11,25],[5,6],[24,6],[23,-8],[14,3],[12,15],[23,11],[16,-11],[-8,-15],[2,-7],[17,-7],[5,20],[16,1],[12,16],[1,14],[-17,34],[19,19],[34,-2],[46,-18],[26,-17],[14,-3],[34,-22],[45,-49],[8,2],[17,43],[-17,1],[-11,22],[0,21],[-9,9],[-25,5],[2,24],[13,19],[-4,35],[-14,2],[-3,10],[4,17],[28,22],[14,16],[14,34],[7,39],[8,14],[24,-7],[40,7],[22,-1],[7,-4],[4,-20],[-10,-38],[-17,-27],[-2,-11],[9,-12],[15,-32],[3,-27],[-10,-19],[4,-39],[-1,-42],[9,-32],[13,-8],[2,-10],[-6,-16],[-9,-37],[-26,-36],[-14,-15],[4,-17],[-20,-11],[-29,14],[-20,-5],[3,-10],[16,-15],[20,-7],[48,-5],[10,24],[17,10],[14,16],[8,29],[11,10],[10,21],[-2,30],[-7,17],[3,18],[11,8],[18,5],[22,1],[19,-23],[2,-25],[-4,-34],[15,-16],[16,-1],[11,5],[2,9],[-17,12],[-12,2],[0,12],[13,13],[-9,48],[-7,9],[-50,20],[-19,-9],[-28,5],[-7,43],[4,22],[13,37],[-16,42],[-13,22],[11,18],[15,4],[21,20],[5,28],[-2,22],[17,-7],[-1,-33],[-8,-20],[0,-32],[10,-18],[37,-10],[21,-3],[10,-13],[14,0],[-7,29],[-6,9],[-36,6],[-14,19],[3,11],[17,2],[20,-8],[9,5],[-1,23],[16,7],[16,0],[31,-19],[14,-17],[23,-14],[23,-1],[9,6],[1,-11],[-18,-21],[-5,-57],[4,-4],[9,25],[8,8],[8,-17],[-1,-24],[18,15],[-1,10],[-14,43],[11,31],[-10,15],[-21,16],[-3,13],[-37,16],[-4,10],[0,31],[-11,22],[11,17],[29,4],[31,0],[45,10],[10,-12],[24,18],[18,3],[7,-6],[-12,-11],[-5,-13],[28,11],[15,21],[-4,15],[-16,14],[-4,10],[4,25],[64,49],[20,10],[46,4],[54,16],[31,22],[35,-1],[5,-6],[-5,-13],[32,-2],[32,13],[12,1],[21,-7],[9,6],[0,17],[6,11],[23,1],[16,12],[-8,17],[1,11],[15,14],[19,12],[28,14],[16,2],[31,-2],[10,-8],[1,-9],[-19,-13],[-8,-11],[6,-5],[23,4],[19,-5],[26,3],[-3,-13],[-14,-15],[-4,-10],[35,1],[3,-3],[13,18],[39,3],[49,-9],[18,-8],[15,-14],[6,-15],[20,3],[5,-17],[-17,-27],[14,-16],[-29,-28],[-27,-11],[-80,-66],[-10,-9],[-30,-12],[-30,-19],[-25,-37],[22,8],[12,14],[36,6],[60,22],[13,9],[-7,17],[10,17],[11,-7],[8,-12],[15,-8],[20,0],[14,8],[6,-2],[3,-26],[6,-13],[18,25],[21,1],[19,4],[29,0],[50,-7],[-4,-25],[5,-10],[25,-5],[33,-10],[46,5],[18,-11],[17,30],[-3,23],[23,15],[16,-2],[25,-19],[56,0],[22,-20],[0,-12],[-33,-18],[-31,-24],[0,-9],[25,-3],[9,-5],[28,-28],[25,-42],[23,-26],[17,-10],[8,1],[9,12],[25,58],[11,10],[3,-15],[9,-10],[31,-14],[11,3],[24,15],[20,0],[15,-7],[24,-24],[15,21],[-1,7],[15,11],[14,-14],[16,-1],[0,31],[3,29],[-14,-5],[-11,3],[10,12],[35,8],[20,22],[25,-8],[66,-16],[29,-3],[-22,-20],[23,1],[1,-17],[-22,-14],[-3,-10],[9,-1],[18,9],[12,10],[20,26],[50,-2],[23,-10],[5,-10],[-28,-19],[28,-14],[27,-7],[22,-18],[4,-14],[14,-17],[35,5],[46,15],[28,3],[37,-4],[28,-8],[23,-19],[11,-24],[-5,-33],[6,-8],[28,-5],[0,-23],[5,-13],[9,5],[7,14],[15,13],[30,1],[19,9],[9,-1],[7,-14],[9,-3],[47,-3],[11,4],[17,16],[21,-31],[25,-19],[4,-13],[7,-5],[20,5],[20,10],[2,8],[-13,38],[-10,4],[11,29],[53,-8],[15,-5],[3,-10],[17,5],[55,1],[16,-5],[25,-13],[17,-3],[26,-17],[9,-2],[29,-22],[0,-287],[-27,-13],[-8,-12],[-20,-4],[-16,4],[-9,23],[-11,-10],[-11,-1],[-10,9],[5,-16],[-7,-9],[16,-10],[8,11],[9,-4],[0,-15],[13,-15],[17,4],[7,-35],[-9,-17],[7,2],[18,-35],[-2,-15],[10,3],[-1,-21],[-14,-16],[-40,14],[-3,13],[-10,0],[-8,-21],[-38,-30],[-18,-6],[-17,-19],[-12,-1],[-16,-24],[-12,-1],[-13,-29],[-21,-15],[-5,-15],[-20,-12],[-2,-19],[-11,-10],[-7,10],[-5,20],[-8,10],[-26,0],[-31,-12],[-30,-40],[-2,4],[7,42],[-12,0],[-10,-17],[-13,-11],[-2,-16],[-8,-6],[-13,30],[-10,-14],[-10,-5],[-10,-25],[6,-13],[-14,-23],[4,-5],[-19,-30],[-11,-28],[-1,-17],[12,-13],[17,1],[8,-10],[-14,-28],[-3,-10],[7,-31],[10,-3],[1,-33],[-4,-12],[-13,5],[5,24],[-11,-7],[-13,-28],[-10,-41],[4,-22],[10,-18],[-12,-23],[-25,2],[-7,-6],[-13,-20],[-7,-16],[0,-21],[6,-24],[-16,-8],[-24,-22],[-2,-45],[-14,-39],[-33,-51],[-10,69],[0,26],[-9,37],[-9,74],[0,18],[-6,62],[-1,26],[5,72],[2,7],[24,42],[9,30],[-3,16],[20,12],[23,20],[30,42],[7,25],[33,43],[19,29],[8,23],[16,14],[26,17],[14,39],[-7,7],[10,29],[2,29],[7,7],[28,4],[-6,11],[-26,7],[-31,-15],[0,-11],[-8,-30],[1,-11],[-14,-7],[-20,-23],[-25,-34],[-17,-10],[6,26],[-12,3],[-2,8],[12,41],[-5,7],[-21,-15],[-11,17],[-48,-11],[-19,-17],[0,-20],[-21,-25],[2,-16],[-16,-12],[-23,-29],[-11,-30],[0,-13],[7,-7],[16,-1],[4,-13],[-27,-13],[-22,6],[-18,-17],[-8,11],[-24,-17],[-9,7],[1,10],[22,9],[-9,21],[-11,7],[-28,-3],[-11,14],[-19,0],[-9,-8],[1,-13],[-9,-15],[-14,12],[-26,-5],[-19,7],[-7,-2],[-3,-20],[-12,4],[-3,21],[-71,-4],[-14,-9],[-12,-15],[-16,-32],[-21,-19],[-15,-43],[-32,-37],[-15,-23],[-31,-60],[-20,-28],[-34,-41],[-8,-12],[-3,-22],[6,-9],[17,-2],[22,4],[-5,-41],[4,-17]],[[5462,7121],[1,33],[5,29],[16,-7],[9,18],[33,0],[23,39],[15,-2],[11,-19],[8,4]],[[5596,7084],[-21,-4],[-31,-76]],[[5544,7004],[-13,12],[-6,21],[-11,9],[-26,39],[-17,32],[-9,4]],[[5371,7288],[-26,-22],[-7,-13]],[[5338,7253],[-6,16],[5,24],[26,16],[8,-21]],[[5393,7239],[-8,-19],[-6,21],[-4,30],[8,8]],[[5383,7279],[5,-8],[-5,-11],[3,-24],[7,3]],[[5261,7078],[1,-54],[-8,-50],[-12,15],[0,23],[-6,19],[3,25],[11,15],[11,7]],[[5352,7161],[25,-29],[13,-65]],[[5390,7067],[-10,-17],[-2,9],[-6,-12],[7,-41],[7,-3],[2,-30],[-6,-10]],[[5382,6963],[-22,12],[-9,12],[-19,34]],[[5332,7021],[6,45],[1,44],[13,51]],[[5390,7067],[13,-30],[11,-18],[15,-9],[15,4],[5,-12],[-9,-17],[4,-7],[26,-23],[30,-36],[14,-36],[-4,-25],[-10,14],[-5,22],[-12,3],[-5,15],[-8,-1],[-9,-28],[-2,-29],[17,-20],[-2,-36],[-8,0],[-8,-14],[2,-19],[-7,-10],[-8,-28],[-11,5],[0,16],[8,23],[-3,6],[11,11],[-6,47],[-9,48],[-7,-8],[-15,19],[2,22],[-6,11],[-11,-8],[1,19],[-9,-6],[-8,31]],[[5415,6640],[-9,3],[-12,20],[-33,34],[-11,4],[-5,14],[10,25],[7,-4],[8,11],[13,-18],[27,7],[17,10],[2,-7],[-8,-30],[-2,-29],[5,-17],[-9,-23]],[[5761,7410],[6,-33],[-7,-42],[-24,-38],[-96,-57],[-11,-28]],[[5462,7121],[-8,9],[-8,-5],[-5,15],[-13,21],[-8,22],[11,-1],[-15,23],[-1,28],[-17,28]],[[5398,7261],[5,33],[8,6],[2,-27],[15,-4],[1,22],[18,-11],[-1,22],[4,19],[6,-3],[3,19],[-7,3],[6,15],[-2,22],[6,27],[-1,32],[5,7],[17,-1],[2,18],[-7,0],[-1,27],[4,37],[15,-11],[7,4],[11,51],[11,4]],[[5205,7148],[-24,-44],[-20,-9],[-11,6],[-10,16],[-18,1],[-9,10],[-17,-12],[-15,-31]],[[5081,7085],[-6,-11],[-12,-3],[-15,-14],[-8,9]],[[5040,7066],[-4,-1]],[[5036,7065],[-16,12],[-4,-11],[-21,2],[-7,10]],[[4988,7078],[57,218],[0,17],[-10,19],[-25,0],[-7,-19],[-23,0],[-15,19]],[[4965,7332],[-13,11],[-12,29],[4,14],[-16,20],[16,30]],[[4944,7436],[7,32],[-7,36],[-22,-7],[-8,21],[-13,-5],[-2,-8],[-11,3],[-21,-13]],[[4867,7495],[21,13],[11,-3],[2,8],[13,5],[8,-21],[12,7],[4,-6],[21,6],[-3,6],[0,34],[-9,21],[-1,13],[19,0],[2,-27],[4,5],[22,-8],[16,12],[-7,4],[3,12],[9,11],[21,13],[8,16],[1,43],[5,7]],[[5049,7666],[1,-49],[9,-13],[7,10],[8,-4],[6,-15],[16,-1],[10,8],[12,-11],[30,-13],[16,-36],[-9,0],[3,-18],[8,-4],[-4,-9],[5,-9],[-2,-22],[8,-4],[0,-24],[-8,2],[-4,-18],[-4,-46],[-1,-47],[-6,5],[-4,-15],[7,-16],[-5,-16],[7,-2],[6,-33],[31,-38],[-4,-23],[1,-31],[5,-5],[-2,-17],[12,6],[1,-10]],[[5052,7044],[0,0]],[[5037,7050],[0,0]],[[4931,7418],[0,0]],[[4878,7451],[0,0]],[[4879,7470],[1,-8]],[[4880,7462],[-1,8]],[[4879,7483],[-1,-7]],[[4878,7476],[1,7]],[[4927,6646],[-10,-6],[-41,-1],[-9,-17],[-12,-6],[-6,-24],[-7,-5],[-15,20],[-2,21],[-10,33]],[[4815,6661],[40,37],[34,-6],[38,-46]],[[4755,7013],[-2,9],[6,29],[-8,29],[-8,6],[-1,11],[7,16],[20,6],[2,19],[7,9],[9,-2],[14,-12],[19,1],[13,10],[13,-9],[20,-8],[27,-2],[12,-5],[11,13],[7,-1],[11,-15],[6,0]],[[4940,7008],[0,-24],[-4,-16],[7,-3],[3,-44],[-10,-17],[0,-11],[8,-11],[5,-16],[-5,-19],[5,-9],[0,-22],[-6,6],[0,-47],[6,-5],[0,-20],[5,-5],[0,-19],[-11,-6],[3,-14],[-6,-30],[6,-20]],[[4946,6656],[-9,-16],[-10,6]],[[4815,6661],[-16,15],[-8,-2]],[[5499,6053],[-1,155]],[[5498,6208],[27,-40],[11,3],[18,34],[4,17],[-5,47],[4,31],[8,19],[19,24],[17,14],[25,-7],[13,-18],[4,-24],[15,-5],[9,-10],[22,-2],[12,-34],[25,4],[45,-23],[4,-13],[17,-3],[20,-15],[12,22],[12,13],[24,17],[20,-6],[3,-15],[7,-12],[7,5],[13,-9],[7,13],[15,-12],[17,19],[9,28],[9,76],[3,3],[16,102],[10,22],[-4,23],[2,38],[-6,11],[7,30],[-5,22],[4,11]],[[5994,6608],[71,-83]],[[6065,6525],[-9,-40],[-23,-74],[-19,-174],[2,-99],[23,-142],[46,-168],[30,-107],[27,-117],[19,-51],[3,-68],[-31,-78],[-3,13],[-26,39],[-17,59],[-1,85],[-6,34],[-16,70],[-9,20],[-12,12],[-10,28],[0,36],[-15,62],[-10,29],[-24,95],[-9,24],[-10,2],[3,19],[6,71],[-3,9],[-6,-16],[-6,-37],[-6,-65],[-8,-3],[-20,55],[-4,32],[-6,15],[-9,47],[-6,-5],[-3,-17],[9,-56],[20,-62],[16,-98],[5,-15],[11,-56],[19,-85],[-74,-48],[-48,-6],[-40,27],[-54,229],[-55,59],[-104,5],[-103,39]],[[4939,6518],[19,13],[10,29],[20,17],[9,-9],[8,21],[16,26],[8,5],[41,8],[8,11],[14,-5],[11,13],[19,0],[20,-12],[25,13],[8,18],[17,-20],[10,18],[7,-2],[10,-19],[20,8],[22,28],[9,1],[11,-13],[4,-26],[8,3],[13,20],[-3,-30],[-12,-32],[3,-23],[11,-19],[3,-28],[-7,-32],[-8,-11],[-15,-41],[11,-32],[10,-12],[9,5],[3,-21],[25,-27],[12,-10],[18,4],[27,-8],[7,-16],[16,-7],[7,-14],[3,-27],[14,-37],[13,-9],[30,-12],[15,-17]],[[5499,6053],[-27,10],[-124,148],[-129,129],[-62,17],[-89,-11],[-99,-16],[-20,-2]],[[6034,6951],[39,-8],[20,10],[18,-8],[10,1],[25,23],[6,11]],[[6152,6980],[-20,-63],[-16,-15],[-39,-15],[-29,10],[-14,54]],[[5996,6643],[-18,-28],[-16,19],[-5,-2],[-20,-35],[-16,-12],[-15,2],[-8,9],[-12,27],[-15,15],[-13,6],[-9,-2],[-3,-42],[-23,-7],[-10,6],[-8,38]],[[5805,6637],[44,79],[4,136],[35,0],[70,91],[4,69]],[[5962,7012],[10,12],[2,-17],[9,-13],[15,4],[6,-24],[6,-8],[12,3],[12,-18]],[[6152,6980],[-8,-86],[-57,-117],[-74,-91],[8,-27],[-25,-16]],[[6328,7066],[4,-2],[15,-48],[10,-18],[10,-28],[3,-25],[13,-27],[11,-1],[7,-22],[-12,6],[-13,-12],[-8,-84],[-4,12],[-8,-63],[-3,-42],[3,-16],[18,-16],[15,-5],[6,-23],[9,-15],[24,-17],[10,-2],[37,15],[19,3],[7,19],[-5,78],[2,40],[3,23]],[[6501,6796],[44,84],[31,95],[91,72]],[[6841,5827],[-15,-13],[-37,-10],[-10,16],[-12,-4],[-6,-13],[-27,0],[-31,-10],[-13,5],[-11,15],[-32,3],[-8,-2],[-8,16],[-23,0],[-3,8],[-15,11],[-9,48],[-4,37],[-10,10],[-15,0],[-13,-11],[-22,-41],[-16,22],[-12,4],[-7,11],[-13,11],[-14,38],[-12,14],[-10,4],[-7,15],[-16,71],[-2,28],[-16,48],[-12,-5],[-11,7],[-2,27],[-8,-6],[-6,-28],[-23,-8],[3,-29],[-11,-16],[5,-6],[9,6],[13,-85],[7,-41],[8,1],[1,-12],[10,-26],[11,-6],[6,-14],[-6,-18],[4,-13],[-4,-26],[6,-30],[7,-5],[6,-43],[0,-14],[10,-18],[-3,60],[6,50],[8,6],[6,-31],[0,-57],[-8,-39],[8,-20],[-20,-9],[-62,131],[-126,336],[-113,294],[-46,54]],[[5994,6608],[8,14],[-6,21]],[[6152,6980],[82,43],[23,30]],[[6257,7053],[6,8],[10,-6],[55,11]],[[6152,6980],[5,26],[-1,24],[-6,48],[-8,17]],[[6142,7095],[67,-14],[48,-28]],[[7610,8098],[-111,-493]],[[6501,6796],[-11,31],[-13,6],[3,12],[14,-6],[-8,21],[5,15],[-20,-4],[-4,39],[6,42],[6,-21],[10,-1],[4,9],[2,-17],[11,7],[5,-5],[-1,17],[12,-1],[-2,19],[-16,24],[-5,45],[-7,3],[-19,-8],[-3,-19],[0,-28],[-7,11],[-5,39],[9,42],[-7,13],[-14,0],[-9,25],[-9,-1],[1,16],[-8,24],[-6,35],[-16,7],[-1,19],[15,5],[12,-11],[7,6],[-13,23],[7,13],[4,23],[31,2],[18,-5],[-12,13],[0,9],[9,23],[3,26],[-4,13],[4,13],[-2,14],[-18,8],[-11,-10],[-10,12],[-12,6],[-20,-13],[-19,-25],[-12,-2],[-13,-29],[-6,-4],[-15,-23],[-12,-6],[-5,5],[-4,-21],[-10,-43],[-9,-13],[0,-17],[13,-19],[7,-25],[0,-60],[6,-11],[1,-17]],[[6142,7095],[-25,18],[-36,68],[-23,20],[-6,16],[-12,-1],[-14,38],[20,9],[1,17],[8,31],[13,5],[-6,17],[-14,21],[18,8],[25,26],[-4,14],[-48,-14],[-6,-13],[-38,-17],[-12,-12],[-5,10],[-9,-26],[-23,-1],[-7,-5],[33,-42],[1,-20],[7,-1],[15,9],[19,-4],[-7,-21],[-11,-5],[-14,4],[-9,-16],[-19,-8],[-10,-19],[-17,8],[5,24],[-5,23],[-11,9],[-14,5],[11,16],[21,19],[-3,15],[-28,-1],[-9,3],[-8,18],[8,13],[-7,20],[-5,-12],[-26,-9],[-21,-52],[-13,-8],[-3,-16],[6,-19]],[[7739,4248],[-4,-32],[4,-33],[29,-90],[-8,-104]],[[7760,3989],[-8,10],[-11,83],[-3,25],[-17,29],[-11,10],[-2,35],[-7,29],[-15,41],[-9,-4],[-23,64],[-7,31],[-4,32],[8,12],[8,-7],[12,-24],[16,-6],[17,9],[16,-48],[6,-10],[-1,-23],[14,-29]],[[8033,3476],[-3,-53]],[[8030,3423],[-14,3],[-12,-11],[-12,5],[-10,16],[-25,4],[-4,5],[6,20],[-18,17],[-20,5],[-1,6],[13,1],[2,22],[7,31],[16,-6],[3,-14],[7,3],[2,17],[11,-9],[12,-22],[11,7],[8,-23],[3,-17],[18,-7]],[[8082,4072],[8,-32]],[[8090,4040],[-18,-45],[2,-56],[18,-55]],[[8092,3884],[-34,-124]],[[8058,3760],[-1,43],[-4,61],[-4,25],[-17,31],[7,12],[-10,22],[2,24],[-8,29],[-1,35],[4,32],[9,45],[12,-19],[16,-7],[19,-21]],[[7739,4248],[34,-55],[0,-24],[7,-2],[10,-31],[11,-17],[-1,21],[6,-6],[12,-39],[11,-8],[7,-36],[10,-23],[21,-12],[13,-32],[-1,-9],[-12,-40],[4,-17],[10,-16],[10,-1],[5,-16],[2,-39],[6,-18],[7,-1],[-6,-30],[2,-7],[9,15],[12,-10],[5,-22],[9,-22],[-6,-65],[2,-45],[0,-45],[-4,-42],[-13,28],[-4,-24],[-13,20],[-3,-3],[5,-24],[-2,-7],[-29,77],[-30,60],[-9,41],[-13,21],[-9,22],[-14,49],[-5,51],[-19,82],[-16,42]],[[7737,4581],[32,72]],[[7769,4653],[5,-14],[-1,-26],[8,-13],[4,-46],[2,-33],[7,-33],[26,-17],[4,-20],[11,-24],[7,-3],[13,-39],[15,-54],[1,-45],[-2,-28],[0,-56],[4,-29],[10,-33],[10,-56],[-16,4],[-5,-5],[-20,36],[-22,33],[-16,32],[-2,32],[-5,23],[-12,26],[-1,47],[-6,34],[-7,84],[2,25],[-7,-1],[-8,14],[-1,26],[-5,20],[-5,-2],[-7,40],[-13,29]],[[7959,3753],[-15,21],[-6,37],[-6,13],[-11,6],[7,29],[6,-17],[6,23],[5,-41],[8,-27],[9,-10],[-5,-15],[2,-19]],[[8220,3752],[-4,-25],[-7,-19],[-27,-36],[-6,50],[-7,19],[-14,-19],[-4,16],[-9,10],[-10,20],[-6,-32],[-9,1],[-14,-18],[0,28],[-4,34],[-4,-13],[-18,-14],[-4,13],[-15,-7]],[[8092,3884],[41,-37],[27,0],[23,16]],[[8183,3863],[37,-111]],[[8033,3476],[23,-2],[10,6],[2,21],[9,9],[7,-22],[34,-13],[7,-17],[-1,-15],[5,-18],[11,-12],[14,-2],[10,6],[9,-14],[-5,-30],[7,-25],[-35,31],[-18,-10],[-46,12],[-20,24],[-26,18]],[[8275,3365],[-7,20],[8,8],[5,-13],[20,-10],[3,-29],[-19,-4],[-2,14],[-10,-16],[-24,-16],[-9,9],[0,26],[8,12],[15,-6],[9,-14],[7,14],[-4,5]],[[8196,3348],[-16,24],[-1,8],[17,7],[12,-16],[-12,-23]],[[8082,4072],[4,3],[-6,17],[13,79],[7,9],[31,21],[6,10],[6,34],[7,10],[11,36],[9,18],[8,4],[9,31],[3,-10],[14,2],[1,17],[-6,12],[3,13],[12,1],[1,19],[16,45],[7,39],[8,-18],[4,14],[4,-17],[9,-16],[1,-11],[-5,-32],[14,8],[-3,-23],[17,4],[19,-34],[-10,-18],[-16,1],[-3,-18],[11,-23],[-8,-16],[-14,-7],[2,-30],[-17,-9],[8,-35],[13,-52],[-3,-29],[6,-23],[16,-31],[7,-24],[-15,-5],[-10,8],[-9,-19],[-6,-54],[3,-35],[-2,-28],[-9,5],[-13,-31],[-5,-21],[-9,-20],[5,-12],[3,-23],[-8,-2],[5,-18],[-8,-36]],[[8183,3863],[39,134],[11,85],[-5,49],[-25,75],[-21,30],[-23,-30],[-35,-60],[-34,-106]],[[8324,3982],[6,40],[9,18],[5,-11],[1,-18],[-9,-14],[-5,-24],[-1,-39],[6,-22],[8,-137],[-7,-14],[3,-42],[-4,-54],[5,-29],[-5,-31],[3,-26],[-21,-16],[-5,28],[4,26],[2,63],[-1,28],[-7,17],[-12,-7],[-3,55],[14,53],[2,15],[-2,39],[6,38],[5,2],[0,28],[3,34]],[[7783,5458],[6,-26],[34,-27]],[[7775,4942],[3,-19],[-6,-34],[2,-32],[-20,-115],[-3,-43],[2,-38],[5,-15],[11,7]],[[7737,4581],[-7,-8],[-4,32],[2,24],[11,85],[-6,7],[0,26],[5,22],[4,41],[4,15],[-7,1],[1,29],[-2,49],[-3,27],[-8,39],[-10,70],[-3,29],[-4,104]],[[4912,7949],[-12,7],[-15,-12],[-9,7],[-4,-12],[-14,7],[1,11],[12,35],[-8,17],[8,18],[-2,16],[-12,-17],[-12,-11],[-2,14],[10,44],[-8,8],[-7,-19],[-6,6],[11,38],[-3,18],[8,10],[-9,17],[6,11],[14,-2],[-8,25],[12,5],[-6,17],[6,12],[11,-12],[19,8],[19,1],[0,-18],[-28,-32],[0,-20],[36,-1],[20,2],[5,-12],[-5,-28],[-15,-40],[-13,-9],[12,-12],[-16,-14],[-17,0],[5,-7],[16,-3],[11,8],[14,-10]],[[4937,8020],[-25,-71]],[[4841,7985],[0,22],[6,-14],[-6,-8]],[[4988,7078],[-5,-4],[-9,11]],[[4946,7115],[10,16],[7,75],[1,41],[3,27],[9,-13],[-11,27],[5,23],[-5,21]],[[4937,8020],[15,-26],[4,-39],[5,-17],[14,-10],[16,-37],[0,-33],[11,-14],[5,-18],[-7,-25],[9,-6],[11,14],[18,-6],[6,-12],[2,-24],[-5,-21],[-13,-15],[-9,-19],[-12,-7],[30,-8],[0,-16],[-19,-14],[-13,-15],[-15,7],[-14,-7],[-7,7],[-27,-9],[1,-9],[-14,0],[-12,11],[-15,-8],[-1,-18],[-9,-12],[-10,14],[-20,-13],[-9,-18],[-14,12],[15,16],[6,15],[12,16],[1,16],[8,13],[12,4],[21,-4],[9,33],[-12,-12],[-9,-1],[-18,16],[-23,2],[-7,11],[5,11],[21,14],[5,12],[-1,33],[-13,0],[9,19],[10,8],[29,5],[-4,18],[4,47],[-10,-2],[-9,20],[12,30]],[[4827,7886],[-6,-5],[7,-33],[4,-39],[-10,-49],[-14,-1],[-2,-7],[-22,-6],[-22,-30],[-19,-10],[-16,-3],[-1,27],[-10,-3],[-2,15],[9,9],[-15,0],[1,8],[16,-1],[4,21],[15,5],[2,9],[-14,-3],[9,35],[11,3],[-20,13],[-15,3],[1,14],[9,4],[3,18],[-13,2],[0,16],[8,14],[36,-9],[-3,12],[11,9],[2,11],[-17,0],[9,8],[5,25],[16,11],[7,-14],[24,11],[17,-8],[7,-26],[3,-30],[-7,-21],[-8,-5]],[[5393,7882],[-9,-6],[-2,16],[11,-10]],[[5401,7880],[0,0]],[[5246,7905],[5,9],[17,-12],[13,11]],[[5281,7913],[14,-6],[11,4],[-1,-15],[-8,-10],[19,-7],[5,12],[13,5],[17,16],[8,2],[14,-23],[6,4],[3,-22],[18,-14],[1,21]],[[5401,7880],[24,14],[16,4],[16,21],[33,19]],[[5398,7261],[-5,-22]],[[5383,7279],[-4,10],[-8,-1]],[[5338,7253],[9,-24],[-7,-15],[2,-27],[10,-26]],[[5332,7021],[-13,27],[-11,13],[-10,21],[-7,28],[-6,34],[-10,29],[-28,24],[-7,-1],[-19,-33],[-16,-15]],[[5049,7666],[18,9],[16,19],[19,1],[-5,19],[21,35],[10,50],[11,7],[6,-17],[-6,-5],[-2,-20],[15,-7],[7,11],[-4,15],[2,15],[-10,3],[2,25],[16,15],[22,4],[6,-6],[6,20],[22,4],[6,-23],[0,15],[9,-6],[1,25],[16,0],[-7,5],[0,26]],[[4596,6012],[11,25],[9,47],[8,28],[3,-25],[-10,-15],[-3,-49],[-18,-11]],[[4567,6021],[5,2],[5,-22],[-10,-12],[-9,12],[9,20]],[[4519,6029],[12,3],[22,15],[-16,-35],[-19,-2],[1,19]],[[8626,6223],[5,37],[-5,3],[-9,-36],[-5,14],[4,25],[-4,30],[11,22],[1,20],[-7,26],[-4,1],[-7,-25],[-14,41],[5,10],[18,3],[7,25],[12,0],[3,-13],[9,-8],[8,7],[3,-13],[-7,-14],[11,-30],[-7,-19],[-5,-25],[-2,-42],[-10,-23],[-6,-22],[-5,6]],[[8813,6690],[1,-11],[-9,-17],[1,-27],[35,39],[11,18],[4,20],[10,14],[8,36],[7,19],[8,58],[-6,29],[5,16],[-2,34],[15,29],[5,-18],[14,10],[-2,17],[-8,11],[8,13],[10,-12],[1,-55],[6,-14],[8,-47],[-3,-39],[-8,-25],[-2,-26],[-12,-12],[-6,-24],[3,-47],[0,-23],[-9,-24],[-3,-47],[8,-21],[-12,-20],[-2,-27],[-14,-14],[-1,9],[6,39],[-9,-4],[-7,-20],[-10,-11],[-1,-24],[-8,-3],[-2,25],[-6,-6],[-8,-28],[-11,2],[-14,-5],[-6,18],[-9,10],[-6,-25],[11,-19],[-20,-19],[-12,-47],[-19,25],[-3,32],[10,24],[-3,11],[-8,-6],[-14,7],[-17,-18],[-6,4],[-31,-22],[-8,11],[-5,-14],[0,-21],[-17,10],[-17,2],[3,20],[12,3],[10,16],[27,63],[9,5],[1,-14],[22,12],[26,8],[11,8],[6,-23],[16,20],[1,27],[19,50],[0,37],[4,10],[14,8]],[[8682,6344],[-7,34],[-6,17],[9,12],[10,29],[5,-9],[13,7],[10,21],[6,1],[14,-13],[0,-26],[-15,-36],[-7,16],[-6,1],[-10,-12],[-7,-40],[-9,-2]],[[5550,9000],[9,28],[6,-3],[-5,-28],[10,14],[5,19],[11,3],[8,14],[14,-15],[11,30],[12,-4],[13,-16],[8,24],[9,15],[11,-1],[10,20],[23,11],[12,0],[-17,-25],[-4,-30],[5,-2],[9,19],[19,30],[9,9],[1,-38],[14,14],[11,28],[19,4],[3,-5],[-9,-17],[-3,-21],[11,-4],[3,14],[11,22],[6,-1],[21,-18],[20,-5],[9,-17],[-15,-13],[-43,1],[23,-22],[5,-10],[28,4],[17,-6],[20,16],[4,-18],[11,-16],[19,-6],[1,-19],[9,10],[50,-4],[50,-26],[12,-12],[28,-35],[34,-15],[25,-20],[5,-9],[1,-24],[6,-20],[-11,-27],[-24,-26],[-22,-12],[-32,-2],[-63,18],[-45,27],[-20,5],[-12,21],[-10,4],[-12,-3],[15,-25],[20,-25],[30,-22],[5,-15],[-3,-23],[-9,-6]],[[5756,8565],[-114,31],[37,62],[13,13],[11,-1],[-5,20],[3,25],[-4,8],[-14,4],[-11,14],[-10,1],[-18,-8],[-16,18],[-12,-16],[-7,-19],[-12,-6],[-7,-11],[6,-14],[-15,-22],[12,-24],[-14,-26]],[[5579,8614],[-100,13]],[[3292,5113],[5,-4],[-2,-27],[-3,31]],[[3289,4860],[0,0]],[[3307,5049],[3,-19],[-6,-1],[-5,25],[8,-5]],[[3305,4996],[0,0]],[[3293,4894],[0,0]],[[3289,4872],[0,0]],[[3294,4888],[0,0]],[[3297,4904],[0,0]],[[3299,4923],[0,0]],[[3298,4943],[0,0]],[[3109,8745],[6,-15],[14,-3],[14,-46],[7,-14],[11,9],[15,-21],[17,-13],[-8,-4],[1,-13],[23,-31],[1,-37],[-16,38],[-7,8],[1,-17],[13,-41],[0,-10],[-11,4],[11,-37],[-15,16],[-11,22],[-22,5],[-18,22],[-18,31],[3,-26],[-23,21],[-11,1],[12,-30],[10,-14],[23,-21],[16,-21],[10,-18],[11,-38],[-23,11],[-35,23],[-18,4],[-13,8],[-12,21],[-14,4],[-34,21],[-9,11],[10,26],[-17,17],[-14,4],[-10,11],[-11,24],[-1,17],[-14,2],[-16,11],[-8,1],[3,-24],[-7,-3],[-21,11],[-14,-21],[-16,-2],[-34,11],[-10,9],[2,23],[5,12],[13,5],[1,23],[19,-3],[24,-10],[12,-21],[0,25],[20,5],[16,9],[16,-3],[2,9],[-14,26],[-10,12],[1,13],[22,16],[150,-45]],[[2821,8233],[11,17],[10,42],[13,12],[-8,49],[3,20],[-22,3],[14,30],[6,27],[-11,16],[-4,26],[4,13],[14,17],[10,-2],[36,-20],[27,-3],[30,16],[19,-16],[34,-45],[-3,-13],[26,-24],[24,-11],[14,7],[4,-22],[-7,-12],[-2,-14],[11,-80],[-4,-17],[-10,1],[-2,-22],[5,-9],[14,13],[18,3],[13,-22],[3,-23],[6,6],[27,10],[9,31],[7,-5],[8,-23],[6,46],[13,21],[-8,16],[3,15],[12,3],[9,26],[9,-12],[17,-36],[7,-26],[17,-36],[-3,-21],[7,1],[6,-30],[-387,-101],[-3,51],[-6,28],[-17,32],[-26,32],[-3,15]],[[3213,7621],[-1,1],[52,304],[-3,4]],[[3261,7930],[-6,8],[27,112],[11,-5],[27,-36],[3,-17],[-6,-26],[6,-2],[19,8],[9,-5],[22,-22],[31,-14],[-2,-9],[-18,-13],[-19,-10],[-15,-20],[-13,-2],[-8,-11],[-3,-30],[30,18],[15,25],[15,16],[15,3],[12,-19],[-5,-14],[5,-14],[13,13],[21,-22],[3,-14],[-9,-40],[13,-30],[-37,-51],[-43,-8],[-17,-39],[-16,-24],[-12,-7],[-42,-10],[-43,6],[-31,-4]],[[2836,3758],[-14,14],[-5,57],[20,33],[17,-31],[0,-47],[-18,-26]],[[8953,3194],[8,-13],[3,-17],[2,-43],[10,-15],[-5,-30],[8,-11],[4,-28],[1,-42],[8,-58],[9,-9],[9,16],[4,-22],[18,-27],[1,-45],[3,-25],[0,-35],[15,-51],[4,-48],[-2,-28],[11,-60],[21,-31],[9,-4],[5,-21],[16,-23],[15,-2],[-4,-33],[4,-14],[11,-15],[12,-99],[13,-22],[-2,29],[19,-21],[4,-14],[1,-57],[11,-25],[15,-15],[9,-42],[7,-6],[6,-39],[10,-20],[5,-43],[0,-56],[-3,-24],[12,-57],[3,-52],[-4,-23],[-4,-54],[-8,-57],[1,-52],[-4,-26],[-8,-31],[-2,-22],[-8,-27],[-11,-9],[-11,-37],[-4,-50],[-11,-37],[-2,-39],[-15,-32],[-6,-67],[-1,-52],[-3,-21],[-10,-21],[-34,-7],[-7,-5],[-34,-54],[-14,-4],[6,-21],[-27,33],[-1,21],[-15,27],[-15,-13],[9,-15],[-12,-8],[-27,-30],[-18,22],[-22,18],[-10,-8],[-9,6],[-16,21],[-18,38],[-5,28],[1,34],[-3,29],[-8,24],[-3,31],[-6,1],[-10,-13],[-12,-6],[-4,8],[6,15],[4,45],[-13,41],[-6,-24],[-5,-46],[-21,-11],[5,29],[8,-1],[4,13],[-1,33],[10,42],[1,26],[5,5],[2,18],[-8,33],[-2,-23],[-10,-18],[-10,-47],[-10,-7],[-17,-35],[-11,-48],[-5,11],[-5,43],[-6,29],[-8,26],[-6,31],[-12,1],[-3,16],[4,21],[-11,29],[-20,0],[-12,18],[-9,-5],[-10,7],[-20,31],[-12,-7],[-46,-5],[-16,-11],[-13,-14],[-25,-17],[-33,-4],[-12,-9],[-22,-28],[-17,-14],[-17,-56],[-7,-9],[-17,1],[-16,-11],[-12,16],[-9,-1],[-32,-11],[-14,0],[-12,-33],[-18,-2],[-13,-35],[-19,-12],[-27,5],[-17,18],[-9,22],[-16,15],[-2,49],[12,-1],[7,29],[3,44],[-1,40],[-5,39],[-14,62],[-4,48],[0,32],[-8,58],[-18,63],[1,29],[-11,54],[-13,33],[-1,26],[9,-37],[9,-7],[-5,38],[-8,23],[1,10],[9,-27],[7,-32],[5,-2],[-1,18],[4,19],[-16,60],[-5,23],[-2,43],[9,36],[2,22],[-4,66],[8,38],[5,-41],[6,3],[5,34],[24,36],[22,44],[8,11],[33,6],[10,20],[18,7],[7,23],[8,2],[10,-7],[20,11],[18,22],[14,40],[5,30],[18,34],[-4,61],[14,36],[5,23],[7,-20],[11,-52],[3,34],[9,-10],[1,24],[-9,16],[1,22],[11,-2],[8,-8],[12,2],[-10,17],[2,44],[8,13],[9,-12],[4,43],[0,17],[9,10],[10,-2],[7,36],[5,9],[7,-20],[9,41],[9,-20],[10,-10],[12,-36],[3,-49],[10,35],[21,-7],[12,-21],[6,33],[-11,24],[-1,13],[10,21],[0,15],[14,33],[-1,15],[6,28],[14,10],[-3,13],[9,15],[10,-12],[24,5],[10,12],[-4,30],[-16,27],[9,6],[8,-17],[8,0],[17,-30],[24,-13],[10,5],[4,-20],[7,-3],[7,14],[14,-13],[4,-15],[6,4],[4,29],[12,-24],[-6,-13],[-5,-43],[-6,-1],[-12,-18],[4,-30],[-2,-22],[-12,-35],[-2,-15],[7,-20],[13,-20],[16,-42],[11,0],[19,-27],[14,-32],[19,-11],[8,-32],[16,-24],[12,-2],[15,17],[9,44],[5,36],[3,43],[9,46],[-7,34],[5,46],[-4,22],[2,55],[9,25],[-6,17],[7,38],[5,57],[6,18]],[[9074,821],[-20,23],[-7,12],[-15,55],[11,-8],[-1,17],[-17,46],[-6,40],[-1,22],[34,-21],[13,-12],[10,1],[15,11],[9,-1],[13,17],[6,-12],[1,-52],[-9,-49],[-5,-34],[-12,-9],[-7,-13],[-8,-31],[-4,-2]],[[2740,5655],[0,-70]],[[2740,5585],[-12,4],[-11,12],[14,10],[-10,14],[-23,-5],[-15,-30],[-12,-1],[-10,-27],[-14,-4],[9,20],[-2,20],[5,15],[16,20],[20,15],[25,8],[20,-1]],[[3250,5250],[0,0]],[[3281,5220],[0,0]],[[3282,5255],[0,0]],[[3058,5394],[11,-22],[24,-24],[7,-21],[-8,-28],[-9,23],[-27,-1],[-9,-17],[-11,19],[-10,-13],[-10,-46],[-16,40],[-26,-2],[-15,6],[-11,-15],[-14,19],[2,23],[43,-13],[12,11],[-11,20],[1,33],[-8,14],[-11,5],[-3,13],[15,8],[30,-16],[8,12],[9,-4],[10,7],[4,-11],[12,-10],[8,3],[3,-13]],[[3173,5314],[-6,-27],[-13,1],[-13,-8],[-7,4]],[[3134,5284],[0,25]],[[3134,5309],[-1,8]],[[3133,5317],[4,7],[31,-5],[5,-5]],[[2839,5322],[17,-8],[21,-20],[-1,-18],[-10,9],[-13,-14],[-13,9],[-16,30],[15,12]],[[3272,5199],[0,0]],[[3250,5305],[0,0]],[[3260,5222],[0,0]],[[3259,5231],[0,0]],[[3202,5267],[0,0]],[[3200,5309],[0,0]],[[3194,5310],[0,0]],[[3297,5132],[0,0]],[[3303,5163],[0,0]],[[3298,5163],[-9,-8],[-3,-18],[-3,21],[6,2],[4,17],[5,-14]],[[3253,5279],[0,0]],[[3246,5290],[0,0]],[[2740,5655],[17,-7],[27,-19],[12,-26],[32,-20],[19,-26],[4,-18],[49,-36],[-2,-24],[17,1],[6,-5],[18,-32],[-15,-5],[-22,-15],[-24,8],[-30,-11],[-6,3],[14,32],[2,13],[-5,13],[-24,8],[-8,11],[-2,24],[-6,23],[-18,-1],[-10,5],[-29,31],[-16,3]],[[1110,8503],[-31,-192]],[[1079,8311],[-6,4],[-2,14],[-27,-5],[-19,4],[-27,-2],[-9,3],[-12,17],[-5,17],[-14,-13],[-11,10],[-3,11],[-16,12],[-19,8],[-19,19],[-15,-10],[1,-14],[-11,-24],[14,-9],[1,-23],[-5,-14],[-23,9],[-7,-3],[-12,-20],[-14,-7],[-24,-29],[-14,-4],[3,14],[9,13],[-9,33],[10,19],[7,29],[20,18],[28,-3],[3,5],[-27,28],[-13,-2],[-16,-24],[-24,-22],[-10,-19],[-9,-8],[0,-28],[-7,-11],[-16,-7],[-16,-29],[5,-15],[18,-11],[-6,-17],[-15,-16],[-12,-25],[-26,-13],[-9,-13],[-21,-23],[5,-22],[-14,-13],[-21,-11],[-22,-23],[-5,-19],[-10,-14],[-30,-14],[-12,12],[4,17],[9,9],[10,19],[14,14],[18,-2],[-1,23],[27,38],[3,49],[9,16],[3,26],[-24,-10],[-8,1],[-6,19],[-11,-9],[1,-30],[-7,2],[-19,33],[-17,5],[-12,-3],[-8,-16],[-14,-5],[-8,3],[-4,41],[4,17],[-2,14],[-11,33],[-32,-24],[-13,-3],[-16,30],[-13,15],[-2,9],[8,20],[25,-15],[12,7],[-11,24],[-18,-7],[-24,23],[-13,1],[-8,34],[9,6],[1,15],[7,7],[4,21],[11,16],[15,38],[5,6],[28,-16],[9,5],[14,22],[15,9],[22,2],[4,6],[1,25],[301,-48],[151,-9],[129,-51]],[[1110,8503],[14,-6],[197,6],[208,169],[188,-153],[192,-301]],[[1909,8218],[-312,-312]],[[1597,7906],[-90,-80]],[[1507,7826],[-59,-52]],[[1448,7774],[-5,6],[-1,32],[-10,0],[-12,35],[2,25],[-7,-2],[-11,-16],[-15,30],[-9,44],[13,32],[-4,22],[-2,-14],[-13,-13],[-7,11],[2,29],[-13,41],[-16,-2],[-14,-11],[-1,20],[5,16],[-21,48],[-15,15],[2,11],[-8,26],[4,8],[-10,11],[-8,17],[-19,24],[-9,44],[-9,12],[-1,-27],[6,-43],[-13,7],[-11,31],[-7,-4],[-15,7],[16,-23],[0,-7],[-20,-6],[-14,12],[-24,40],[-21,8],[-16,18],[12,8],[-6,20],[-16,-10],[-28,5]],[[3213,7621],[-35,5],[-22,-4],[-13,-16],[-13,-48],[-28,-14],[-13,-19],[-20,-37],[-30,-74],[-12,-50]],[[3027,7364],[-3,-8],[-33,-25],[-267,189],[-86,14],[-77,60],[-205,3],[-11,2]],[[2345,7599],[-93,17],[-174,89],[-258,39]],[[1820,7744],[-16,2],[-207,160]],[[1909,8218],[253,-97],[232,-25],[30,-2],[39,24],[24,-2],[20,-15],[27,-14],[24,-30],[12,-30],[44,-22],[20,-20],[19,-12],[25,4],[33,-12],[5,-6],[-5,-51],[6,-20],[-1,-47],[-4,-26],[14,-20],[3,-11],[0,-28],[12,-3],[12,-16],[9,-19],[5,-24],[8,-1],[21,-33],[-7,31],[9,24],[12,-32],[4,30],[-3,15],[7,17],[1,18],[-7,35],[127,13],[88,164],[149,5],[77,-39],[8,-11]],[[3169,2659],[35,109],[13,152]],[[3217,2920],[109,64],[198,-33]],[[3524,2951],[129,-686],[-28,-58],[-10,-162],[29,-121],[-4,-17],[-17,-33],[-10,-34],[-15,-80],[-10,-33],[-18,-46],[4,27],[13,37],[8,38],[-1,8],[-10,-4],[-7,7],[-6,-54],[-5,-16],[-12,-23],[-3,-14]],[[3551,1687],[-39,22],[-22,61],[-83,66],[-173,-25],[-109,-118]],[[3125,1693],[-50,167]],[[3075,1860],[34,209]],[[3110,2100],[25,73],[29,354],[5,132]],[[3947,3665],[0,0]],[[3947,3665],[0,0]],[[3077,10],[-13,11],[-29,-11],[3,31],[11,5],[18,-2],[6,-10],[8,0],[-7,22],[-16,11],[-7,24],[20,19],[-2,15],[-23,-9],[-4,7],[5,20],[14,17],[11,21],[5,-9],[14,-2],[11,-16],[-11,-21],[4,-9],[12,-1],[8,-24],[24,-46],[16,-20],[14,-7],[18,-1],[-3,-14],[-35,-11],[-15,12],[-34,4],[-23,-6]],[[2946,840],[-10,14],[4,36],[-1,30],[5,24],[10,4],[5,-22],[-10,-21],[6,-26],[-4,-43],[-5,4]],[[2964,153],[1,28],[-10,-3],[1,24],[20,0],[0,-27],[-6,-28],[-6,6]],[[3080,269],[8,-40],[11,-36],[-16,-2],[-7,10],[-18,-24],[-14,-3],[-9,-10],[-5,-31],[-2,-43],[-13,-4],[-12,13],[20,53],[-8,10],[-17,-17],[-19,-5],[-1,17],[31,18],[-8,6],[-17,0],[3,29],[-10,17],[-8,-12],[-8,5],[4,23],[-9,-6],[-8,17],[6,15],[-17,26],[10,6],[10,34],[-15,-3],[-3,22],[7,13],[-9,26],[10,15],[-2,14],[-8,-14],[-2,49],[5,20],[-2,34],[22,-11],[2,13],[-11,15],[-11,-5],[-11,4],[6,36],[7,-1],[3,19],[-14,17],[-15,2],[0,16],[-12,-5],[0,8],[16,20],[8,26],[11,2],[4,-18],[-12,-15],[1,-17],[13,14],[0,-27],[11,33],[3,43],[4,14],[8,7],[-8,7],[0,14],[18,24],[3,23],[-14,18],[3,35],[-1,27],[13,19],[-5,19],[-1,26],[9,10],[-1,20],[-8,9],[4,21],[-4,5]],[[2979,978],[19,72]],[[2998,1050],[41,-2],[-29,-189],[-16,-202],[4,-201],[16,-169],[9,-33],[57,15]],[[3110,2100],[6,258]],[[3129,2595],[21,3],[19,61]],[[3125,1693],[-4,-138],[-50,-260],[-58,-184],[-15,-61]],[[2979,978],[-4,1],[-8,-16],[-12,4],[-7,40],[-1,22],[4,43],[16,49],[-7,68],[0,53],[-7,29],[3,16],[6,-3],[6,12],[14,109],[13,50],[6,51],[9,39],[-3,37],[9,32],[-3,41],[41,109],[18,75],[3,21]],[[3217,2920],[-135,467],[-31,181],[104,635],[104,80],[114,-12],[75,-165],[2,-60],[-61,-106],[-13,-122],[59,-148],[60,-22],[142,-8],[77,86],[-190,-775]],[[3947,3665],[0,0]],[[3635,3870],[-6,-6],[-31,-2],[-5,30],[4,72],[8,5],[24,-7],[6,7],[20,-14],[-4,-18],[-2,-30],[-7,-27],[-7,-10]],[[3167,4575],[-131,27],[-14,52],[4,8],[-1,38],[-11,53],[-2,22],[13,12],[37,30],[-5,19],[-7,-3],[-4,18],[10,17],[10,-50],[26,-12],[8,-26],[2,-21],[9,-13],[42,9],[9,-4],[5,-15],[17,-19],[13,-1],[10,9],[13,27],[38,9],[15,-5],[-5,-11],[-16,1],[0,-13],[15,-26],[2,-21],[6,22],[15,-12],[4,-11],[17,-23],[-9,-16],[-5,-29],[-11,-11],[-12,2],[-26,-23],[-81,-10]],[[3343,4948],[6,-13],[-5,-6],[-1,19]],[[3134,5284],[0,25]],[[3133,5317],[4,7],[31,-5],[5,-5]],[[3551,1687],[-6,-67],[-15,-55],[-15,-34],[-10,-36],[-7,-18],[-16,-20],[-10,-3],[-11,11],[-26,-13],[-11,22],[-17,13],[-13,-6],[-15,27],[-5,-27],[12,-27],[17,-18],[7,-16],[-5,-40],[3,-20],[14,-20],[3,-29],[-14,-46],[-9,-25],[-8,-33],[-24,-23],[-24,-13],[-51,-11],[-26,11],[-1,-33],[8,-16],[-11,-46],[0,-13],[5,-31],[-19,-24],[-25,-2],[-30,24],[-6,-11],[0,-19],[6,-22],[-2,-47],[10,-17],[15,4],[-5,13],[15,7],[4,-44],[-11,-10],[-6,17],[-13,-3],[-11,-9],[2,-7],[19,-11],[-20,-22],[-7,-20],[1,-47],[-11,-27],[6,-19],[-27,-9],[-16,-21],[-14,-44],[1,-25],[3,-19],[19,-36],[25,-15],[1,-9],[-3,-37],[-7,-20],[-33,-43],[-8,-23],[-4,-24],[2,-17],[-6,-25],[-24,-23],[-9,-20],[-4,-42],[2,-15]],[[1317,8020],[-3,-12],[4,-14],[10,-12],[0,-32],[-23,38],[-7,18],[0,15],[-7,28],[25,-23],[1,-6]],[[1507,7826],[27,-49],[119,-253],[5,-337],[-5,-53]],[[1653,7134],[-24,-280],[5,-59]],[[1634,6795],[-69,0],[-7,39],[2,14],[-6,27],[-9,25],[0,31],[5,32],[1,27],[-3,26],[-8,48],[-2,30],[9,24],[5,23],[-6,30],[7,70],[3,52],[-2,38],[-3,4],[0,43],[-4,38],[-12,47],[2,20],[24,-14],[15,1],[12,-13],[0,-15],[-10,-24],[12,-17],[7,25],[4,34],[-7,55],[-17,32],[0,25],[-9,-8],[-8,11],[-4,22],[-14,-11],[-9,16],[-4,41],[-13,-4],[-21,15],[-7,24],[-7,-7],[-22,2],[-6,17],[6,37],[-15,3],[13,26],[14,22],[-23,-4]],[[1331,7890],[2,-16],[-2,-29],[-14,-8],[-11,27],[-2,30],[19,-6],[8,2]],[[1485,7587],[-12,17],[-12,-1],[-26,45],[-3,11],[17,3],[24,-20],[35,-13],[12,-26],[6,-21],[9,-19],[24,-24],[8,-38],[-4,-12],[-21,9],[-20,20],[6,21],[-13,0],[-5,-8],[-9,9],[2,14],[-6,11],[-13,4],[1,18]],[[2385,6131],[-8,-11],[-10,1],[-2,16],[-6,-8],[6,-23],[-21,-40],[-17,-12],[-14,6],[3,-24],[-32,23]],[[2284,6059],[-12,35],[-121,235]],[[2151,6329],[0,466],[-180,0]],[[1971,6795],[-70,200],[-3,21]],[[1898,7016],[-68,435],[-10,293]],[[2345,7599],[37,-237],[3,-505],[0,-279],[-14,16],[-49,-33],[-21,-85],[37,-127],[38,-57],[9,1],[0,-162]],[[1898,7016],[-95,42],[-109,43],[-41,33]],[[1971,6795],[-337,0]],[[2284,6059],[-133,93],[0,177]],[[1868,6161],[0,0]],[[6131,4715],[23,12]],[[6229,4735],[21,4],[25,28],[14,-12],[7,2],[20,33],[17,-3],[15,16],[21,-7],[21,17],[18,34],[13,-12],[2,-9],[-5,-30],[2,-38],[-7,-32],[-1,-49],[-2,-16],[-16,-74],[-10,-26],[-1,-21],[-21,-93],[-3,-31],[-13,-57],[-23,-80]],[[6229,4226],[-24,-61]],[[6205,4165],[-250,-2],[-13,26],[-325,242],[-267,111],[-163,-138]],[[5187,4404],[4,22]],[[5151,4379],[-8,12],[-15,41],[-15,17],[-4,10],[-13,-14],[-24,-3],[-29,-8],[-11,-11],[-6,-23],[-24,-8],[-19,-24],[-16,-13],[-24,-32],[-19,25],[-9,16],[-3,-9],[-22,9],[-29,-2],[-16,-8],[-21,-18],[-34,-39],[-19,22],[-28,38],[-20,50],[-13,25],[-21,28],[-16,35],[-14,20],[0,20],[-17,25],[-9,27],[7,20],[-6,11],[0,18],[-13,43],[-1,21],[-11,12],[-15,28],[1,23],[-13,10],[0,17],[-9,5],[0,21],[7,21],[-6,9]],[[4962,4766],[117,172],[150,-60],[61,7]],[[5408,4888],[26,-87],[83,-82],[57,129],[70,-13],[24,-43],[181,-5],[6,6],[13,-40],[13,-29],[31,-10],[-14,-42],[19,-192],[71,-97],[84,77],[3,38]],[[4560,4840],[-7,9],[-6,17],[-8,8],[-5,20],[0,55],[7,9],[1,18],[-16,61]],[[6287,4176],[-4,-8]],[[6177,4936],[0,0]],[[5347,2604],[11,-46],[436,-18]],[[5794,2540],[-9,-110]],[[5785,2430],[5,-76],[24,-38]],[[5863,2316],[49,76]],[[5927,2535],[37,-2]],[[5964,2533],[-1,-34],[12,-34],[-4,-20],[8,-73],[7,7],[0,-20],[-3,-72],[-3,-27],[6,-8],[-2,-21],[-16,-36],[-8,-11],[-34,-31],[-11,-17],[-13,-38],[11,-22],[1,-11],[-4,-72],[-5,-28],[-7,-9],[1,-25],[-4,-27],[-19,-34],[-32,-116],[-16,-44],[-25,-63],[-35,-69],[-20,-33],[-8,-10],[-29,-5],[-3,-19],[-16,7],[-7,-16],[-7,-2],[-10,13],[-16,6],[-8,-13],[-15,10],[-19,-11],[-9,-18],[-22,1],[-17,-9],[-10,-27],[-16,19],[-4,22],[-9,-1],[-8,18],[-2,-15],[-5,11],[4,30],[-16,61],[10,7],[3,40],[-5,39],[-7,37],[-15,63],[-16,93],[-7,26],[-25,64],[-5,20],[-11,73],[2,19],[-5,24],[-3,28],[2,44],[-7,43],[-8,97],[5,25],[-4,34],[-17,59],[-24,123],[-12,49]],[[3027,7364],[9,23],[13,20],[13,31],[14,25],[25,31],[38,30],[27,15],[18,5],[11,-2],[18,-19],[4,-21],[-6,-14],[-13,-10],[-10,-14],[-18,6],[-17,-8],[18,-10],[6,-22],[16,16],[11,-7],[-8,-16],[-1,-17],[-12,-14],[16,-1],[-1,-29],[9,-32],[22,-8],[-9,-8],[9,-13],[7,3],[31,-14],[12,14],[6,-17],[7,4],[6,-13],[-4,-12],[12,-6],[-29,-17],[-29,-26],[-1,9],[-13,-23],[-9,4],[-10,-9],[-13,-23],[-3,-18],[-7,-11],[-7,2],[-4,-17],[-7,3],[-6,21],[-2,-7],[-5,28],[6,25],[-6,0],[48,65],[4,-17],[24,20],[-40,2],[14,19],[3,14],[-8,-2],[-8,-16],[-25,-27],[-8,0],[-10,-13],[-3,5],[-19,5],[7,-27],[-6,-12],[-16,-4],[-9,-18],[-2,12],[-9,-10],[-1,-10],[-9,7],[1,17],[-13,-46],[-4,7],[-3,-14],[-9,-10],[-3,11],[-8,-8],[1,-12],[-10,-17],[-9,-38],[8,-11],[-13,-26],[8,-4],[13,-40],[9,8],[1,-10],[-20,-10],[0,13],[-14,-17],[2,21],[-8,1],[-2,-30],[-39,-9],[-15,-11],[-25,-37],[10,-14],[-6,-49],[-7,-25],[-13,-31],[-2,19],[-5,0],[-14,31],[11,-58],[4,-3],[1,-24],[-11,-37],[-12,-51],[-4,3],[4,28],[6,13],[-18,47],[8,9],[-7,10],[-1,12],[7,16],[-6,0],[9,33],[-12,-27],[-4,-36],[6,-49],[-13,14],[-13,21],[-2,-7],[10,-17],[21,-23],[-6,-17],[-13,26],[9,-26],[8,-6],[-3,-12],[3,-29],[-10,16],[-9,1],[13,-19],[14,-6],[-1,-27],[6,-31],[-11,16],[3,-11],[-18,-16],[19,4],[1,-25],[3,20],[5,-7],[-11,-36],[-20,10],[10,-13],[-5,-17],[-8,-5],[18,-4],[-9,-16],[-18,-7],[-19,-53],[-18,-8],[-16,-26],[-4,-25],[-11,-23],[-14,-19],[-10,-3],[-16,-61],[-9,-66],[2,-48],[11,-58],[12,-56]],[[2761,6044],[-51,-48]],[[2710,5996],[-11,1],[5,77],[-4,15],[-9,9],[-21,58],[-12,4],[-13,-22],[-15,-9],[-5,27],[-6,12],[-10,2],[-9,17],[-19,-8],[-9,6],[0,-10],[-10,-3],[-8,30],[-3,-25],[-5,4],[-25,1],[-13,-16],[-13,15],[-7,-18],[2,-7],[13,6],[14,-18],[-9,-12],[4,-20],[7,-5],[8,-18],[-13,-2],[-4,14],[-16,18],[-3,-11],[6,-11],[-4,-8],[-5,15],[-10,-16],[-13,16],[-5,16],[-14,21],[-8,-2],[7,-13],[-4,-6],[-15,2],[-22,14],[-19,-5]],[[2603,7053],[1,39],[-6,37],[-1,36],[8,51],[19,37],[-3,-22],[6,-1],[1,22],[12,15],[-4,10],[9,20],[-5,11],[-12,8],[-25,-13],[-11,-18],[2,16],[-9,-14],[-1,13],[-20,-65],[-5,-6],[-4,-21],[15,21],[4,-4],[-5,-43],[-4,-16],[-7,-59],[3,-25],[0,-46],[7,-32],[5,-10],[9,4],[10,14],[11,41]],[[2649,7292],[33,-34],[5,-18],[-4,-52],[-11,-22],[-3,-16],[5,-12],[10,21],[12,11],[5,-7],[11,-69],[15,22],[3,60],[10,29],[0,26],[-10,23],[11,0],[11,-43],[7,6],[12,-15],[6,8],[-2,15],[9,-1],[-10,31],[-15,36],[-3,17],[-23,1],[-1,8],[-45,8],[-15,4],[-5,-22],[-18,5],[0,-20]],[[2770,7074],[-2,-10],[-30,-1],[-13,-22],[-11,-10],[-5,-13],[-18,7],[-9,-26],[24,-21],[21,6],[22,25],[13,10],[28,30],[16,23],[2,12],[-20,-1],[-18,-9]],[[2437,7357],[32,18],[9,1],[-3,-22],[5,6],[12,-5],[16,15],[11,4],[28,37],[12,5],[-15,-31],[-2,-16],[7,7],[16,-7],[11,-22],[14,-5],[21,17],[28,2],[3,-16],[11,0],[-1,24],[-7,15],[4,17],[-8,19],[1,25],[-4,5],[-22,2],[-7,16],[-9,39],[-22,4],[-25,16],[-7,-27],[-3,14],[-10,-35],[-2,14],[-10,-12],[-8,-26],[-26,-22],[-19,-24],[-31,-52]],[[2885,7167],[-6,3],[9,20],[-12,-4],[-12,-14],[-8,-18],[-12,12],[-31,-9],[-12,-8],[-14,-20],[-4,-14],[9,-8],[27,12],[18,-1],[9,-9],[17,1],[21,28],[-3,17],[4,12]],[[2982,6942],[22,11],[-19,-17],[-41,-18],[3,16],[9,9],[26,4],[0,-5]],[[5718,6613],[0,0]],[[5708,6617],[0,0]],[[5720,6653],[0,0]],[[5682,6650],[-3,-16],[-5,7],[8,9]],[[5690,6636],[0,0]],[[5699,6636],[0,0]],[[5702,6645],[0,0]],[[5678,6666],[0,0]],[[5677,6700],[0,0]],[[5676,6681],[0,0]],[[5695,6687],[0,0]],[[5701,6700],[2,-12],[-19,36],[3,8],[14,-32]],[[5688,6655],[0,0]],[[5702,6659],[-10,-3],[10,17],[0,-14]],[[5711,6668],[-4,-14],[-4,12],[8,2]],[[5805,6637],[-5,-11],[-10,14],[-12,-15],[-1,28],[-19,0],[6,16],[-10,16],[-1,39],[-12,15],[-8,0],[2,25],[7,-12],[7,8],[-8,18],[9,13],[-12,31],[10,22],[-22,-8],[1,40],[16,27],[14,6],[14,-12],[19,8],[16,-5],[-4,21],[27,9],[-15,0],[-9,17],[4,17],[28,-6],[3,4],[13,-11],[14,1],[4,17],[29,34],[20,14],[12,3],[30,-8]],[[5774,7098],[-1,-24],[-10,-16],[12,-32],[5,-35],[8,-11],[19,-17],[-7,-21],[-18,11],[-7,-8],[-12,1],[-6,-22],[-18,-19],[-10,-23],[-2,16],[10,14],[-12,8],[-4,18],[-19,3],[-8,9],[-8,-10],[-10,6],[-13,-17],[-7,3],[4,-21],[14,-22],[-14,16],[-4,-12],[6,-5],[-2,-13],[-5,15],[-9,3],[9,-22],[-9,3],[-4,21],[-11,16],[3,12],[-10,-11],[3,-7],[-3,-20],[9,-38],[12,-28],[-11,11],[-3,-5],[4,-19],[-11,-11],[19,-15],[11,-23],[7,0],[5,-43],[-4,-5],[-10,27],[-14,-8],[2,-22],[7,-1],[3,-12],[-12,-6],[-10,8],[7,-32],[3,-32],[-9,10],[-8,-16],[-11,36],[-6,-15],[-6,22],[2,21],[-11,36],[6,20],[8,-4],[5,10],[23,-23],[11,15],[-22,19],[-14,3],[-18,-8],[-12,36],[11,11],[-4,8],[-9,-2],[-13,23],[-5,30],[-19,32],[4,10],[-4,14],[5,20],[0,25],[-3,9],[5,16],[0,15]],[[5685,6521],[-10,9],[-21,3],[-1,23],[12,-3],[7,-10],[15,3],[21,-10],[6,2],[2,-14],[13,13],[-3,-21],[-7,2],[-34,-8],[0,11]],[[5639,6801],[6,6],[15,-23],[10,-5],[4,-33],[8,-3],[-1,-14],[-6,1],[-8,29],[-10,2],[-1,8],[-17,32]],[[4944,7436],[-16,-30],[3,12]],[[4931,7418],[-10,0],[-31,30],[-12,-6],[0,9]],[[4878,7451],[-9,8],[11,3]],[[4879,7470],[-1,6]],[[4879,7483],[-12,-3],[0,15]],[[5868,2635],[-44,-13]],[[5795,2545],[-1,-5]],[[5347,2604],[-12,42],[-6,34],[-2,30],[0,78],[0,47],[7,20],[6,47],[2,46],[7,61],[7,22],[6,30],[8,7],[9,33],[4,39],[0,49],[-5,49],[-12,48],[-3,25],[2,16],[8,18],[1,29],[-3,19],[-11,47],[-5,47],[-12,43],[-5,35],[2,22],[-14,68],[-31,79],[-3,15],[-17,38],[4,10],[-11,11],[-12,47],[6,13],[-9,17],[-9,33],[11,19],[8,54],[11,-2],[-15,33],[6,5],[2,35],[-7,6],[13,51],[-1,36],[3,32],[-4,41],[-5,21],[5,13],[-3,12],[-11,0],[-7,8],[-4,35],[-15,16],[0,-16],[-5,-11],[-20,-4],[-11,7],[-5,-16],[-21,3]],[[5169,4296],[18,108]],[[6205,4165],[-111,-281],[-46,-232],[14,-341]],[[6062,3311],[28,-134],[32,-6]],[[6122,3171],[-1,-23],[4,-75],[-4,-30],[6,-39],[1,-68],[6,-7],[-2,-25],[-7,-19],[2,-12],[-6,-28],[-16,-50],[-9,-21],[-17,-24],[-44,-48],[-11,-21],[-27,-74],[-30,-56],[-3,-18]],[[2761,6044],[4,-52],[10,-62],[1,-27],[-4,-59],[-4,-13],[1,-22],[-22,-9],[-1,19],[-7,34],[-10,5],[-4,38],[-5,7],[-2,23],[-5,-3],[-12,51],[9,22]],[[5667,8263],[9,14],[11,6],[14,-6],[5,9],[25,-3],[38,-11]],[[5288,8142],[2,-19],[-6,-17],[-39,-1],[-2,-14],[-8,-14],[-8,14],[10,25],[21,2],[15,30],[20,12],[-5,-18]],[[5246,7905],[-9,4],[11,10],[-10,25],[2,22],[-3,21],[-14,9],[8,21],[-6,23],[2,25],[13,-6],[10,22],[8,-13],[2,29],[23,-2],[3,-28],[14,-2],[-2,-25],[-16,-1],[2,-9],[-9,-32],[11,8],[14,-24],[-2,-16],[-17,1],[-12,29],[-4,-9],[-4,-28],[16,-27],[-4,-13],[8,-6]],[[5332,7958],[-6,16],[-13,1],[-5,32],[13,18],[11,-22],[3,28],[10,0],[-1,-30],[-7,-12],[8,-10],[-13,-21]],[[5325,7936],[-7,-2],[-12,9],[7,14],[15,-13],[-3,-8]],[[5334,7945],[-2,-7],[-7,19],[9,-12]],[[5411,7980],[9,-10],[-3,-9],[-10,7],[4,12]],[[5379,7928],[1,-14],[-9,-9],[-7,8],[1,15],[7,10],[7,-10]],[[5446,8062],[-8,-26],[-8,10],[-8,-7],[-16,3],[-10,-16],[-4,-17],[4,-11],[-4,-12],[-9,6],[-14,-9],[-14,4],[5,22],[-16,42],[11,11],[0,14]],[[5355,8076],[16,6],[2,-11],[20,21],[9,-9],[26,6],[18,-27]],[[5355,8076],[-14,21],[-16,59]],[[5579,8614],[-5,-15],[-28,-31],[-10,4],[-7,-18],[-16,-16],[-5,-14],[-12,0],[2,-17],[-6,-14],[-12,6],[5,-25],[-3,-31],[-9,-9],[4,-62],[21,-7],[13,-29],[11,-5],[6,-29],[-28,-26],[-26,14],[-16,3],[-3,-10],[10,2],[17,-17],[25,3],[3,-9],[-17,-21],[-1,17],[-10,-26],[-8,-7],[-18,-1],[9,-23],[-1,-31],[-7,0],[5,-32],[-7,-27],[-1,-18],[-8,-31]],[[5036,7065],[4,1]],[[5081,7085],[4,-37],[1,-37],[-25,-30],[-4,-11],[-21,-10],[-12,-10],[-5,-17],[2,-9],[-7,-5],[-8,-25],[-11,-26],[-6,-33],[6,-34],[9,-16],[-17,-22],[-6,-19],[-6,-30],[2,-10],[-15,-5],[-13,-19],[-3,-24]],[[262,2949],[0,0]],[[259,2952],[0,0]],[[291,2950],[0,0]],[[288,2957],[0,0]],[[287,2958],[0,0]],[[36,2490],[0,0]],[[50,2547],[0,0]],[[45,2596],[0,0]],[[9993,2600],[0,0]],[[39,2600],[0,0]],[[9954,2614],[0,0]],[[29,2614],[0,0]],[[4,2611],[0,0]],[[9958,2618],[0,0]],[[42,2634],[0,0]],[[9994,2639],[0,0]],[[9933,2646],[0,0]],[[9947,2656],[0,0]],[[35,2667],[0,0]],[[9978,2679],[0,0]],[[28,2685],[0,0]],[[47,2690],[0,0]],[[9983,2692],[0,0]],[[20,2697],[0,0]],[[9967,2708],[0,0]],[[24,2719],[0,0]],[[9948,2664],[-8,-2],[-15,11],[-2,17],[3,18],[12,19],[10,2],[12,-21],[3,-29],[-15,-15]],[[9918,2731],[0,0]],[[25,2734],[0,0]],[[9983,2736],[0,0]],[[30,2738],[0,0]],[[9921,2747],[0,0]],[[9953,2766],[0,0]],[[9996,2757],[0,0]],[[5,2769],[0,0]],[[9932,2775],[0,0]],[[9997,2779],[0,0]],[[9999,2790],[0,0]],[[1,2793],[0,0]],[[9987,2771],[8,18],[3,-16],[-18,-5],[-3,7],[-5,-16],[-9,-5],[-6,17],[14,21],[11,4],[3,10],[14,7],[-14,-38],[2,-4]],[[281,2598],[0,0]],[[140,2438],[0,0]],[[137,2453],[0,0]],[[145,2516],[0,0]],[[155,2542],[0,0]],[[158,2549],[0,0]],[[137,2558],[0,0]],[[159,2555],[0,0]],[[138,2562],[0,0]],[[159,2566],[0,0]],[[149,2625],[0,0]],[[165,2632],[0,0]],[[166,2632],[0,0]],[[163,2632],[0,0]],[[165,2635],[0,0]],[[120,2854],[0,0]],[[52,2948],[0,0]],[[106,3017],[0,0]],[[237,2967],[-12,3],[2,14],[10,-17]],[[216,3002],[0,-17],[-9,0],[-6,19],[11,6],[4,-8]],[[1965,2021],[0,0]],[[8167,5599],[0,0]],[[8168,5613],[9,-7],[-7,-19],[-7,17],[5,9]],[[7738,5846],[1,125]],[[8790,7864],[16,15],[9,-4],[-8,-23],[25,-2],[7,8],[5,17],[0,20],[27,0],[20,-21],[6,-19],[22,-35],[-8,-16],[7,-17],[-4,-24],[9,-11],[-15,-48],[-9,-45],[-2,-22],[4,-30],[-4,-54],[-7,-62],[-24,-50],[-7,-35],[-17,-33],[-10,-43],[-7,-20],[-34,-75],[-13,-41],[-17,-26],[-13,-38],[-11,-21],[-12,-16],[-33,-24],[-3,14],[-10,2],[-8,22],[-14,-12],[5,19],[-8,-5],[-14,-34],[-35,-64],[-6,-29],[6,-5],[-1,-37],[-8,-14],[-9,-4],[-20,-41],[-21,-14],[-7,-18],[3,-18],[-7,-11],[13,-8],[7,-18],[10,-13],[8,-41],[19,-62],[4,-41],[-3,-48],[6,-3],[-4,-37],[-9,-26],[-15,4],[-6,-10],[2,-14],[-12,11],[-10,-27],[-4,17],[-4,-7],[4,-13],[-10,-4],[5,16],[-9,-10],[-3,-14],[-3,12],[-5,-20],[-9,21],[2,41],[3,35],[9,18],[-7,18],[-1,42],[-6,5],[6,19],[7,0],[3,15],[-9,31],[-3,-7],[-14,16],[-4,12],[-4,-15],[-8,-7],[-16,19],[-2,15],[6,23],[11,16],[-5,9],[7,41],[-13,18],[-10,-6],[-13,25],[-5,-6],[-24,-10],[-28,-30],[-15,-27],[-12,-9],[17,42],[-11,1],[-1,15],[24,58],[-10,27],[-9,10],[-11,-1],[-21,-51],[-12,-8],[-13,-14],[-11,-45],[-12,-4],[-7,-12],[-6,18],[-9,-3],[-9,-44],[5,-23],[17,-17],[15,1],[3,-8],[-2,-37],[4,-26],[18,3],[16,33],[14,11],[21,-28],[13,2],[14,-5],[-4,-41],[-11,9],[-28,-20],[-9,-14],[0,-24],[-7,-5],[-4,15],[-6,-4],[2,-15],[-8,-28],[-18,-36],[-1,-26],[8,-7],[19,-33],[5,-17],[5,-41],[8,-21],[1,-36],[11,-16],[5,-19],[10,-17],[1,-15],[-10,-12],[6,-12],[4,-26],[-2,-16],[-15,-8],[-12,-18],[-18,-17],[14,-8],[11,14],[9,0],[6,-20],[11,-6],[-3,-15],[-9,-15],[8,-7],[-6,-35],[-2,-33],[-5,-19],[-4,11],[-14,-49],[-5,-30],[-13,-34],[-12,-9],[3,-23],[-2,-36],[-4,-17],[-7,-7],[-7,-43],[-13,-27],[-12,7],[-4,-11],[2,-27],[-13,-25],[-12,-10],[-15,-26],[-2,-21],[-13,-5],[-5,-15],[-11,10],[-13,-19],[-8,-3],[0,15],[-23,-14],[-7,21],[-2,-44],[-8,-13],[-6,6],[-4,-22],[-20,-7],[-5,7],[-9,-19],[-12,-1],[-15,-18],[-9,3],[-4,-30],[10,-31],[-14,-14],[-6,24],[-3,35],[5,31],[-8,8],[-11,-14],[-8,7],[-7,24],[-5,-22],[-14,-3],[-13,-22],[1,-15]],[[8563,6769],[0,0]],[[8562,6761],[0,0]],[[8529,6750],[0,0]],[[8512,6386],[-6,-2],[2,19],[13,7],[2,-18],[-11,-6]],[[8517,6465],[0,0]],[[8530,6476],[0,0]],[[8547,6480],[0,0]],[[8502,6470],[0,0]],[[8548,6485],[0,0]],[[8497,6491],[0,0]],[[8499,6498],[0,0]],[[8554,6503],[0,0]],[[8499,6505],[0,0]],[[8556,6501],[0,0]],[[8573,6494],[-4,12],[5,7],[-1,-19]],[[8501,6521],[0,0]],[[8509,6618],[0,0]],[[8504,6648],[0,0]],[[8633,6694],[0,0]],[[8461,6728],[0,0]]]}