{"type":"Topology","bbox":[-180,-55.070042051117994,180,83.17604406948747],"transform":{"scale":[0.036003600360036005,0.013825991211181665],"translate":[-180,-55.070042051117994]},"objects":{"countries":{"type":"GeometryCollection","geometries":[{"type":"MultiPolygon","arcs":[[[0,1,2,3,4,5]]],"id":"meroe","properties":{"name":"Meroe","subjecto":"Meroe","partof":"Meroe","prec":1}},{"type":"MultiPolygon","arcs":[[[6,7,8,9,10]]],"id":"saka_kingdom","properties":{"name":"Saka Kingdom","subjecto":"Saka Kingdom","partof":"Saka Kingdom","prec":1}},{"type":"MultiPolygon","arcs":[[[-7,11,12,13,14,15]]],"id":"satavahanihara","properties":{"name":"Satavahanihara","subjecto":"Satavahanihara","partof":"Satavahanihara","prec":1}},{"type":"MultiPolygon","arcs":[[[16,17]]],"id":"hadramaut","properties":{"name":"Hadramaut","subjecto":"Hadramaut","partof":"Hadramaut","prec":1}},{"type":"MultiPolygon","arcs":[[[-17,18]]],"id":"himyarite_kingdom","properties":{"name":"Himyarite Kingdom","subjecto":"Himyarite Kingdom","partof":"Himyarite Kingdom","prec":1}},{"type":"MultiPolygon","arcs":[[[19,20]]],"id":"paekche","properties":{"name":"Paekche","subjecto":"Paekche","partof":"Paekche","prec":1}},{"type":"MultiPolygon","arcs":[[[21,22,23,24,25,26]]],"id":"han","properties":{"name":"Han","subjecto":"Han","partof":"Han","prec":1}},{"type":"MultiPolygon","arcs":[[[-12,-11,27,28]]],"id":"magadha","properties":{"name":"Magadha","subjecto":"Magadha","partof":"Magadha","prec":1}},{"type":"MultiPolygon","arcs":[[[29]]],"id":"hainan","properties":{"name":"Hainan","subjecto":"Hainan","partof":"Hainan","prec":1}},{"type":"MultiPolygon","arcs":[[[30]]],"id":"simhala","properties":{"name":"Simhala","subjecto":"Simhala","partof":"Simhala","prec":1}},{"type":"MultiPolygon","arcs":[[[31]]],"id":"maya_chiefdoms_and_states","properties":{"name":"Maya chiefdoms and states","subjecto":"Maya chiefdoms and states","partof":"Maya chiefdoms and states","prec":1}},{"type":"MultiPolygon","arcs":[[[32]]],"id":"paleo_inuit","properties":{"name":"Paleo-Inuit","subjecto":"Paleo-Inuit","partof":"Paleo-Inuit","prec":1}},{"type":"MultiPolygon","arcs":[[[33,34]]],"id":"dumonii","properties":{"name":"Dumonii","subjecto":"Dumonii","partof":"Dumonii","prec":1}},{"type":"MultiPolygon","arcs":[[[35]]],"id":"moche","properties":{"name":"Moche","subjecto":"Moche","partof":"Moche","prec":1}},{"type":"MultiPolygon","arcs":[[[36,37]]],"id":"axum","properties":{"name":"Axum","subjecto":"Axum","partof":"Axum","prec":1}},{"type":"MultiPolygon","arcs":[[[38,39,40,-9]]],"id":"suren_kingdom","properties":{"name":"Suren Kingdom","subjecto":"Suren Kingdom","partof":"Suren Kingdom","prec":1}},{"type":"MultiPolygon","arcs":[[[41,-13,-29]]],"id":"kalinga","properties":{"name":"Kalinga","subjecto":"Kalinga","partof":"Kalinga","prec":1}},{"type":"MultiPolygon","arcs":[[[42,-15]]],"id":"chola","properties":{"name":"Chola","subjecto":"Chola","partof":"Chola","prec":1}},{"type":"MultiPolygon","arcs":[[[43]],[[44]],[[45]]],"id":"guanches","properties":{"name":"Guanches","subjecto":"Guanches","partof":"Guanches","prec":1}},{"type":"MultiPolygon","arcs":[[[46,47]]],"id":"boihaenum","properties":{"name":"Boihaenum","subjecto":"Boihaenum","partof":"Boihaenum","prec":1}},{"type":"MultiPolygon","arcs":[[[48,49,-40,50,51]]],"id":"parthian_empire","properties":{"name":"Parthian Empire","subjecto":"Parthian Empire","partof":"Parthian Empire","prec":1}},{"type":"MultiPolygon","arcs":[[[52]],[[53]],[[54]],[[55]],[[56]],[[57]],[[58]],[[59]],[[60]],[[61]],[[62]],[[63]],[[64]],[[65]],[[66]],[[67]],[[68]],[[69]],[[70]],[[71]],[[-47,72]],[[73]],[[-34,74]],[[75,76,-6,77,78,-52,79]]],"id":"roman_empire","properties":{"name":"Roman Empire","subjecto":"Roman Empire","partof":"Roman Empire","prec":1}},{"type":"MultiPolygon","arcs":[[[80,-49,-79]]],"id":"armenia","properties":{"name":"Armenia","subjecto":"Armenia","partof":"Armenia","prec":1}},{"type":"MultiPolygon","arcs":[[[81]]],"id":"bosporian_kingdom","properties":{"name":"Bosporian Kingdom","subjecto":"Roman Empire","partof":"Bosporian Kingdom","prec":1}},{"type":"MultiPolygon","arcs":[[[82,83,84,85,86,87,88,89,90,91,92,93,94,95,96]]],"id":"subarctic_forest_hunter_gatherers","properties":{"name":"Subarctic forest hunter-gatherers","subjecto":"Subarctic forest hunter-gatherers","partof":"Subarctic forest hunter-gatherers","prec":1}},{"type":"MultiPolygon","arcs":[[[97,-24,98,-22]]],"id":"southern_xiongnu","properties":{"name":"Southern Xiongnu","subjecto":"S. Xiongnu","partof":"Southern Xiongnu","prec":1}},{"type":"MultiPolygon","arcs":[[[99]]],"id":"yueban","properties":{"name":"Yueban","subjecto":"Yueban","partof":"Yueban","prec":1}},{"type":"MultiPolygon","arcs":[[[100]]],"id":"australian_aboriginal_hunter_gatherers","properties":{"name":"Australian aboriginal hunter-gatherers","subjecto":"Australian aboriginal hunter-gatherers","partof":"Australian aboriginal hunter-gatherers","prec":1}},{"type":"MultiPolygon","arcs":[[[101]]],"id":"tasmanian_hunter_gatherers","properties":{"name":"Tasmanian hunter-gatherers","subjecto":"Tasmanian hunter-gatherers","partof":"Tasmanian hunter-gatherers","prec":1}},{"type":"MultiPolygon","arcs":[[[102]],[[103]],[[104]],[[105]],[[106]],[[107]],[[108]],[[109]],[[110]],[[111]],[[112]],[[113]],[[114]],[[115]],[[116]],[[117]],[[118]],[[119]],[[120]],[[121]],[[122]]],"id":"ainu","properties":{"name":"Ainu","subjecto":"Ainu","partof":"Ainu","prec":1}},{"type":"MultiPolygon","arcs":[[[123,124,125,126,-26]]],"id":"koguryo","properties":{"name":"Koguryo","subjecto":"Koguryo","partof":"Koguryo","prec":1}},{"type":"MultiPolygon","arcs":[[[127,128,129]]],"id":"gaya","properties":{"name":"Gaya","subjecto":"Gaya","partof":"Gaya","prec":1}},{"type":"MultiPolygon","arcs":[[[-128,130,-125,131,19]]],"id":"silla","properties":{"name":"Silla","subjecto":"Silla","partof":"Silla","prec":1}},{"type":"MultiPolygon","arcs":[[[-130,132,-126,-131]]],"id":"paekche_2","properties":{"name":"Paekche","subjecto":"Paekche","partof":"Paekche","prec":1}},{"type":"MultiPolygon","arcs":[[[133,134,135,136]]],"id":"paleo_siberian_hunter_gatherers","properties":{"name":"Paleo-Siberian hunter-gatherers","subjecto":"Paleo-Siberian hunter-gatherers","partof":"Paleo-Siberian hunter-gatherers","prec":1}},{"type":"MultiPolygon","arcs":[[[137,138]]],"id":"s_mi","properties":{"name":"Sámi","subjecto":"Sámi","partof":"Sámi","prec":1}},{"type":"MultiPolygon","arcs":[[[-139,139,-137,140]]],"id":"finno_ugric_taiga_hunter_gatherers","properties":{"name":"Finno-Ugric taiga hunter-gatherers","subjecto":"Finno-Ugric taiga hunter-gatherers","partof":"Finno-Ugric taiga hunter-gatherers","prec":1}},{"type":"MultiPolygon","arcs":[[[141]],[[142]],[[143]],[[144]],[[-94,145]],[[146]],[[147]],[[148]],[[149]],[[150]],[[151,-92]],[[152]],[[153]],[[154]],[[155]],[[156]],[[157]],[[158,-96]],[[159,-135]],[[160]]],"id":"arctic_marine_mammal_hunters","properties":{"name":"Arctic marine mammal hunters","subjecto":"Arctic marine mammal hunters","partof":"Arctic marine mammal hunters","prec":1}},{"type":"MultiPolygon","arcs":[[[161,162,163,164]]],"id":"andean_hunter_gatherers","properties":{"name":"Andean hunter-gatherers","subjecto":"Andean hunter-gatherers","partof":"Andean hunter-gatherers","prec":1}},{"type":"MultiPolygon","arcs":[[[165,-162,166,167]]],"id":"pampas_cultures","properties":{"name":"Pampas cultures","subjecto":"Pampas cultures","partof":"Pampas cultures","prec":1}},{"type":"MultiPolygon","arcs":[[[168]],[[169]],[[170]],[[171]],[[172]],[[173]],[[174]],[[175]],[[176]],[[177]],[[178]],[[179]],[[180]],[[181]],[[182]],[[183]],[[184]],[[185]],[[186]],[[187]],[[188]],[[189]],[[190]],[[191]],[[192]]],"id":"caribbean_hunter_gatherers","properties":{"name":"Caribbean hunter-gatherers","subjecto":"Caribbean hunter-gatherers","partof":"Caribbean hunter-gatherers","prec":1}},{"type":"MultiPolygon","arcs":[[[193]],[[194]],[[195]],[[196,-163,-166]]],"id":"patagonian_shellfish_and_marine_mammal_h","properties":{"name":"Patagonian shellfish and marine mammal hunters","subjecto":"Patagonian shellfish and marine mammal hunters","partof":"Patagonian shellfish and marine mammal hunters","prec":1}},{"type":"MultiPolygon","arcs":[[[197,198]]],"id":"shellfish_gatherers","properties":{"name":"Shellfish gatherers","subjecto":"Shellfish gatherers","partof":"Shellfish gatherers","prec":1}},{"type":"MultiPolygon","arcs":[[[199,200,201,-198,202,-167,-165]]],"id":"savanna_hunter_gatherers","properties":{"name":"Savanna hunter-gatherers","subjecto":"Savanna hunter-gatherers","partof":"Savanna hunter-gatherers","prec":1}},{"type":"MultiPolygon","arcs":[[[203,-201]]],"id":"amazon_hunter_gatherers","properties":{"name":"Amazon hunter-gatherers","subjecto":"Amazon hunter-gatherers","partof":"Amazon hunter-gatherers","prec":1}},{"type":"MultiPolygon","arcs":[[[204,205,206,207]]],"id":"desert_hunter_gatherers","properties":{"name":"Desert hunter-gatherers","subjecto":"Desert hunter-gatherers","partof":"Desert hunter-gatherers","prec":1}},{"type":"MultiPolygon","arcs":[[[208,-89,209,-206]]],"id":"plateau_fichers_and_hunter_gatherers","properties":{"name":"Plateau fichers and hunter gatherers","subjecto":"Plateau fichers and hunter gatherers","partof":"Plateau fichers and hunter gatherers","prec":1}},{"type":"MultiPolygon","arcs":[[[210]],[[-90,-209,-205,211]],[[212]],[[213]]],"id":"north_american_pacifi_foraging_hunting_a","properties":{"name":"North American Pacifi foraging, hunting and fishing peoples","subjecto":"North American Pacifi foraging, hunting and fishing peoples","partof":"North American Pacifi foraging, hunting and fishing peoples","prec":1}},{"type":"MultiPolygon","arcs":[[[214]],[[215,216]]],"id":"khoiasan","properties":{"name":"Khoiasan","subjecto":"Khoiasan","partof":"Khoiasan","prec":1}},{"type":"MultiPolygon","arcs":[[[-4,217,-38,218,-217,219],[220]]],"id":"west_african_cereal_farmers","properties":{"name":"West African cereal farmers","subjecto":"West African cereal farmers","partof":"West African cereal farmers","prec":1}},{"type":"MultiPolygon","arcs":[[[-2,221,-76,222]]],"id":"blemmyes","properties":{"name":"Blemmyes","subjecto":"Blemmyes","partof":"Blemmyes","prec":1}},{"type":"MultiPolygon","arcs":[[[223]]],"id":"monte_alb_n","properties":{"name":"Monte Albán","subjecto":"Monte Albán","partof":"Monte Albán","prec":1}},{"type":"MultiPolygon","arcs":[[[224]]],"id":"teotihuac_n","properties":{"name":"Teotihuacán","subjecto":"Teotihuacán","partof":"Teotihuacán","prec":1}},{"type":"MultiPolygon","arcs":[[[225,226,227,228]]],"id":"marksville_culture","properties":{"name":"Marksville Culture","subjecto":"Marksville Culture","partof":"Marksville Culture","prec":1}},{"type":"MultiPolygon","arcs":[[[229,-228,230,231,232,233,234]]],"id":"fourche_maline_culture","properties":{"name":"Fourche Maline Culture","subjecto":"Fourche Maline Culture","partof":"Fourche Maline Culture","prec":1}},{"type":"MultiPolygon","arcs":[[[-227,235,-231]]],"id":"mill_creek_culture","properties":{"name":"Mill Creek Culture","subjecto":"Mill Creek Culture","partof":"Mill Creek Culture","prec":1}},{"type":"MultiPolygon","arcs":[[[236,237,238,239]]],"id":"swift_creek_culture","properties":{"name":"Swift Creek Culture","subjecto":"Swift Creek Culture","partof":"Swift Creek Culture","prec":1}},{"type":"MultiPolygon","arcs":[[[240,241]]],"id":"miller","properties":{"name":"Miller","subjecto":"Miller","partof":"Miller","prec":1}},{"type":"MultiPolygon","arcs":[[[242,243,244,245,246,-86]],[[247]]],"id":"laurel_complex","properties":{"name":"Laurel complex","subjecto":"Laurel complex","partof":"Laurel complex","prec":1}},{"type":"MultiPolygon","arcs":[[[248,-239,249,250,251,-241]]],"id":"copena","properties":{"name":"Copena","subjecto":"Copena","partof":"Copena","prec":1}},{"type":"MultiPolygon","arcs":[[[252,-237,253,-251]]],"id":"porter","properties":{"name":"Porter","subjecto":"Porter","partof":"Porter","prec":1}},{"type":"MultiPolygon","arcs":[[[254,255,256,257]]],"id":"goodall_focus","properties":{"name":"Goodall Focus","subjecto":"Goodall Focus","partof":"Goodall Focus","prec":1}},{"type":"MultiPolygon","arcs":[[[258]]],"id":"saugeen_complex","properties":{"name":"Saugeen Complex","subjecto":"Saugeen Complex","partof":"Saugeen Complex","prec":1}},{"type":"MultiPolygon","arcs":[[[-255,259,260,261]]],"id":"couture_complex","properties":{"name":"Couture Complex","subjecto":"Couture Complex","partof":"Couture Complex","prec":1}},{"type":"MultiPolygon","arcs":[[[262,263,264,-83]]],"id":"point_peninsula","properties":{"name":"Point Peninsula","subjecto":"Point Peninsula","partof":"Point Peninsula","prec":1}},{"type":"MultiPolygon","arcs":[[[-257,265,-261,266,-264,267,268,269,270,271,272]]],"id":"hopewell_culture","properties":{"name":"Hopewell Culture","subjecto":"Hopewell Culture","partof":"Hopewell Culture","prec":1}},{"type":"MultiPolygon","arcs":[[[-236,-226,273,-207,-210,-88,274,-246,275,276,-272,277,-270,278,279,-235,280,281,-232]]],"id":"plain_bison_hunters","properties":{"name":"Plain bison hunters","subjecto":"Plain bison hunters","partof":"Plain bison hunters","prec":1}},{"type":"MultiPolygon","arcs":[[[282]]],"id":"nazca","properties":{"name":"Nazca","subjecto":"Nazca","partof":"Nazca","prec":1}},{"type":"MultiPolygon","arcs":[[[283]]],"id":"glades_culture","properties":{"name":"Glades Culture","subjecto":"Glades Culture","partof":"Glades Culture","prec":1}},{"type":"MultiPolygon","arcs":[[[284]]],"id":"heruli","properties":{"name":"Heruli","subjecto":"Heruli","partof":"Heruli","prec":1}}]}},"arcs":[[[5926,5672],[11,-63],[18,-141]],[[5955,5468],[4,-25]],[[5959,5443],[2,-19],[17,-102],[7,-93],[14,-126],[-7,-164]],[[5992,4939],[-10,-30],[-32,-18],[-37,-6]],[[5913,4885],[-30,4],[-21,44],[-34,160],[-9,151],[9,195],[27,131],[7,54]],[[5862,5624],[26,0],[17,9],[21,39]],[[7211,5527],[-183,-226]],[[7028,5301],[-5,74],[-3,59],[10,45],[0,10],[-9,24],[-3,50],[1,21],[-11,-1],[-5,-21],[4,-20],[-4,-29],[-7,-12],[-24,-24],[-15,9],[-7,12],[-31,74],[-6,23],[17,-3],[13,8],[12,29],[-36,10],[-20,31],[-9,32],[-10,4],[-11,20],[-3,35],[-14,12],[0,27],[-7,27]],[[6845,5827],[26,198],[81,221],[107,96],[17,75]],[[7076,6417],[21,-3],[15,-7]],[[7112,6407],[-10,-110],[-9,-170],[2,-95],[17,-126],[41,-76],[54,-50],[0,-63],[-22,-32],[7,-31],[19,-45],[0,-82]],[[7211,5527],[28,-24]],[[7239,5503],[-6,-70],[8,-51],[60,-12],[39,6],[14,-17]],[[7354,5359],[-22,-59],[-8,-9],[-9,-27],[-28,-45],[-3,-32],[-13,-23],[-11,1],[-12,-45],[-6,9],[-12,-14],[-6,-34],[2,-93],[-2,-16],[6,-25]],[[7230,4947],[-38,-25],[-36,0],[-80,40]],[[7076,4962],[-10,64],[-16,70],[-12,85],[-10,120]],[[6380,5052],[-20,205]],[[6360,5257],[69,24],[48,-12],[43,-60],[-18,5],[-33,-30],[-7,-8],[-12,-28],[-2,-30],[-23,-32],[-45,-34]],[[6380,5052],[-10,-11],[-11,-30],[-11,-12],[-14,0],[-19,-27],[-21,-20],[-22,1],[-24,-42],[-7,0],[-7,-14],[-17,2],[-10,19],[-5,23],[2,23],[-16,138],[3,37],[-4,48],[-6,31],[-15,48],[-10,22],[-7,29],[-10,61],[-9,42],[-26,39],[-17,59],[-3,98],[37,12],[17,-25],[37,-122],[32,-111],[9,-37],[45,-64],[63,-26],[36,14]],[[8567,6519],[-1,-1]],[[8566,6518],[1,1]],[[7730,6984],[12,-5],[-7,-114],[27,-12],[31,-7],[7,57]],[[7800,6903],[15,19]],[[7815,6922],[36,-6],[20,-19],[12,-57],[22,-6],[29,12],[8,116],[12,62]],[[7954,7024],[16,24],[177,-56],[145,-13],[54,19],[24,63],[27,13],[26,-63],[67,57]],[[8490,7068],[14,-357],[1,3]],[[8505,6714],[-8,-18],[-5,20],[-5,4],[-8,-26],[-5,21],[-9,12],[-2,15],[6,23],[10,8],[-7,18],[8,39],[-11,19],[-10,-6],[-13,25],[-5,-6],[-24,-10],[-28,-30],[-15,-27],[-12,-9],[17,42],[-11,1],[-1,15],[24,58],[-10,27],[-9,10],[-11,-1],[-21,-51],[-12,-8],[-13,-14],[-11,-45],[-12,-4],[-7,-12],[-6,18],[-9,-3],[-9,-44],[5,-23],[17,-17],[15,1],[3,-8],[-2,-37],[4,-26],[18,3],[16,33],[14,11],[21,-28],[13,2],[14,-5],[-4,-41],[-11,9],[-28,-20],[-9,-14],[0,-24],[-7,-5],[-4,15],[-6,-4],[2,-15],[-8,-28],[-18,-36],[-1,-26],[8,-7],[19,-33],[5,-17],[5,-41],[8,-21],[1,-36],[11,-16],[5,-19],[10,-17],[1,-15],[-10,-12],[6,-12],[4,-26],[-2,-16],[-15,-8],[-12,-18],[-18,-17],[14,-8],[11,14],[9,0],[6,-20],[11,-6],[-3,-15],[-9,-15],[8,-7],[-6,-35],[-2,-33],[-5,-19],[-4,11],[-14,-49],[-5,-30],[-13,-34],[-12,-9],[3,-23],[-2,-36],[-4,-17],[-7,-7],[-7,-43],[-13,-27],[-12,7],[-4,-11],[2,-27],[-13,-25],[-12,-10],[-15,-26],[-2,-21],[-13,-5],[-5,-15],[-11,10],[-13,-19],[-8,-3],[0,15],[-23,-14],[-7,21],[-2,-44],[-8,-13],[-6,6],[-4,-22],[-20,-7],[-5,7],[-9,-19],[-12,-1],[-15,-18],[-9,3],[-4,-30],[10,-31],[-14,-14],[-6,24],[-3,35],[5,31],[-8,8],[-11,-14],[-8,7],[-7,24],[-5,-22],[-14,-3],[-13,-22],[-1,-22],[-16,2],[-1,-19],[-11,-38],[-11,-17],[-4,-13],[-8,-62],[23,-60],[1,-25],[-25,8],[-31,40],[-32,130],[-24,281],[-10,48],[-44,29],[-19,173],[81,308],[34,-6],[-5,101],[-5,126],[-16,32],[-30,13],[-21,12],[-25,0],[17,114],[-55,88],[-70,80],[-44,40],[-3,32],[12,25],[37,6],[31,19],[22,24]],[[7112,6407],[32,-17],[53,-162],[104,-227],[92,-108],[49,-25],[51,-6],[50,44],[42,19],[19,-25],[-2,-57],[-8,-50],[-37,-134],[-14,-45],[-5,12],[-14,-11],[-8,29],[-3,-20],[4,-26],[-1,-19],[-6,-3],[-6,-21],[-8,29],[-2,-22],[-6,-9],[-4,17],[-6,-21],[-5,9],[-1,-16],[-8,-1],[-5,26],[-5,-23],[-3,1],[-6,25],[-11,-27],[-23,-28]],[[7411,5515],[-20,271],[-17,63],[-24,26],[-22,-19],[-22,-228],[-22,-56],[-36,-19],[-7,-26],[-2,-24]],[[8042,5423],[10,-8],[4,10],[16,6],[7,-23],[-12,-34],[-5,-44],[-16,-15],[-7,-23],[-22,28],[-2,51],[17,36],[7,-2],[3,18]],[[7214,4592],[2,17],[-3,20],[6,-1],[7,38],[-1,18],[15,-28],[12,-49],[-1,-16],[7,-11],[4,-23],[10,-45],[1,-17],[-7,-46],[-11,-26],[-18,-11],[-9,9],[-6,32],[-5,41],[0,75],[-3,23]],[[2418,5327],[23,13],[0,-18],[11,-7],[7,16],[-7,14],[14,20],[8,20],[1,27],[6,14],[0,53],[3,22],[8,11],[34,19],[20,14],[20,-8],[12,3],[7,-16],[0,-24],[-20,-57],[0,-22],[-6,-22],[6,0],[-6,-86],[-8,37],[-4,-11],[-3,-32],[8,6],[0,-14],[-5,-40],[2,-9],[-3,-26],[3,-10],[-6,-42],[-8,-12],[-6,-27],[8,-13],[1,19],[10,-17],[19,12],[-18,-78],[-52,-78],[-15,14],[-17,0],[-7,8],[-27,53],[-31,69],[12,89],[6,116]],[[3392,7599],[14,44],[19,42],[15,21],[16,6],[4,-9],[-14,-13],[4,-14],[-24,-72],[-2,-27],[6,6],[12,24],[14,-10],[-11,-22],[24,-28],[9,1],[4,14],[13,0],[18,-14],[-17,-33],[10,-22],[15,9],[3,-9],[-8,-17],[-13,-8],[8,-32],[7,15],[6,-5],[1,-24],[10,-7],[-10,-52],[-15,11],[0,21],[-8,-13],[-6,9],[7,32],[-9,18],[-10,-23],[-10,-11],[-13,-28],[-11,1],[-1,12],[15,13],[14,29],[-16,6],[-4,-15],[-7,5],[0,16],[-9,-1],[-7,-16],[-13,-2],[-36,11],[-30,-7],[-4,21],[18,30],[15,16],[-15,8],[8,24],[11,3],[5,9],[-9,21],[7,36]],[[4911,7685],[2,-38]],[[4913,7647],[-11,-3],[-1,-18],[-9,-12],[-10,14],[-20,-13],[-9,-18],[-14,12],[15,16],[6,15],[12,16],[1,16],[8,13],[12,4],[18,-4]],[[2871,3054],[-19,97],[-11,18],[1,30],[-38,190],[-21,74],[-7,31],[-15,28],[-20,24],[20,22],[7,31],[8,4],[12,-18],[4,-44],[25,-71],[33,-187],[29,-93],[10,-89],[-18,-47]],[[6168,4986],[8,-29],[0,-14]],[[6176,4943],[1,-7],[-53,-9],[-26,0],[-35,12],[-11,25],[-2,48],[6,36],[7,24],[34,29],[8,-27],[3,30],[13,-43],[10,1],[28,-75],[9,-1]],[[6845,5827],[-19,-13],[-37,-10],[-10,16],[-12,-4],[-6,-13],[-27,0],[-31,-10],[-13,5],[-11,15],[-32,3]],[[6647,5816],[7,141],[90,530]],[[6744,6487],[215,19],[71,-19],[31,-32],[15,-38]],[[7411,5515],[3,-35],[-8,-36],[-15,-28],[-20,-15],[-7,-12],[-10,-30]],[[7230,4947],[-2,-36],[-13,-79],[-2,-21],[4,-79],[-1,-8],[-16,-4],[-8,-50],[6,-16],[-23,-20],[-5,-36],[-7,-18],[-11,-16],[-4,2],[-18,47],[-5,30],[-4,45],[-9,58],[-11,63],[-13,49],[-12,104]],[[4553,6047],[-16,-35],[-19,-2],[1,19],[12,3],[22,15]],[[4624,6112],[3,-25],[-10,-15],[-3,-49],[-18,-11],[11,25],[9,47],[8,28]],[[4572,6023],[5,-22],[-10,-12],[-9,12],[14,22]],[[5494,7390],[-53,55]],[[5441,7445],[16,124],[38,62],[32,-41],[12,-164],[-45,-36]],[[6261,6735],[99,59]],[[6360,6794],[-4,-40],[-3,-42],[3,-16],[18,-16],[15,-5],[6,-23],[9,-15],[24,-17],[10,-2],[37,15],[19,3],[7,19],[90,83],[102,-56],[51,-195]],[[6647,5816],[-8,-2],[-8,16],[-23,0],[-3,8],[-15,11],[-9,48],[-4,37],[-10,10],[-15,0],[-13,-11],[-22,-41],[-16,22],[-12,4],[-7,11],[-13,11],[-14,38],[-12,14],[-10,4],[-7,15],[-16,71],[-2,28],[-16,48],[-12,-5],[-11,7],[-2,27],[-8,-6],[-6,-28],[-18,-3]],[[6335,6150],[-123,182],[-16,211],[65,192]],[[5715,6611],[0,0]],[[5705,6610],[0,0]],[[5724,6652],[0,0]],[[5685,6642],[-6,-8],[-5,7],[8,9],[3,-8]],[[5693,6633],[0,0]],[[5698,6640],[0,0]],[[5701,6641],[0,0]],[[5681,6668],[0,0]],[[5677,6700],[0,0]],[[5676,6681],[0,0]],[[5690,6697],[0,0]],[[5684,6724],[3,8],[20,-41],[-4,-3],[-19,36]],[[5684,6660],[0,0]],[[5692,6656],[10,17],[0,-14],[-10,-3]],[[5709,6656],[-6,10],[6,9],[0,-19]],[[5650,6800],[10,-16],[10,-5],[4,-33],[8,-3],[-1,-14],[-6,1],[-8,29],[-10,2],[-1,8],[-14,25],[-7,-2],[10,15],[5,-7]],[[5726,6532],[0,-16],[-7,2],[-34,-8],[0,11],[-10,9],[-21,3],[-1,23],[12,-3],[7,-10],[15,3],[21,-10],[6,2],[2,-14],[10,8]],[[5241,6804],[-9,22],[4,46],[-2,38],[-7,14],[1,14],[15,1],[15,23],[14,-45],[-5,-34],[2,-29],[-6,-40],[-12,6],[-10,-16]],[[5257,7085],[3,7],[3,-42],[-1,-26],[-8,-50],[-12,15],[0,23],[-6,19],[3,25],[11,15],[6,-2],[1,16]],[[5938,6524],[4,-13],[-11,0],[-1,-11],[-25,-13],[-9,7],[-4,24],[10,8],[7,-3],[1,18],[16,-4],[31,24],[-19,-31],[0,-6]],[[5494,7390],[31,24],[-2,-134],[37,-22],[6,-35],[15,-10],[7,20],[15,-6],[32,175],[62,31],[62,-58],[-7,-61],[-42,-30],[4,-124],[31,19],[33,14],[-2,40],[7,40],[39,-6],[3,-10],[-7,-25],[-11,-3],[-11,-28],[-3,-21],[-3,-52],[-12,-6],[-5,-48],[-10,-16],[12,-32],[5,-35],[8,-11],[19,-17],[-7,-21],[-18,11],[-7,-8],[-12,1],[-6,-22],[-18,-19],[-10,-23],[-2,16],[10,14],[-12,8],[-4,18],[-19,3],[-8,9],[-8,-10],[-10,6],[-13,-17],[-7,3],[4,-21],[14,-22],[-14,16],[-4,-12],[6,-5],[-2,-13],[-5,15],[-9,3],[9,-22],[-9,3],[-4,21],[-11,16],[3,12],[-10,-11],[3,-7],[-3,-20],[9,-38],[12,-28],[-11,11],[-3,-5],[4,-19],[-11,-11],[19,-15],[11,-23],[7,0],[5,-43],[-4,-5],[-10,27],[-14,-8],[2,-22],[7,-1],[3,-12],[-12,-6],[-10,8],[7,-32],[3,-32],[-9,10],[-8,-16],[-11,36],[-6,-15],[-6,22],[2,21],[-11,36],[6,20],[8,-4],[5,10],[23,-23],[11,15],[-22,19],[-14,3],[-18,-8],[-12,36],[11,11],[-4,8],[-9,-2],[-13,23],[-5,30],[-19,32],[4,10],[-4,14],[5,20],[0,25],[-3,9],[5,16],[0,15],[-13,12],[-6,21],[-11,9],[-26,39],[-17,32],[-17,13],[-8,-5],[-5,15],[-13,21],[-8,22],[11,-1],[-15,23],[-1,28],[-17,28],[-4,-27],[-9,-14],[-6,21],[-4,30],[8,8],[-4,10],[-6,-5],[-8,6],[-2,-10],[-18,-14],[-7,-13],[9,-24],[-7,-15],[2,-27],[10,-26],[25,-29],[14,-67],[12,-28],[11,-18],[15,-9],[15,4],[5,-12],[-9,-17],[4,-7],[26,-23],[30,-36],[14,-36],[-4,-25],[-10,14],[-5,22],[-12,3],[-5,15],[-8,-1],[-9,-28],[-2,-29],[17,-20],[-2,-36],[-8,0],[-8,-14],[2,-19],[-7,-10],[-8,-28],[-11,5],[0,16],[8,23],[-3,6],[11,11],[-6,47],[-9,48],[-7,-8],[-15,19],[2,22],[-6,11],[-11,-8],[1,19],[-9,-6],[-7,31],[-23,12],[-9,12],[-32,61],[-11,13],[-10,21],[-7,28],[-6,34],[-10,29],[-28,24],[-7,-1],[-19,-33],[-12,-7],[-28,-52],[-20,-9],[-11,6],[-10,16],[-18,1],[-9,10],[-17,-12],[-11,-27],[-2,-12],[3,-66],[-25,-30],[-4,-11],[-21,-10],[-12,-10],[-5,-17],[2,-9],[-7,-5],[-8,-25],[-11,-26],[-6,-33],[6,-34],[9,-16],[-17,-22],[-6,-19],[-6,-30],[2,-10],[-15,-5],[-13,-19],[-3,-24],[-9,-16],[-10,6],[-10,-6],[-41,-1],[-9,-17],[-12,-6],[-6,-24],[-7,-5],[-15,20],[-2,21],[-10,33],[-16,15],[-8,-2],[-9,-12],[-23,6],[-9,-10],[4,39],[0,71],[-11,-6],[-1,14],[9,9],[-3,13],[-3,-14],[-10,-3],[3,40],[8,29],[12,98],[-6,56],[7,47],[-8,29],[-8,6],[-1,11],[7,16],[20,6],[2,19],[7,9],[9,-2],[14,-12],[19,1],[13,10],[13,-9],[20,-8],[27,-2],[12,-5],[11,13],[7,-1],[11,-15],[12,-2],[10,16],[7,75],[1,41],[3,27],[9,-13],[-11,27],[5,23],[-5,21],[-13,11],[-12,29],[4,14],[-16,20],[3,12],[-10,0],[-31,30],[-12,-6],[-9,17],[11,3],[-8,11],[7,10],[-12,-3],[0,15],[21,13],[11,-3],[2,8],[13,5],[8,-21],[12,7],[4,-6],[21,6],[-3,6],[0,34],[-9,21],[-1,13],[19,0],[2,-27],[4,5],[22,-8],[16,12],[-7,4],[3,12],[9,11],[21,13],[8,16],[1,43],[12,13],[11,3],[16,19],[19,1],[40,58],[48,-39],[0,-46],[20,-34],[4,-35],[16,-4],[7,-40],[-18,-36],[-5,-33],[24,-21],[59,40],[20,3],[21,29],[71,-69],[28,26],[9,-8],[-5,-41]],[[5419,6692],[5,-29],[-7,-22],[-11,2],[-12,20],[-33,34],[-11,4],[-5,14],[10,25],[7,-4],[8,11],[13,-18],[27,7],[17,10],[2,-7],[-10,-47]],[[4911,7685],[8,15],[4,18],[-12,-12],[-9,-1],[-18,16],[-23,2],[-7,11],[5,11],[21,14],[5,12],[-1,33],[-13,0],[9,19],[10,8],[29,5],[-4,18],[4,47],[-10,-2],[-9,20],[11,29],[45,7],[5,-17],[14,-10],[16,-37],[0,-33],[11,-14],[5,-18],[-7,-25],[9,-6],[11,14],[18,-6],[6,-12],[2,-24],[-5,-21],[-13,-15],[-9,-19],[-12,-7],[30,-8],[0,-16],[-19,-14],[-13,-15],[-15,7],[-14,-7],[-7,7],[-27,-9],[1,-9],[-14,0],[-12,11],[-4,-5]],[[5977,5748],[-43,-28],[1,-34],[-9,-14]],[[5926,5672],[0,0]],[[5862,5624],[-74,366],[-46,60],[-123,100],[-28,0],[-54,-40],[-21,0],[-115,127],[-128,127],[-34,80],[-18,107],[-461,-172],[9,15],[27,26],[9,13],[14,42],[16,92],[10,10],[11,-32],[16,-20],[32,2],[12,16],[5,-18],[22,-7],[15,13],[10,29],[20,17],[9,-9],[8,21],[16,26],[8,5],[41,8],[8,11],[14,-5],[11,13],[19,0],[20,-12],[25,13],[8,18],[17,-20],[10,18],[7,-2],[10,-19],[20,8],[22,28],[9,1],[11,-13],[4,-26],[8,3],[13,20],[-3,-30],[-12,-32],[3,-23],[11,-19],[3,-28],[-7,-32],[-8,-11],[-15,-41],[11,-32],[10,-12],[9,5],[3,-21],[25,-27],[12,-10],[18,4],[27,-8],[7,-16],[16,-7],[7,-14],[3,-27],[14,-37],[13,-9],[30,-12],[15,-17],[27,-40],[11,3],[18,34],[4,17],[-5,47],[4,31],[8,19],[19,24],[17,14],[25,-7],[13,-18],[4,-24],[15,-5],[9,-10],[22,-2],[12,-34],[25,4],[45,-23],[4,-13],[17,-3],[20,-15],[12,22],[12,13],[24,17],[20,-6],[3,-15],[7,-12],[7,5],[13,-9],[7,13],[15,-12],[17,19],[9,28],[9,76],[3,3],[16,102],[10,22],[-4,23],[2,38],[-6,11],[7,30],[-5,22],[12,25],[-6,21],[-18,-28],[-16,19],[-5,-2],[-20,-35],[-16,-12],[-15,2],[-8,9],[-12,27],[-15,15],[-13,6],[-9,-2],[-3,-42],[-23,-7],[-10,6],[-8,38],[-5,-11],[-10,14],[-12,-15],[-1,28],[-19,0],[6,16],[-10,16],[-1,39],[-12,15],[-8,0],[2,25],[7,-12],[7,8],[-8,18],[9,13],[-12,31],[10,22],[-22,-8],[1,40],[16,27],[14,6],[14,-12],[19,8],[16,-5],[-4,21],[27,9],[-15,0],[-9,17],[4,17],[28,-6],[3,4],[13,-11],[14,1],[4,17],[29,34],[20,14],[12,3],[30,-8],[10,12],[2,-17],[9,-13],[15,4],[6,-24],[6,-8],[12,3],[12,-18],[39,-8],[20,10],[18,-8],[10,1],[25,23],[7,13],[4,24],[8,1]],[[6165,7007],[-5,-102],[-3,-137],[82,-36],[22,3]],[[6335,6150],[-5,-5],[3,-29],[-11,-16],[5,-6],[9,6],[4,-28],[-105,33],[-45,119],[-98,73],[-55,-35],[-25,-141],[-12,-20],[-26,-5],[-3,18],[-6,-16],[-6,-37],[-6,-65],[-8,-3],[-20,55],[-4,32],[-6,15],[-9,47],[-6,-5],[-3,-17],[9,-56],[20,-62],[16,-98],[5,-15],[11,-56],[19,-85]],[[6165,7007],[22,4],[57,-8],[61,-26],[54,-78],[20,-5],[-11,-89],[-4,12],[-4,-23]],[[5973,7228],[-19,-8],[-10,-19],[-17,8],[4,33],[35,13],[7,10],[7,-4],[15,9],[19,-4],[-7,-21],[-11,-5],[-14,4],[-9,-16]],[[3031,7386],[-53,37],[-39,29],[-52,-47]],[[2887,7405],[-163,115],[-86,14],[-77,60],[-91,2]],[[2470,7596],[10,23]],[[2480,7619],[-12,26],[-79,0],[-36,35],[-25,92],[26,56],[-1,51],[-26,37],[-24,50],[-110,-32],[-14,-53],[9,-45],[27,-21],[43,-54],[43,-132]],[[2301,7629],[-1,-22]],[[2300,7607],[-48,9],[-174,89],[-258,39]],[[1820,7744],[-16,2],[-296,229],[-80,-10]],[[1428,7965],[-35,-4]],[[1393,7961],[-4,21],[-2,-14],[-11,-9],[-9,7],[2,29],[-13,41],[-16,-2],[-14,-11],[-1,20],[5,16],[-21,48],[-15,15],[2,11],[-8,26],[4,8],[-10,11],[-8,17],[-19,24],[-9,44],[-9,12],[-1,-27],[6,-43],[-13,7],[-11,31],[-7,-4],[-15,7],[16,-23],[0,-7],[-20,-6],[-14,12],[-24,40],[-21,8],[-16,18],[12,8],[-6,20],[-16,-10],[-21,1],[-13,8],[-2,14],[-27,-5],[-19,4],[-27,-2],[-9,3],[-12,17],[-5,17],[-14,-13],[-11,10],[-3,11],[-16,12],[-19,8],[-19,19],[-15,-10],[1,-14],[-11,-24],[14,-9],[1,-23],[-5,-14],[-23,9],[-7,-3],[-12,-20],[-14,-7],[-24,-29],[-14,-4],[3,14],[9,13],[-9,33],[10,19],[7,29],[20,18],[28,-3],[3,5],[-27,28],[-13,-2],[-16,-24],[-24,-22],[-10,-19],[-9,-8],[0,-28],[-7,-11],[-16,-7],[-16,-29],[5,-15],[18,-11],[-6,-17],[-15,-16],[-12,-25],[-26,-13],[-9,-13],[-21,-23],[5,-22],[-14,-13],[-21,-11],[-22,-23],[-5,-19],[-10,-14],[-30,-14],[-12,12],[4,17],[9,9],[10,19],[14,14],[18,-2],[-1,23],[27,38],[3,49],[9,16],[3,26],[-24,-10],[-8,1],[-6,19],[-11,-9],[1,-30],[-7,2],[-19,33],[-17,5],[-12,-3],[-8,-16],[-14,-5],[-8,3],[-4,41],[4,17],[-2,14],[-11,33],[-32,-24],[-13,-3],[-16,30],[-13,15],[-2,9],[8,20],[25,-15],[12,7],[-11,24],[-18,-7],[-24,23],[-13,1],[-8,34],[9,6],[1,15],[7,7],[4,21],[11,16],[15,38],[5,6],[28,-16],[9,5],[14,22],[15,9],[22,2],[4,6],[1,25]],[[529,8611],[301,-48],[151,-9],[143,-57],[197,6],[208,169],[188,-153],[100,-153],[92,-148],[253,-97],[232,-25],[30,-2],[9,10]],[[2433,8104],[6,0],[24,14],[24,-2],[20,-15],[27,-14],[24,-30],[12,-30],[44,-22],[20,-20],[19,-12],[25,4],[33,-12],[5,-6],[-5,-51],[6,-20],[-1,-47],[-4,-26],[14,-20],[3,-11],[0,-28],[12,-3],[12,-16],[9,-19],[5,-24],[8,-1],[21,-33],[-7,31],[9,24],[12,-32],[4,30],[-3,15],[7,17],[1,18],[-7,35]],[[2812,7798],[127,13],[88,164],[149,5],[77,-39],[74,-101]],[[3327,7840],[1,-2]],[[3328,7838],[39,-52],[74,64]],[[3441,7850],[9,-22],[-9,-40],[13,-30],[-37,-51],[-43,-8],[-17,-39],[-16,-24],[-12,-7],[-42,-10],[-43,6],[-18,-4],[-48,5],[-22,-4],[-13,-16],[-13,-48],[-28,-14],[-13,-19],[-20,-37],[-30,-74],[-8,-28]],[[7730,6984],[11,96],[148,-13],[65,-43]],[[7815,6922],[-15,-19]],[[7053,7264],[-14,-62],[-56,8],[2,150],[60,78],[46,-26],[1,-41],[-34,-45],[-5,-62]],[[8953,3194],[8,-13],[3,-17],[2,-43],[10,-15],[-5,-30],[8,-11],[4,-28],[1,-42],[8,-58],[9,-9],[9,16],[4,-22],[18,-27],[1,-45],[3,-25],[0,-35],[15,-51],[4,-48],[-2,-28],[11,-60],[21,-31],[9,-4],[5,-21],[16,-23],[15,-2],[-4,-33],[4,-14],[11,-15],[12,-99],[13,-22],[-2,29],[19,-21],[4,-14],[1,-57],[11,-25],[15,-15],[9,-42],[7,-6],[6,-39],[10,-20],[5,-43],[0,-56],[-3,-24],[12,-57],[3,-52],[-4,-23],[-4,-54],[-8,-57],[1,-52],[-4,-26],[-8,-31],[-2,-22],[-8,-27],[-11,-9],[-11,-37],[-4,-50],[-11,-37],[-2,-39],[-15,-32],[-6,-67],[-1,-52],[-3,-21],[-10,-21],[-34,-7],[-7,-5],[-34,-54],[-14,-4],[6,-21],[-27,33],[-1,21],[-15,27],[-15,-13],[9,-15],[-12,-8],[-27,-30],[-18,22],[-22,18],[-10,-8],[-9,6],[-16,21],[-18,38],[-5,28],[1,34],[-3,29],[-8,24],[-3,31],[-6,1],[-10,-13],[-12,-6],[-4,8],[6,15],[4,45],[-13,41],[-6,-24],[-5,-46],[-21,-11],[5,29],[8,-1],[4,13],[-1,33],[10,42],[1,26],[5,5],[2,18],[-8,33],[-2,-23],[-10,-18],[-10,-47],[-10,-7],[-17,-35],[-11,-48],[-5,11],[-5,43],[-6,29],[-8,26],[-6,31],[-12,1],[-3,16],[4,21],[-11,29],[-20,0],[-12,18],[-9,-5],[-10,7],[-20,31],[-12,-7],[-46,-5],[-16,-11],[-13,-14],[-25,-17],[-33,-4],[-12,-9],[-22,-28],[-17,-14],[-17,-56],[-7,-9],[-17,1],[-16,-11],[-12,16],[-9,-1],[-32,-11],[-14,0],[-12,-33],[-18,-2],[-13,-35],[-19,-12],[-27,5],[-17,18],[-9,22],[-16,15],[-2,49],[12,-1],[7,29],[3,44],[-1,40],[-5,39],[-14,62],[-4,48],[0,32],[-8,58],[-18,63],[1,29],[-11,54],[-13,33],[-1,26],[9,-37],[9,-7],[-5,38],[-8,23],[1,10],[9,-27],[7,-32],[5,-2],[-1,18],[4,19],[-16,60],[-5,23],[-2,43],[9,36],[2,22],[-4,66],[8,38],[5,-41],[6,3],[5,34],[24,36],[22,44],[8,11],[33,6],[10,20],[18,7],[7,23],[8,2],[10,-7],[20,11],[18,22],[14,40],[5,30],[18,34],[-4,61],[14,36],[5,23],[7,-20],[11,-52],[3,34],[9,-10],[1,24],[-9,16],[1,22],[11,-2],[8,-8],[12,2],[-10,17],[2,44],[8,13],[9,-12],[4,43],[0,17],[9,10],[10,-2],[7,36],[5,9],[7,-20],[9,41],[9,-20],[10,-10],[12,-36],[3,-49],[10,35],[21,-7],[12,-21],[6,33],[-11,24],[-1,13],[10,21],[0,15],[14,33],[-1,15],[6,28],[14,10],[-3,13],[9,15],[10,-12],[24,5],[10,12],[-4,30],[-16,27],[9,6],[8,-17],[8,0],[17,-30],[24,-13],[10,5],[4,-20],[7,-3],[7,14],[14,-13],[4,-15],[6,4],[4,29],[12,-24],[-6,-13],[-5,-43],[-6,-1],[-12,-18],[4,-30],[-2,-22],[-12,-35],[-2,-15],[7,-20],[13,-20],[16,-42],[11,0],[19,-27],[14,-32],[19,-11],[8,-32],[16,-24],[12,-2],[15,17],[9,44],[5,36],[3,43],[9,46],[-7,34],[5,46],[-4,22],[2,55],[9,25],[-6,17],[7,38],[5,57],[6,18]],[[9074,821],[-20,23],[-7,12],[-15,55],[11,-8],[-1,17],[-17,46],[-6,40],[-1,22],[34,-21],[13,-12],[10,1],[15,11],[9,-1],[13,17],[6,-12],[1,-52],[-9,-49],[-5,-34],[-12,-9],[-7,-13],[-8,-31],[-4,-2]],[[9059,7127],[0,0]],[[9079,7155],[0,0]],[[9065,7196],[4,-5],[-12,-8],[-8,-23],[-11,-7],[10,16],[9,30],[8,-3]],[[9125,7259],[-16,-20],[-9,-4],[-11,-29],[-11,-10],[9,20],[-1,7],[21,31],[12,3],[11,18],[4,-12],[-9,-4]],[[9153,7280],[4,19],[18,26],[5,-1],[-27,-44]],[[9190,7342],[0,0]],[[9187,7361],[0,0]],[[9233,7410],[0,0]],[[9251,7441],[0,0]],[[9254,7465],[0,0]],[[9281,7521],[0,0]],[[9277,7524],[0,0]],[[9293,7535],[0,0]],[[9298,7569],[4,3],[-5,-26],[1,23]],[[9289,7587],[0,0]],[[9226,7387],[0,0]],[[9318,7608],[-7,-5],[1,18],[10,6],[8,23],[6,4],[1,-17],[-10,-24],[-9,-5]],[[9337,7653],[9,7],[-2,-15],[-7,8]],[[9317,7664],[0,0]],[[8973,7821],[2,-40],[-5,-40],[0,-25],[3,-25],[8,-27],[8,-48],[11,-52],[14,-55],[-26,35],[-12,2],[-9,-10],[-6,-34],[-4,-54],[4,-32],[10,-37],[7,-6],[6,-21],[-4,-41],[-9,41],[-10,10],[-8,-11],[-12,-47],[-6,16],[-2,31],[8,37],[-5,29],[9,35],[-2,23],[-7,38],[5,10],[4,30],[1,68],[2,43],[-4,39],[-10,28],[-2,29],[6,30],[-1,46],[12,2],[13,18],[11,-35]],[[8888,6976],[3,41],[-9,12],[-2,26],[22,31],[-4,21],[7,10],[13,-17],[6,7],[0,38],[11,14],[1,52],[-6,40],[10,18],[32,-70],[13,-22],[15,-15],[16,-8],[21,29],[-8,-33],[10,-45],[-12,-16],[-12,-6],[-11,6],[-9,-12],[-14,-42],[-4,-19],[-35,41],[-15,1],[-13,-19],[-7,22],[-13,-14],[1,-10],[14,-16],[11,-18],[-5,-7],[-11,2],[-9,-26],[-7,4]],[[8490,7068],[28,25],[82,-97],[0,-27],[-4,-43],[-9,-4],[-20,-41],[-21,-14],[-7,-18],[-4,-29],[18,-38],[17,-41]],[[8570,6741],[-24,-37]],[[8546,6704],[-25,-39]],[[8521,6665],[-16,49]],[[8559,6533],[7,-15]],[[8566,6518],[-7,-18],[-10,10]],[[8549,6510],[7,29],[3,-6]],[[8559,6533],[-13,171]],[[8570,6741],[16,-60],[3,-21],[-2,-76],[8,-2],[-11,-55],[-7,-12],[-10,4]],[[8549,6510],[-12,-10],[-15,-27],[-11,-11],[-6,64],[9,30],[3,26],[-6,14],[-2,36],[-11,7],[12,17],[8,-9],[3,18]],[[7927,9245],[19,8],[12,14],[36,6],[60,22],[13,9],[-7,17],[10,17],[11,-7],[8,-12],[15,-8],[20,0],[14,8],[6,-2],[3,-26],[6,-13],[18,25],[21,1],[19,4],[29,0],[50,-7],[-4,-25],[5,-10],[25,-5],[33,-10],[46,5],[18,-11],[17,30],[0,25]],[[8430,9300],[29,-139],[175,-122],[695,-125],[340,-52],[101,-115],[19,-202],[-82,-136],[24,-66]],[[9731,8343],[-2,-19],[-11,-10],[-7,10],[-5,20],[-8,10],[-26,0],[-31,-12],[-30,-40],[-2,4],[7,42],[-12,0],[-10,-17],[-13,-11],[-2,-16],[-8,-6],[-13,30],[-10,-14],[-10,-5],[-10,-25],[6,-13],[-14,-23],[4,-5],[-19,-30],[-11,-28],[-1,-17],[12,-13],[17,1],[8,-10],[-14,-28],[-3,-10],[7,-31],[10,-3],[1,-33],[-4,-12],[-13,5],[5,24],[-11,-7],[-13,-28],[-10,-41],[4,-22],[10,-18],[-12,-23],[-25,2],[-7,-6],[-13,-20],[-7,-16],[0,-21],[6,-24],[-16,-8],[-24,-22],[-2,-45],[-14,-39],[-33,-51],[-10,69],[0,26],[-9,37],[-9,74],[0,18],[-6,62],[-1,26],[5,72],[2,7],[24,42],[9,30],[-3,16],[20,12],[23,20],[30,42],[7,25],[33,43],[19,29],[8,23],[16,14],[26,17],[14,39],[-7,7],[10,29],[2,29],[7,7],[28,4],[-6,11],[-26,7],[-31,-15],[0,-11],[-8,-30],[1,-11],[-14,-7],[-20,-23],[-25,-34],[-17,-10],[6,26],[-12,3],[-2,8],[12,41],[-5,7],[-21,-15],[-11,17],[-48,-11],[-19,-17],[0,-20],[-21,-25],[2,-16],[-16,-12],[-23,-29],[-11,-30],[0,-13],[7,-7],[16,-1],[4,-13],[-27,-13],[-22,6],[-18,-17],[-8,11],[-24,-17],[-9,7],[1,10],[22,9],[-9,21],[-11,7],[-28,-3],[-11,14],[-19,0],[-9,-8],[1,-13],[-9,-15],[-14,12],[-26,-5],[-19,7],[-7,-2],[-3,-20],[-12,4],[-3,21],[-71,-4],[-14,-9],[-12,-15],[-16,-32],[-21,-19],[-15,-43],[-32,-37],[-15,-23],[-31,-60],[-20,-28],[-34,-41],[-8,-12],[-3,-22],[6,-9],[17,-2],[22,4],[-4,-55],[11,0],[8,12],[9,-4],[-8,-23],[25,-2],[7,8],[5,17],[0,20],[27,0],[20,-21],[6,-19],[22,-35],[-8,-16],[6,-10],[-171,-49],[-210,-147],[-205,92],[-90,246],[-75,354],[-168,20],[-235,-301],[1,-28],[-162,87],[-426,-5],[-362,-99],[-173,101]],[[6641,8065],[103,38],[362,323],[628,605],[193,214]],[[5699,8704],[-2,19],[-14,4],[-11,14],[-10,1],[-18,-8],[-16,18],[-12,-16],[-7,-19],[-12,-6],[-7,-11],[6,-14],[-15,-22],[12,-24],[-9,-12],[-10,-29],[-28,-31],[-10,4],[-7,-18],[-16,-16],[-5,-14],[-12,0],[-1,-24],[-35,5],[-32,-47],[-108,2],[-38,159],[23,29],[10,-6],[1,15],[14,21],[6,16],[11,-2],[0,20],[-6,4],[11,34],[11,-2],[2,19],[12,3],[-12,20],[6,16],[17,0],[-7,17],[29,22],[-6,8],[11,14],[12,-4],[10,15],[-5,10],[14,17],[9,-13],[7,13],[-4,21],[15,0],[-5,16],[15,15],[4,15],[15,6],[6,22],[7,-8],[12,4],[16,-9],[16,41],[6,-3],[-5,-28],[10,14],[5,19],[11,3],[8,14],[14,-15],[11,30],[12,-4],[13,-16],[8,24],[9,15],[11,-1],[10,20],[23,11],[12,0],[-17,-25],[-4,-30],[5,-2],[9,19],[19,30],[9,9],[1,-38],[14,14],[11,28],[19,4],[3,-5],[-9,-17],[-3,-21],[11,-4],[3,14],[11,22],[6,-1],[21,-18],[20,-5],[9,-17],[-15,-13],[-43,1],[23,-22],[5,-10],[28,4],[17,-6],[20,16],[4,-18],[11,-16],[19,-6],[1,-19],[9,10],[50,-4],[50,-26],[12,-12],[28,-35],[34,-15],[25,-20],[5,-9],[1,-24],[6,-20],[-11,-27],[-24,-26],[-22,-12],[-32,-2],[-63,18],[-45,27],[-20,5],[-12,21],[-10,4],[-12,-3],[15,-25],[20,-25],[30,-22],[5,-16]],[[5964,8741],[-265,-37]],[[5964,8741],[-3,-22],[-9,-6],[4,-21],[9,-31],[3,-22],[6,-6],[26,-7],[6,-20],[33,-12],[14,7],[3,20],[-4,13],[-18,1],[-7,6],[-12,26],[9,22],[6,0],[14,-15],[44,-25],[12,-3],[10,5],[9,-5],[4,20],[-13,29],[-4,21],[3,10],[39,27],[24,33],[29,-11],[21,-17],[10,43],[-4,35],[-15,12],[15,33],[-2,27],[-9,17],[5,12],[18,-8],[25,4],[8,-4],[22,-49],[-33,-5],[-10,-7],[-6,-16],[14,-16],[9,-18],[19,-9],[33,7],[4,5],[10,49],[15,6],[16,14],[36,22],[37,19],[12,10],[2,-15],[11,1],[8,24],[14,9],[10,-2],[-3,-32],[-10,-3],[-3,-12],[9,-6],[26,8],[5,-8],[11,25],[5,6],[24,6],[23,-8],[14,3],[12,15],[23,11],[16,-11],[-8,-15],[2,-7],[17,-7],[5,20],[16,1],[12,16],[1,14],[-17,34],[19,19],[34,-2],[46,-18],[26,-17],[14,-3],[34,-22],[45,-49],[8,2],[17,43],[-17,1],[-11,22],[0,21],[-9,9],[-25,5],[2,24],[13,19],[-4,35],[-14,2],[-3,10],[4,17],[28,22],[14,16],[14,34],[7,39],[8,14],[24,-7],[40,7],[22,-1],[7,-4],[4,-20],[-10,-38],[-17,-27],[-2,-11],[9,-12],[15,-32],[3,-27],[-10,-19],[4,-39],[-1,-42],[9,-32],[13,-8],[2,-10],[-6,-16],[-9,-37],[-26,-36],[-14,-15],[4,-17],[-20,-11],[-29,14],[-20,-5],[3,-10],[16,-15],[20,-7],[48,-5],[10,24],[17,10],[14,16],[8,29],[11,10],[10,21],[-2,30],[-7,17],[3,18],[11,8],[18,5],[22,1],[19,-23],[2,-25],[-4,-34],[15,-16],[16,-1],[11,5],[2,9],[-17,12],[-12,2],[0,12],[13,13],[-9,48],[-7,9],[-50,20],[-19,-9],[-28,5],[-7,43],[4,22],[13,37],[-16,42],[-13,22],[11,18],[15,4],[21,20],[5,28],[-2,22],[17,-7],[-1,-33],[-8,-20],[0,-32],[10,-18],[37,-10],[21,-3],[10,-13],[14,0],[-7,29],[-6,9],[-36,6],[-14,19],[3,11],[17,2],[20,-8],[9,5],[-1,23],[16,7],[16,0],[31,-19],[14,-17],[23,-14],[23,-1],[9,6],[1,-11],[-18,-21],[-5,-57],[4,-4],[9,25],[8,8],[8,-17],[-1,-24],[18,15],[-1,10],[-14,43],[11,31],[-10,15],[-21,16],[-3,13],[-37,16],[-4,10],[0,31],[-11,22],[11,17],[29,4],[31,0],[45,10],[10,-12],[24,18],[18,3],[7,-6],[-12,-11],[-5,-13],[28,11],[15,21],[-4,15],[-16,14],[-4,10],[4,25],[64,49],[21,7],[45,7],[54,16],[31,22],[35,-1],[5,-6],[-5,-13],[32,-2],[32,13],[12,1],[21,-7],[9,6],[0,17],[6,11],[23,1],[16,12],[-8,17],[1,11],[15,14],[19,12],[28,14],[16,2],[31,-2],[10,-8],[1,-9],[-19,-13],[-8,-11],[6,-5],[23,4],[19,-5],[26,3],[-3,-13],[-14,-15],[-4,-10],[35,1],[3,-3],[13,18],[39,3],[49,-9],[18,-8],[15,-14],[6,-15],[20,3],[5,-17],[-17,-27],[14,-16],[-29,-28],[-27,-11],[-80,-66],[-10,-9],[-30,-12],[-30,-19],[-25,-37],[3,0]],[[6641,8065],[-144,84],[2,8],[-219,0],[-377,233],[-98,61],[-216,47],[-5,4],[4,20],[8,10],[5,21],[12,-6],[6,7],[7,38],[7,-10],[46,76],[13,13],[11,-1],[-5,20],[1,14]],[[2899,8981],[2,9],[-39,42],[-18,6],[-3,18],[-8,11],[-17,11],[-14,15],[-7,-5],[-31,17],[-5,-5],[12,-11],[36,-23],[6,-19],[-14,-10],[-17,3],[-24,17],[-9,2],[-3,-12],[8,-22],[-27,20],[-13,-9],[-18,11],[-11,-4],[-43,11],[-31,0],[-10,6],[-1,20],[-15,6],[-5,-11],[-23,-1],[-14,5],[-16,16],[-4,21],[11,2],[30,-5],[14,7],[-21,24],[-25,7],[-17,-1],[-15,7],[5,32],[12,6],[1,8],[-13,13],[5,31],[15,30],[28,32],[33,14],[35,3],[11,-7],[-40,-49],[-5,-17],[2,-12],[16,-18],[-7,-23],[14,-28],[20,-20],[-17,-15],[-1,-10],[31,-4],[8,21],[-6,22],[-14,8],[-11,17],[13,20],[23,-2],[-15,15],[-18,11],[0,24],[11,10],[34,-1],[-28,21],[10,10],[30,10],[21,11],[32,-7],[29,-47],[1,-5],[-16,-43],[0,-24],[13,-4],[13,11],[4,14],[17,2],[6,-5],[2,-24],[13,-2],[-2,27],[8,20],[13,8],[22,1],[26,-10],[15,3],[8,-5],[12,-19],[16,-17],[-22,-27],[-2,-8],[11,-10],[19,19],[12,-9],[11,-29],[21,34],[24,-9],[11,-11],[-17,-31],[15,2],[19,9],[0,-23],[10,-10],[17,9],[16,3],[18,-17],[-8,-12],[-23,-14],[-3,-9],[6,-8],[31,12],[9,13],[13,-9],[14,-28],[-27,-1],[-6,-5],[6,-13],[16,-2],[19,-13],[3,-10],[-27,2],[-21,9],[-4,-6],[15,-19],[-2,-7],[-20,-4],[3,-9],[46,-29],[8,-28],[9,7],[24,-11],[20,6],[20,-28],[5,-11],[-19,-7],[0,-15],[45,5],[-5,-18],[18,-6],[12,12],[24,-27],[-8,-22],[-10,-1],[-12,8],[-10,-7],[16,-20],[1,-9],[-14,-6],[-8,-17],[-15,22],[-4,-35],[5,-30],[-5,-2],[-18,14],[-7,23],[-12,-9],[-9,20],[4,21],[-19,8],[-33,39],[-10,1],[-13,-10],[-1,-7],[17,-28],[-12,-6],[-22,27],[15,-47],[14,-3],[14,-46],[7,-14],[11,9],[15,-21],[17,-13],[-8,-4],[1,-13],[23,-31],[1,-37],[-16,38],[-7,8],[1,-17],[13,-41],[0,-10],[-11,4],[11,-37],[-15,16],[-11,22],[-22,5],[-18,22],[-18,31],[3,-26],[-23,21],[-11,1],[12,-30],[10,-14],[23,-21],[16,-21],[10,-18],[11,-38],[-23,11],[-35,23],[-18,4],[-13,8],[-12,21],[-14,4],[-34,21],[-9,11],[10,26],[-17,17],[-14,4],[-10,11],[-11,24],[-1,17],[-14,2],[-16,11],[-8,1],[3,-24],[-7,-3],[-21,11],[-14,-21],[-16,-2],[-34,11],[-10,9],[2,23],[5,12],[13,5],[1,23],[19,-3],[24,-10],[12,-21],[0,25],[20,5],[16,9],[16,-3],[2,9],[-14,26],[-10,12],[1,13],[7,2],[27,27],[4,18],[16,27],[-1,19],[-16,44],[-7,12],[-21,10],[-13,16],[-10,28],[-12,-13],[-10,0],[-28,-10],[-2,22],[28,5]],[[2865,8848],[-6,5],[-5,23],[13,36],[8,9],[17,5],[21,-16],[-1,-39],[-17,-20],[-30,-3]],[[2271,9024],[14,10],[43,-39],[5,-18],[14,-17],[-20,-20],[-16,0],[-22,8],[-16,10],[-33,14],[5,11],[24,19],[2,22]],[[2724,8650],[2,-39],[25,-1],[22,-18],[-15,-16],[-12,1],[-30,13],[-14,27],[-13,8],[-9,-9],[0,-22],[-16,-6],[-16,-26],[-14,-9],[-8,2],[1,28],[-5,11],[-42,-15],[2,15],[27,28],[-5,29],[6,41],[13,55],[14,-19],[-4,-16],[17,-15],[5,16],[18,-13],[19,-25],[27,-16],[5,-9]],[[2812,7798],[-2,39],[-6,33],[8,1],[-5,23],[-13,15],[-4,30],[27,16],[37,50],[19,48],[3,39],[-3,34],[-6,28],[-17,32],[-26,32],[-4,11],[12,21],[10,42],[13,12],[-8,49],[3,20],[-22,3],[14,30],[6,27],[-11,16],[-4,26],[4,13],[14,17],[10,-2],[36,-20],[27,-3],[30,16],[19,-16],[34,-45],[-3,-13],[26,-24],[24,-11],[14,7],[4,-22],[-7,-12],[-2,-14],[11,-80],[-4,-17],[-10,1],[-2,-22],[5,-9],[14,13],[18,3],[13,-22],[3,-23],[6,6],[27,10],[9,31],[7,-5],[8,-23],[6,46],[13,21],[-8,16],[3,15],[12,3],[9,26],[9,-12],[17,-36],[7,-26],[17,-36],[-3,-21],[7,1],[4,-25],[16,-14],[5,-21],[-10,-9],[10,-17],[10,-7],[4,-21],[-6,-6],[-22,3],[11,-36],[14,-8],[27,-36],[3,-17],[-6,-26],[6,-2],[19,8],[9,-5],[22,-22],[31,-14],[-2,-9],[-18,-13],[-19,-10],[-15,-20],[-13,-2],[-8,-11],[-2,-26]],[[2359,9211],[-2,17],[-11,26],[-3,19],[4,34],[5,11],[16,-1],[-9,23],[6,5],[26,2],[34,-11],[16,-1],[30,4],[16,-11],[-24,-47],[-19,-29],[-17,-3],[-30,5],[-16,-2],[18,-23],[-3,-10],[-10,-12],[-12,-3],[-15,7]],[[1655,9182],[-4,-16],[-8,-9],[-15,-4],[-15,2],[-7,-16],[-11,-10],[-25,4],[-17,38],[-14,12],[-29,7],[-7,12],[20,20],[1,12],[-6,27],[13,6],[4,12],[14,17],[6,19],[-1,11],[-19,27],[-5,14],[21,2],[28,-2],[42,-32],[66,-32],[44,-24],[-25,-18],[-33,-42],[-19,-7],[1,-30]],[[2154,9080],[26,-19],[13,-13],[4,-26],[-15,0],[-22,15],[-15,-12],[-16,-5],[2,-23],[14,3],[16,9],[11,-18],[0,-8],[-13,-13],[-25,-7],[-28,3],[-20,8],[-29,17],[-12,18],[-13,-3],[-5,-12],[-14,-16],[-31,-4],[-16,-14],[-34,-11],[-33,-4],[-25,2],[-17,-3],[-13,10],[2,28],[-11,10],[-39,3],[-16,4],[-21,12],[-9,16],[-16,18],[10,10],[20,2],[8,6],[29,3],[60,-3],[35,2],[5,5],[-37,23],[-24,6],[-71,3],[-40,-4],[-21,17],[0,7],[30,11],[13,-1],[34,8],[6,9],[-5,11],[-25,-2],[-20,-5],[-28,25],[-9,-2],[-9,17],[16,32],[33,28],[8,3],[80,-61],[103,-62],[131,-11],[28,3],[21,-28],[20,-14],[19,-3]],[[3887,8683],[-28,4],[16,-25],[4,-12],[-4,-13],[-28,-5],[22,-25],[5,-11],[-10,-18],[-14,0],[4,-20],[-5,-15],[-14,6],[3,-32],[-13,4],[-26,-4],[8,-16],[18,-20],[-1,-33],[-4,-31],[-16,-1],[6,-19],[1,-36],[-20,-4],[10,-12],[5,-20],[-5,-15],[-16,13],[-3,76],[-12,59],[12,169],[29,87],[86,-16],[-1,-14],[-9,-1]],[[3695,8385],[-5,0],[-13,-19],[-10,32],[-26,28],[-7,25],[1,24],[-26,15],[-3,11],[9,36],[-17,6],[-4,28],[-14,3],[-7,18],[10,27],[16,11],[11,14],[-3,22],[-24,-9],[-8,-14],[-14,-14],[-5,10],[1,21],[-4,51],[-3,11],[-10,-2],[-15,28],[-1,11],[11,18],[-4,5],[-13,-2],[3,15],[22,6],[4,21],[-27,1],[-5,12],[13,16],[-12,4],[3,19],[14,11],[63,-21],[29,-33],[12,-162],[39,-144],[42,-75],[-1,-59],[-4,-5],[-18,-1]],[[529,8611],[-1,12],[-11,23],[12,4],[1,21],[-10,11],[-24,-13],[-18,-23],[-7,-2],[-23,11],[-20,2],[-16,-5],[-33,6],[-6,7],[-1,30],[21,1],[5,6],[-13,8],[-57,25],[13,12],[19,7],[29,17],[13,12],[30,17],[18,-4],[-1,-26],[30,-9],[13,1],[18,11],[10,12],[19,-5],[13,1],[3,17],[-33,11],[-16,2],[-4,24],[-19,6],[-31,4],[-3,16],[-19,26],[-65,44],[15,18],[1,16],[39,4],[23,9],[9,12],[6,20],[18,36],[19,21],[28,11],[35,-1],[0,13],[-9,18],[38,2],[29,6],[25,27],[12,1],[12,-10],[-2,-21],[18,-5],[11,16],[17,-6],[42,-4],[23,-29],[42,-5],[37,5],[15,-3],[28,-12],[43,-5],[26,-11],[54,6],[14,-7],[31,-26],[15,-10],[23,2],[12,-4],[25,-15],[20,-17],[15,-8],[42,-10],[20,-12],[-6,20],[-8,11],[-1,14],[17,14],[18,3],[31,-5],[32,26],[30,8],[10,13],[23,4],[11,-4],[-6,-13],[-18,-9],[-13,-12],[-31,-14],[-9,-17],[-22,-8],[-9,-16],[11,-9],[18,-24],[-1,29],[15,8],[14,22],[22,1],[26,25],[26,6],[8,11],[22,15],[4,16],[-17,28],[11,-4],[18,-18],[16,-44],[23,-25],[14,-7],[7,5],[-5,30],[19,9],[5,-12],[-2,-23],[22,-2],[14,15],[7,16],[20,2],[19,-9],[39,-25],[67,-30],[28,-7],[31,2],[11,-3],[25,-21],[8,-19],[-36,-9],[-4,-23],[41,-12],[44,-3],[20,4],[34,13],[12,-1],[17,-16],[19,-6],[20,-18],[0,-10],[-11,-11],[27,-37],[-2,23],[13,6],[-13,27],[-3,21],[1,25],[40,10],[9,17],[7,1],[33,-18],[24,1],[8,-13],[15,-10],[24,-7],[14,0],[11,7],[46,-1],[13,2],[15,9],[24,-26],[6,1],[3,27],[-18,12],[-17,2],[1,14],[22,1],[38,-21],[-3,-39],[2,-16],[28,-21],[-7,50],[5,25],[19,0],[15,28],[19,7],[-6,27],[-14,-6],[-13,3],[7,17],[23,8],[15,-19],[0,40],[-10,-2],[-19,4],[-11,11],[-9,-3],[-16,6],[-22,15],[-9,11],[-1,15],[15,19],[-21,20],[8,26],[12,11],[13,-9],[4,13],[-11,21],[9,11],[28,2],[16,-9],[16,-14],[8,-23],[-3,-20],[15,-17],[25,-32],[-5,-11],[-12,-2],[-11,-27],[19,-9],[22,2],[19,-11],[-12,-19],[12,-20],[4,-19],[0,-27],[17,16],[8,37],[9,14],[6,-1],[23,-27],[8,-27],[-2,-14],[-14,2],[-3,-23],[4,-13],[28,-47],[23,15],[3,22],[17,26],[8,46],[3,6],[21,0],[2,17],[-24,22],[1,29],[7,9],[23,0],[43,-20],[16,-21],[14,2],[5,-7],[3,-33],[-14,-11],[-9,18],[-13,-9],[5,-27],[9,-24],[25,-36],[-6,-31],[-23,-31],[-9,-3],[-14,-16],[-9,9],[-21,31],[-13,10],[-9,-9],[17,-17],[19,-29],[-34,-2],[-12,24],[-38,-3],[-3,-8],[24,-22],[-2,-6],[-33,-47],[-15,-5],[-11,7],[-13,19],[-31,19],[-31,-6],[33,-16],[22,-25],[21,-14],[28,-5],[-8,-36],[-26,-37],[-20,-7],[-11,4],[-13,13],[-1,-21],[3,-24],[-27,3],[-20,13],[-48,13],[26,-28],[20,-5],[24,-15],[4,-15],[-8,-11],[-14,-7],[-24,5],[-4,-9],[15,-14],[-6,-14],[-13,-10],[-23,-30],[2,-23],[-15,-14],[-14,-40],[-10,-61],[-2,-31],[4,-46],[7,-12],[15,-4],[14,3],[8,-11],[16,-63],[3,-51]],[[3181,9487],[-34,15],[4,-27],[-30,6],[-39,20],[25,22],[-7,13],[-41,1],[-18,3],[-26,21],[7,10],[16,1],[38,-4],[42,-2],[27,5],[16,10],[1,11],[-18,16],[-29,-13],[-31,3],[-20,-6],[-19,8],[-9,12],[-18,8],[-15,1],[-18,16],[4,26],[45,11],[42,8],[12,13],[24,11],[31,0],[13,4],[25,-2],[16,17],[8,41],[-12,7],[-24,1],[-14,-6],[-12,4],[-16,13],[8,25],[17,11],[78,27],[25,5],[-15,-211],[25,-138],[-33,3],[-10,-6],[-41,-14]],[[2159,9274],[21,-20],[19,-9],[24,37],[-26,32],[-1,11],[21,-3],[14,7],[13,-12],[14,0],[5,9],[16,4],[17,-3],[11,-7],[-15,-24],[-20,-12],[-5,-12],[9,-11],[9,3],[29,-14],[7,-9],[2,-14],[-8,-12],[-5,-33],[-13,-16],[-15,2],[-10,12],[-8,-4],[13,-18],[-10,-13],[-16,2],[-25,39],[-13,15],[-37,17],[-28,34],[11,22]],[[2337,9517],[-12,16],[-14,13],[2,8],[30,1],[20,-8],[20,-2],[11,-12],[-4,-24],[-53,8]],[[2546,9385],[-2,22],[-15,-4],[-9,-17],[-12,-6],[-23,7],[-15,19],[-8,-16],[-14,2],[-14,46],[7,16],[-3,22],[-23,31],[-1,11],[23,7],[31,1],[37,-19],[-8,-6],[-25,-8],[-4,-15],[27,0],[16,-8],[15,-29],[8,-3],[3,13],[17,2],[11,6],[10,-4],[19,-16],[12,-2],[10,15],[17,9],[46,12],[56,-3],[21,-18],[29,-10],[7,-14],[-28,-18],[-2,-8],[6,-22],[-56,-5],[-16,10],[-4,21],[-15,3],[1,-23],[-27,-6],[-16,0],[-30,14],[-3,-14],[-33,-6],[-18,2],[-5,9]],[[2891,9951],[3,12],[-22,26],[6,8],[41,-9],[21,-2],[20,-15],[6,5],[-4,18],[40,-2],[21,-19],[7,0],[-4,24],[13,2],[80,-22],[24,3],[38,-1],[41,-8],[23,-10],[21,-1],[17,-12],[-5,-11],[-16,-4],[-15,-12],[-23,-6],[-40,6],[-28,0],[-34,-10],[-7,-15],[9,-12],[23,0],[21,9],[10,0],[8,-18],[-33,-11],[-41,-27],[-16,-7],[-27,-21],[-28,0],[8,-30],[-5,-6],[-29,-15],[-30,2],[-18,7],[-30,5],[-8,-10],[32,-23],[-8,-5],[-41,0],[-33,7],[-25,-2],[-1,-21],[29,2],[28,-9],[7,-5],[2,-22],[-17,-10],[-7,-23],[-19,1],[-5,-6],[14,-16],[-25,-7],[-32,7],[-5,-3],[4,-33],[-18,-15],[-44,8],[-18,7],[-13,-3],[-15,-16],[18,-5],[49,-8],[19,-6],[25,-1],[8,-11],[0,-12],[-11,-12],[-45,-13],[-27,-10],[-16,30],[-15,-1],[-18,10],[4,-22],[-37,5],[-24,25],[-5,-1],[7,-24],[-13,-10],[-62,7],[-26,18],[-3,-15],[-8,-5],[-23,10],[5,27],[19,3],[19,14],[15,-1],[6,6],[-13,13],[-13,21],[7,9],[38,-5],[11,-6],[14,-17],[17,-11],[34,-2],[10,4],[8,19],[-38,0],[-13,5],[-2,28],[3,5],[-46,10],[-12,-4],[3,25],[14,18],[14,5],[23,0],[32,-3],[42,-14],[20,6],[-42,26],[-22,11],[-45,41],[-5,-8],[-17,29],[4,11],[22,-3],[49,-2],[20,-12],[32,-26],[28,-1],[-17,18],[-25,10],[15,24],[18,11],[22,1],[19,7],[57,8],[-29,17],[45,29],[27,69],[2,12]],[[3486,9014],[-5,11],[-1,27],[3,11],[27,-6],[43,-27],[6,-18],[-18,-4],[-29,-14],[-26,20]],[[3328,7838],[28,16],[15,25],[15,16],[15,3],[12,-19],[-5,-14],[5,-14],[13,13],[15,-14]],[[8430,9300],[20,13],[16,-2],[25,-19],[56,0],[22,-20],[0,-12],[-33,-18],[-31,-24],[0,-9],[25,-3],[9,-5],[28,-28],[25,-42],[23,-26],[17,-10],[8,1],[9,12],[25,58],[11,10],[3,-15],[9,-10],[31,-14],[11,3],[24,15],[20,0],[15,-7],[24,-24],[15,21],[-1,7],[15,11],[14,-14],[16,-1],[0,31],[3,29],[-14,-5],[-11,3],[10,12],[35,8],[20,22],[25,-8],[66,-16],[29,-3],[-22,-20],[23,1],[1,-17],[-22,-14],[-3,-10],[9,-1],[18,9],[12,10],[20,26],[50,-2],[23,-10],[5,-10],[-28,-19],[28,-14],[27,-7],[22,-18],[4,-14],[14,-17],[35,5],[46,15],[28,3],[37,-4],[28,-8],[23,-19],[11,-24],[-5,-33],[6,-8],[28,-5],[0,-23],[5,-13],[9,5],[7,14],[15,13],[30,1],[19,9],[9,-1],[7,-14],[9,-3],[47,-3],[11,4],[17,16],[21,-31],[25,-19],[4,-13],[7,-5],[20,5],[20,10],[2,8],[-13,38],[-10,4],[11,29],[53,-8],[15,-5],[3,-10],[17,5],[55,1],[16,-5],[25,-13],[17,-3],[26,-17],[9,-2],[29,-22],[0,-287],[-27,-13],[-8,-12],[-20,-4],[-16,4],[-9,23],[-11,-10],[-11,-1],[-10,9],[5,-16],[-7,-9],[16,-10],[8,11],[9,-4],[0,-15],[13,-15],[17,4],[7,-35],[-9,-17],[7,2],[18,-35],[-2,-15],[10,3],[-1,-21],[-14,-16],[-40,14],[-3,13],[-10,0],[-8,-21],[-38,-30],[-18,-6],[-17,-19],[-12,-1],[-16,-24],[-12,-1],[-13,-29],[-21,-15],[-5,-15],[-20,-12]],[[265,8778],[17,-20],[-21,1],[-10,-26],[-20,16],[13,-24],[-27,2],[-24,16],[14,-21],[3,-36],[-20,-4],[-3,-5],[7,-28],[-2,-9],[-18,0],[-15,5],[-3,12],[-22,16],[-3,-8],[-19,20],[-5,32],[-11,11],[-16,1],[-11,-7],[-17,-3],[-15,4],[-1,22],[-8,15],[-11,-4],[-17,-53],[0,265],[31,-20],[21,-20],[12,-6],[47,-32],[14,-13],[9,-25],[5,-26],[-3,-14],[13,-26],[12,-8],[3,17],[-8,12],[1,28],[13,6],[12,-9],[17,-6],[13,4],[11,-4],[21,-26],[21,-22]],[[3125,1693],[-4,-138],[-50,-260],[-58,-184],[-15,-61]],[[2998,1050],[-19,-72]],[[2979,978],[-4,1],[-8,-16],[-12,4],[-7,40],[-1,22],[4,43],[16,49],[-7,68],[0,53],[-7,29],[3,16],[6,-3],[6,12],[14,109],[13,50],[6,51],[9,39],[-3,37],[9,32],[-8,137],[1,19],[9,36],[3,42],[-5,30],[8,80],[5,20],[8,106],[-1,35],[8,38],[-3,30],[1,65],[3,20],[-6,12],[0,24],[8,12],[5,90],[-1,107],[30,15],[26,52],[-2,7],[45,7],[19,61]],[[3169,2659],[-5,-132],[-29,-354],[-41,-119],[-20,-190],[51,-171]],[[3080,269],[-57,-15],[-9,33],[-16,169],[-4,201],[16,202],[29,189],[-41,2]],[[3125,1693],[109,118],[173,25],[83,-66],[22,-61],[39,-22]],[[3551,1687],[-6,-67],[-15,-55],[-15,-34],[-10,-36],[-7,-18],[-16,-20],[-10,-3],[-11,11],[-26,-13],[-11,22],[-17,13],[-13,-6],[-15,27],[-5,-27],[12,-27],[17,-18],[7,-16],[-5,-40],[3,-20],[14,-20],[3,-29],[-14,-46],[-9,-25],[-8,-33],[-24,-23],[-24,-13],[-51,-11],[-26,11],[-1,-33],[8,-16],[-11,-46],[0,-13],[5,-31],[-19,-24],[-25,-2],[-30,24],[-6,-11],[0,-19],[6,-22],[-2,-47],[10,-17],[15,4],[-5,13],[15,7],[4,-44],[-11,-10],[-6,17],[-13,-3],[-11,-9],[2,-7],[19,-11],[-20,-22],[-7,-20],[1,-47],[-11,-27],[6,-19],[-27,-9],[-16,-21],[-14,-44],[1,-25],[3,-19],[19,-36],[25,-15],[1,-9],[-3,-37],[-7,-20],[-33,-43],[-8,-23],[-4,-24],[2,-17],[-6,-25],[-24,-23],[-9,-20],[-4,-42],[2,-15]],[[3649,3907],[-7,-27],[-13,-16],[-31,-2],[-5,30],[4,72],[8,5],[24,-7],[6,7],[20,-14],[-4,-18],[-2,-30]],[[3286,4606],[-12,2],[-26,-23],[-81,-10],[-131,27],[-14,52],[4,8],[-1,38],[-11,53],[-2,22],[13,12],[37,30],[-5,19],[-7,-3],[-4,18],[10,17],[10,-50],[26,-12],[8,-26],[2,-21],[9,-13],[42,9],[9,-4],[5,-15],[17,-19],[13,-1],[10,9],[13,27],[38,9],[15,-5],[-5,-11],[-16,1],[0,-13],[15,-26],[2,-21],[6,22],[15,-12],[4,-11],[17,-23],[-9,-16],[-5,-29],[-11,-11]],[[3343,4947],[6,-12],[-5,-6],[-1,18]],[[3298,5087],[-3,-5],[-3,31],[5,-4],[1,-22]],[[3308,5029],[-4,0],[-5,25],[5,2],[4,-27]],[[3251,5304],[0,0]],[[3308,4983],[-5,5],[4,15],[1,-20]],[[3293,4893],[0,0]],[[3205,5267],[0,0]],[[3297,5132],[0,0]],[[3246,5290],[0,0]],[[3285,5259],[0,0]],[[3289,4873],[0,0]],[[3292,4885],[0,0]],[[3296,4901],[0,0]],[[3300,4926],[0,0]],[[3301,4951],[0,0]],[[3202,5312],[0,0]],[[3193,5312],[0,0]],[[3300,5160],[-11,-5],[-3,-18],[-3,21],[6,2],[4,17],[7,-17]],[[3253,5279],[0,0]],[[2859,5283],[-6,-12],[-13,9],[-16,30],[15,12],[17,-8],[21,-20],[-1,-18],[-10,9],[-7,-2]],[[3154,5288],[-13,-8],[-7,4],[-1,33],[4,7],[31,-5],[6,-10],[-7,-22],[-13,1]],[[2858,5468],[-5,13],[-24,8],[-8,11],[-2,24],[-6,23],[-18,-1],[-10,5],[-29,31],[-22,4],[-17,15],[14,10],[-10,14],[-23,-5],[-15,-30],[-12,-1],[-10,-27],[-14,-4],[9,20],[-2,20],[5,15],[16,20],[20,15],[25,8],[18,0],[19,-8],[27,-19],[12,-26],[32,-20],[19,-26],[4,-18],[49,-36],[-2,-24],[17,1],[6,-5],[18,-32],[-15,-5],[-22,-15],[-24,8],[-30,-11],[-6,3],[14,32],[2,13]],[[3034,5321],[-8,-11],[-10,-46],[-16,40],[-26,-2],[-15,6],[-11,-15],[-14,19],[2,23],[43,-13],[12,11],[-11,20],[1,33],[-8,14],[-11,5],[-3,13],[15,8],[30,-16],[8,12],[9,-4],[10,7],[4,-11],[12,-10],[8,3],[7,-24],[31,-35],[7,-21],[-8,-28],[-9,23],[-27,-1],[-9,-17],[-13,17]],[[3077,10],[-13,11],[-29,-11],[3,31],[11,5],[18,-2],[6,-10],[8,0],[-7,22],[-16,11],[-7,24],[20,19],[-2,15],[-23,-9],[-4,7],[5,20],[14,17],[11,21],[5,-9],[14,-2],[11,-16],[-11,-21],[4,-9],[12,-1],[8,-24],[24,-46],[16,-20],[14,-7],[18,-1],[-3,-14],[-35,-11],[-15,12],[-34,4],[-23,-6]],[[2946,840],[-10,14],[4,36],[-1,30],[5,24],[10,4],[5,-22],[-10,-21],[6,-26],[-4,-43],[-5,4]],[[2964,153],[1,28],[-10,-3],[1,24],[20,0],[0,-27],[-6,-28],[-6,6]],[[3080,269],[8,-40],[11,-36],[-16,-2],[-7,10],[-18,-24],[-14,-3],[-9,-10],[-5,-31],[-2,-43],[-13,-4],[-12,13],[20,53],[-8,10],[-17,-17],[-19,-5],[-1,17],[31,18],[-8,6],[-17,0],[3,29],[-10,17],[-8,-12],[-8,5],[4,23],[-9,-6],[-8,17],[6,15],[-17,26],[10,6],[10,34],[-15,-3],[-3,22],[7,13],[-9,26],[10,15],[-2,14],[-8,-14],[-2,49],[5,20],[-2,34],[22,-11],[2,13],[-11,15],[-11,-5],[-11,4],[6,36],[7,-1],[3,19],[-14,17],[-15,2],[0,16],[-12,-5],[0,8],[16,20],[8,26],[11,2],[4,-18],[-12,-15],[1,-17],[13,14],[0,-27],[11,33],[3,43],[4,14],[8,7],[-8,7],[0,14],[18,24],[3,23],[-14,18],[3,35],[-1,27],[13,19],[-5,19],[-1,26],[9,10],[-1,20],[-8,9],[4,21],[-4,5]],[[3644,1924],[-29,121],[10,162],[98,203],[74,12],[9,-71],[-7,-34]],[[3799,2317],[-16,6],[-21,-3],[-3,-19],[-13,-17],[-9,-26],[-9,8],[-12,-10],[-30,-53],[-17,-27],[-6,-22],[-17,-10],[6,-32],[-3,-27],[-4,-10],[5,-21],[1,-73],[-7,-57]],[[3169,2659],[35,109],[13,152]],[[3217,2920],[109,64],[242,-41],[90,33],[232,407],[39,185],[18,97]],[[3947,3665],[20,-40],[15,-12],[27,-5],[5,-6],[12,-100],[4,-69],[-6,-76],[-7,-43],[-6,-27],[-34,-80],[-10,-8],[-5,-21],[-2,-24],[-6,-35],[-17,-68],[-6,-7],[-1,13],[-8,13],[-1,-26],[-7,-53],[-1,-44],[5,-121],[-7,-83],[1,-46],[-14,-32],[-4,-38],[3,-48],[-4,-21],[-8,-20],[-10,-48],[-12,-46],[-4,-28],[2,-30],[-15,-12],[-11,-22],[-1,-27],[-35,-8]],[[3644,1924],[-4,-17],[-17,-33],[-10,-34],[-15,-80],[-10,-33],[-18,-46],[4,27],[13,37],[8,38],[-1,8],[-10,-4],[-7,7],[-6,-54],[-5,-16],[-12,-23],[-3,-14]],[[3217,2920],[-135,467],[-31,181],[104,635],[104,80],[114,-12],[75,-165],[2,-60],[-61,-106],[-13,-122],[59,-148],[60,-22],[142,-8],[102,114],[22,-12],[1,17],[9,23],[25,25],[7,-1],[21,-27],[34,-11],[24,9],[14,-12],[26,-43],[25,-57]],[[1663,6480],[-34,374],[24,280]],[[1653,7134],[41,-33],[109,-43],[95,-42]],[[1898,7016],[3,-21],[196,-562],[175,-339],[28,-80]],[[2300,6014],[-10,-12],[8,-17],[-10,-33],[0,-27],[5,-46],[5,-29],[-11,-53],[-5,-68],[-70,-12],[-107,83],[-93,191],[-66,32],[-16,-32],[-3,7],[-18,18],[-12,28],[-9,41],[-17,62],[-12,62],[0,26],[-16,14],[-1,15],[-8,11],[-6,-12],[-18,21],[-4,-49],[7,-21],[1,-51],[8,-27],[8,-9],[14,-39],[8,-40],[13,-16],[4,-45],[12,-14],[10,-61],[9,7],[3,-15],[4,-48],[15,-73],[1,-37],[8,-16],[8,12],[10,-45],[9,-9],[0,-28],[-11,-23],[-3,1],[-6,38],[-32,61],[-15,32],[-7,23],[2,41],[-9,45],[-16,22],[-8,22],[-8,-3],[-25,35],[-16,44],[16,-6],[10,20],[1,27],[-5,21],[-20,43],[-17,27],[-7,43],[-6,4],[-2,31],[-16,60],[3,21],[-10,20],[-10,43],[-5,41],[-14,30],[-14,9],[-3,17],[-7,-2],[-12,11],[-9,19],[-14,3]],[[1653,7134],[5,53],[-5,337],[-119,253],[-106,188]],[[1820,7744],[10,-293],[68,-435]],[[1301,8042],[15,-16],[-2,-18],[4,-14],[10,-12],[0,-32],[-23,38],[-7,18],[0,15],[-7,28],[10,-7]],[[1663,6480],[-11,-1],[-5,8],[1,41],[-8,7],[1,14],[-13,22],[-5,21],[-10,19],[-2,25],[4,5],[-2,19],[-9,4],[-7,17],[-2,34],[13,-17],[-12,45],[0,-19],[-13,18],[-6,28],[-16,36],[-3,28],[2,14],[-6,27],[-9,25],[0,31],[5,32],[1,27],[-3,26],[-8,48],[-2,30],[9,24],[5,23],[-6,30],[7,70],[3,52],[-2,38],[-3,4],[0,43],[-4,38],[-12,47],[2,20],[24,-14],[15,1],[12,-13],[0,-15],[-10,-24],[12,-17],[7,25],[4,34],[-7,55],[-17,32],[0,25],[-9,-8],[-8,11],[-4,22],[-14,-11],[-9,16],[-4,41],[-13,-4],[-21,15],[-7,24],[-7,-7],[-22,2],[-6,17],[6,37],[-15,3],[13,26],[14,22],[-19,-5],[-9,7],[-1,32],[-10,0],[-12,35],[2,25],[-7,-2],[-11,-16],[-15,30],[-9,44],[13,33]],[[1313,7894],[18,-4],[2,-16],[-2,-29],[-14,-8],[-11,27],[-2,30],[9,0]],[[1484,7569],[1,18],[-12,17],[-12,-1],[-26,45],[-3,11],[17,3],[24,-20],[35,-13],[12,-26],[6,-21],[9,-19],[24,-24],[8,-38],[-4,-12],[-21,9],[-20,20],[6,21],[-13,0],[-5,-8],[-9,9],[2,14],[-6,11],[-13,4]],[[6257,2822],[8,0],[5,12],[20,2],[-2,12],[15,24],[9,0],[-4,16],[9,23],[6,-12],[6,20],[-5,19],[10,23],[-4,28],[6,11],[6,-18],[3,14],[12,29],[3,37],[-1,19],[6,15],[11,-32],[7,-9],[5,-34],[4,-81],[10,-65],[0,-12],[-9,-34],[-12,40],[-4,-18],[3,-29],[5,-29],[-13,-54],[0,-43],[-2,-31],[-35,-276],[-16,-146],[-7,-51],[-11,-33],[-17,-3],[-13,-11],[-6,-15],[-10,-3],[-7,20],[-15,5],[-10,24],[-3,34],[-8,21],[0,23],[5,36],[-15,72],[6,66],[9,13],[18,83],[3,47],[-9,30],[4,23],[-7,28],[-5,62],[13,59],[0,35],[13,3],[10,11]],[[6225,4066],[-11,-25],[-36,-95],[-23,-78],[0,-21],[-14,-18],[-5,4],[-5,-37],[-8,-4],[-5,-13],[-1,-27],[-16,-64],[1,-18],[-5,-21],[-7,-11],[-9,-62],[0,-51],[8,-33],[9,-18],[-8,-55],[6,-14],[-2,-54],[7,-76],[5,-16],[15,-26],[7,-29],[-9,-41],[2,-15],[4,-75],[-4,-30],[6,-39],[1,-68],[6,-7],[-2,-25],[-7,-19],[2,-12],[-6,-28],[-16,-50],[-9,-21],[-17,-24],[-44,-48],[-11,-21],[-27,-74],[-33,-60],[-1,-52],[12,-30],[-4,-20],[8,-73],[7,7],[0,-20],[-3,-72],[-3,-27],[6,-8],[-2,-21],[-16,-36],[-8,-11],[-34,-31],[-11,-17],[-13,-38],[11,-22],[1,-11],[-4,-72],[-5,-28],[-7,-9],[1,-25],[-4,-27],[-19,-34],[-32,-116],[-16,-44],[-25,-63],[-35,-69],[-20,-33],[-8,-10],[-29,-5],[-3,-19],[-16,7],[-7,-16],[-7,-2],[-10,13],[-16,6],[-8,-13],[-15,10],[-19,-11],[-9,-18],[-22,1],[-17,-9],[-10,-27],[-16,19],[-4,22],[-9,-1],[-8,18],[-2,-15],[-5,11],[4,30],[-16,61],[10,7],[3,40],[-5,39],[-7,37],[-15,63],[-16,93],[-7,26],[-25,64],[-5,20],[-11,73],[2,19],[-5,24],[-3,28],[2,44],[-7,43],[-8,97],[5,25],[-4,34],[-17,59],[-24,123],[-12,49],[-12,42],[-6,34],[-2,30],[0,78],[0,47],[7,20],[6,47],[2,46],[7,61],[7,22],[6,30],[8,7],[9,33],[4,39],[0,49],[-5,49],[-12,48],[-3,25],[2,16],[8,18],[1,29],[-3,19],[-11,47],[-5,47],[-12,43],[-5,35],[2,22],[-14,68],[-31,79],[-3,15],[-17,38],[4,10],[-11,11],[-12,47],[6,13],[-9,17],[-9,33],[11,19],[8,54],[11,-2],[-15,33],[6,5],[2,35],[-7,6],[13,51],[-1,36],[3,32],[-4,41],[-5,21],[5,13],[-3,12],[-11,0],[-7,8],[-4,35],[-15,16],[0,-16],[-5,-11],[-20,-4],[-11,7],[-5,-16],[-21,3],[-14,22],[-5,24],[-2,29]],[[5148,4371],[202,171],[267,-111],[325,-242],[58,-112],[76,-258],[20,-14],[27,80],[11,121],[47,68],[44,-8]],[[5992,4939],[3,73],[94,146],[8,-57],[8,-27],[3,30],[13,-43],[10,1],[28,-75],[9,-1]],[[6176,4943],[8,-13],[19,-48],[4,-24],[-18,-23],[-8,-15],[23,-8],[25,-77],[21,4],[25,28],[14,-12],[7,2],[20,33],[17,-3],[15,16],[21,-7],[21,17],[18,34],[13,-12],[2,-9],[-5,-30],[2,-38],[-7,-32],[-1,-49],[-2,-16],[-16,-74],[-10,-26],[-1,-21],[-21,-93],[-3,-31],[-13,-57],[-26,-87],[-33,-96],[-23,-51],[-27,-36],[-12,-23]],[[5148,4371],[1,18],[-6,2],[-15,41],[-15,17],[-4,10],[-13,-14],[-24,-3],[-29,-8],[-11,-11],[-6,-23],[-24,-8],[-19,-24],[-16,-13],[-24,-32],[-19,25],[-9,16],[-3,-9],[-22,9],[-29,-2],[-16,-8],[-21,-18],[-34,-39],[-19,22],[-28,38],[-20,50],[-13,25],[-21,28],[-16,35],[-14,20],[0,20],[-17,25],[-9,27],[7,20],[-6,11],[0,18],[-13,43],[-1,21],[-11,12],[-15,28],[1,23],[-13,10],[0,17],[-9,5],[0,21],[7,21],[-6,9],[-14,-6],[-7,9],[-6,17],[-8,8],[-5,20],[0,55],[7,9],[1,18],[-16,61],[101,25],[198,-113],[240,-5],[164,-66],[264,33],[74,-62],[77,-14],[24,-43],[181,-5],[64,98]],[[6087,4639],[-56,186],[-81,5],[-52,-158],[19,-192],[71,-97],[84,77],[15,179]],[[5955,5468],[-18,141],[-11,63]],[[5977,5748],[15,-35],[-7,-14],[3,-36],[4,-23],[15,-24],[11,-30],[6,-31],[7,-44],[-72,-68]],[[2347,5179],[-26,-23],[-35,13],[-37,31],[-4,34],[-1,30],[17,20],[43,5],[24,-13],[21,-32],[-2,-65]],[[2225,5359],[-24,41],[-7,50],[14,45],[19,0],[20,-23],[17,-57],[-4,-43],[-14,-20],[-21,7]],[[2385,6131],[0,141]],[[2385,6272],[9,0],[0,21]],[[2394,6293],[2,0],[26,86],[16,14]],[[2438,6393],[44,9],[10,-88],[-2,-94],[16,-17],[40,-22],[-25,1],[-13,-16],[-13,15],[-7,-18],[2,-7],[13,6],[14,-18],[-9,-12],[4,-20],[7,-5],[8,-18],[-13,-2],[-4,14],[-16,18],[-3,-11],[6,-11],[-4,-8],[-5,15],[-10,-16],[-13,16],[-5,16],[-14,21],[-8,-2],[7,-13],[-4,-6],[-15,2],[-22,14],[-19,-5]],[[2381,6524],[33,-54],[9,-68],[15,-9]],[[2394,6293],[0,21],[-14,30],[-32,28],[-16,-3]],[[2332,6369],[0,1]],[[2332,6370],[16,2]],[[2348,6372],[-22,115]],[[2326,6487],[17,39],[38,-2]],[[2385,6272],[-22,7],[-15,-4],[-14,23],[-7,38],[5,33]],[[2575,6247],[12,97]],[[2587,6344],[0,0]],[[2587,6344],[30,110]],[[2617,6454],[23,16],[71,-17],[5,-34],[-4,-39],[7,-6],[34,-74],[-8,-28],[-9,-66],[3,-53],[-38,30],[-21,-11],[-5,-28],[-5,12],[-12,4],[-13,-22],[-15,-9],[-5,27],[-6,12],[-10,2],[-9,17],[-19,-8],[-6,68]],[[2553,6522],[-1,-13],[6,-37],[-13,-88]],[[2545,6384],[-36,15],[-27,56],[23,80],[10,14],[29,0],[9,-27]],[[2480,7619],[-10,-23]],[[2470,7596],[-10,-23],[41,-44],[50,-3],[0,-25],[-8,13],[-10,-35],[-2,14],[-10,-12],[-8,-26],[-26,-22],[-21,-26],[-67,-15],[-24,18]],[[2375,7410],[-31,24]],[[2344,7434],[-37,60],[-10,74]],[[2297,7568],[4,61]],[[2681,7416],[11,-92],[-20,5],[-5,-22],[-18,5],[-3,-12],[16,-20],[-6,-4],[-7,-25],[-32,-47],[-9,17],[16,32],[-3,-22],[6,-1],[1,22],[12,15],[-4,10],[9,20],[-5,11],[-12,8],[-25,-13],[-11,-18],[2,16],[-9,-14],[-1,13],[-8,-18],[-12,61],[-45,31],[28,37],[12,5],[-15,-31],[-2,-16],[7,7],[16,-7],[11,-22],[14,-5],[21,17],[28,2],[3,-16],[11,0],[-1,24],[-7,15],[4,17],[-8,19],[1,25],[-4,5],[-22,2],[-7,16],[-9,39],[-22,4],[-22,15],[42,-3],[58,-44],[25,-63]],[[2553,6522],[1,5],[48,-18],[13,-36],[2,-19]],[[2587,6344],[-4,13]],[[2583,6357],[-43,0]],[[2540,6357],[-1,13],[6,14]],[[2583,6357],[4,-13]],[[2575,6247],[6,-68],[-9,6],[0,-10],[-10,-3],[-11,53],[-29,-3],[-13,60],[9,60],[22,15]],[[2674,7138],[-1,-21],[-18,-21],[-9,-95]],[[2646,7001],[-27,-2],[-12,-41],[-11,-28],[-18,-3],[-5,34]],[[2573,6961],[0,33]],[[2573,6994],[9,4],[10,14],[11,41],[1,39],[-6,37],[0,46],[31,-10],[16,-44],[25,22],[4,-5]],[[2776,7152],[-2,-40],[14,-29],[-18,-9],[-2,-10],[-30,-1],[-12,-23],[-9,59],[10,17],[3,60],[10,29],[0,26],[-10,23],[11,0],[11,-43],[7,6],[4,-9],[13,-56]],[[2674,7138],[10,21],[12,11],[5,-7],[11,-68],[-11,-55],[8,-20],[-23,0],[-4,-21],[24,-21],[17,7],[0,-25],[-9,-18]],[[2714,6942],[-4,-9],[-34,-13]],[[2676,6920],[-11,9],[-13,39],[-6,33]],[[3031,7386],[14,-12],[9,-51],[-14,-63],[-45,-32],[-25,-8],[-29,-39],[-13,-28],[-28,-11]],[[2900,7142],[-16,-5]],[[2884,7137],[-3,18],[6,12],[-8,3],[9,20],[-12,-4],[-12,-14],[-8,-18],[-12,12],[-31,-9],[-12,-8],[-6,-11],[-13,18],[-13,47],[7,0],[-1,22],[9,-1],[-18,58],[-3,3],[6,21],[118,99]],[[2573,6961],[-51,-127],[14,5],[30,-17],[30,11],[16,47],[64,40]],[[2714,6942],[55,31],[-3,17],[24,59],[16,23],[2,12],[-8,-2],[10,33],[27,3],[9,-9],[17,1],[21,27]],[[2900,7142],[-7,-52],[-23,-52],[-27,-50],[-18,-38],[-1,-27],[-18,-97],[-28,-125],[-60,-45],[-64,32],[-31,11],[-82,-108],[-49,-20],[8,109],[-23,52],[22,43],[-94,-19],[6,-139],[-26,-7]],[[2385,6610],[-21,-5]],[[2364,6605],[-25,67]],[[2339,6672],[12,200]],[[2351,6872],[22,18],[12,-4]],[[2385,6886],[34,-10],[9,63],[-20,23],[-23,61],[14,52],[47,68],[-43,108],[35,42],[81,-92],[29,-129],[13,10],[0,-46],[7,-32],[5,-10]],[[2385,6131],[-8,-11],[-10,1],[-2,16],[-6,-8],[6,-23],[-21,-40],[-17,-12],[-14,6],[4,-21],[-7,-19],[-10,-6]],[[2300,7607],[-3,-39]],[[2344,7434],[31,-24]],[[2375,7410],[7,-48],[3,-476]],[[2351,6872],[-12,-200]],[[2364,6605],[21,5]],[[2385,6610],[0,-32],[-4,-54]],[[2326,6487],[22,-115]],[[2348,6372],[-16,-2]],[[2901,3052],[26,-75],[-1,-14],[12,-14],[9,-40],[-9,-39],[-4,-31],[-24,43],[-15,36],[-13,45],[0,39],[19,50]],[[2710,5996],[51,48],[4,-52],[10,-62],[1,-27],[-4,-59],[-4,-13],[1,-22],[-22,-9],[-1,19],[-7,34],[-10,5],[-4,38],[-5,7],[-2,23],[-5,-3],[-12,51],[9,22]],[[5399,8185],[16,-20],[-12,-41],[-28,11],[-1,31],[25,19]]]}