{"type":"Topology","bbox":[-180,-55.070042051117994,180,83.57906683560076],"transform":{"scale":[0.036003600360036005,0.013866297518423717],"translate":[-180,-55.070042051117994]},"objects":{"countries":{"type":"GeometryCollection","geometries":[{"type":"MultiPolygon","arcs":[[[0]],[[1]],[[2]],[[3]],[[4]],[[5]],[[6]],[[7]],[[8]],[[9]],[[10,11]],[[12]]],"id":"thule","properties":{"name":"Thule","subjecto":"Thule","partof":"Thule","prec":1}},{"type":"MultiPolygon","arcs":[[[13]]],"id":"beothuk","properties":{"name":"Beothuk","subjecto":"Beothuk","partof":"Beothuk","prec":1}},{"type":"MultiPolygon","arcs":[[[14]],[[15]],[[16]]],"id":"polynesians","properties":{"name":"Polynesians","subjecto":"Polynesians","partof":"Polynesians","prec":1}},{"type":"MultiPolygon","arcs":[[[17]]],"id":"cyprus","properties":{"name":"Cyprus","subjecto":"Cyprus","partof":"Cyprus","prec":1}},{"type":"MultiPolygon","arcs":[[[18]],[[19]],[[20]],[[21]],[[22]],[[23]],[[24]],[[25]],[[26]],[[27]],[[28]],[[29]],[[30]],[[31]],[[32]],[[33]],[[34]],[[35]],[[36]],[[37]],[[38]]],"id":"ainus","properties":{"name":"Ainus","subjecto":"Ainus","partof":"Ainus","prec":1}},{"type":"MultiPolygon","arcs":[[[39],[40]]],"id":"madagascar","properties":{"name":"Madagascar","subjecto":"Madagascar","partof":"Madagascar","prec":1}},{"type":"MultiPolygon","arcs":[[[41]],[[42]]],"id":"maori","properties":{"name":"Maori","subjecto":"Maori","partof":"Maori","prec":1}},{"type":"MultiPolygon","arcs":[[[43,44]]],"id":"portugal","properties":{"name":"Portugal","subjecto":"Portugal","partof":"Portugal","prec":1}},{"type":"MultiPolygon","arcs":[[[-41]]],"id":"expansionist_kingdom_of_merina","properties":{"name":"Expansionist Kingdom of Merina","subjecto":"Expansionist Kingdom of Merina","partof":"Expansionist Kingdom of Merina","prec":1}},{"type":"MultiPolygon","arcs":[[[45]]],"id":"sardinia","properties":{"name":"Sardinia","subjecto":"Sardinia","partof":"Sardinia","prec":1}},{"type":"MultiPolygon","arcs":[[[46]]],"id":"hainan","properties":{"name":"Hainan","subjecto":"Hainan","partof":"Hainan","prec":1}},{"type":"MultiPolygon","arcs":[[[47]]],"id":"sinhalese_kingdom","properties":{"name":"Sinhalese kingdom","subjecto":"Sinhalese kingdom","partof":"Sinhalese kingdom","prec":1}},{"type":"MultiPolygon","arcs":[[[48,49,50,51,52]],[[53,54]]],"id":"teutonic_knights","properties":{"name":"Teutonic Knights","subjecto":"Teutonic Knights","partof":"Teutonic Knights","prec":1}},{"type":"MultiPolygon","arcs":[[[55,56,57,58]]],"id":"navarre","properties":{"name":"Navarre","subjecto":"Navarre","partof":"Navarre","prec":1}},{"type":"MultiPolygon","arcs":[[[59,60]]],"id":"shoa","properties":{"name":"Shoa","subjecto":"Shoa","partof":"Shoa","prec":1}},{"type":"MultiPolygon","arcs":[[[61,62,63]]],"id":"benin","properties":{"name":"Benin","subjecto":"Benin","partof":"Benin","prec":1}},{"type":"MultiPolygon","arcs":[[[64]],[[65,66]]],"id":"bornu_kanem","properties":{"name":"Bornu-Kanem","subjecto":"Bornu-Kanem","partof":"Bornu-Kanem","prec":1}},{"type":"MultiPolygon","arcs":[[[67,68]]],"id":"yemen","properties":{"name":"Yemen","subjecto":"Yemen","partof":"Yemen","prec":1}},{"type":"MultiPolygon","arcs":[[[69,70]]],"id":"orissa","properties":{"name":"Orissa","subjecto":"Orissa","partof":"Orissa","prec":1}},{"type":"MultiPolygon","arcs":[[[71]]],"id":"maya_city_states","properties":{"name":"Maya city-states","subjecto":"Maya city-states","partof":"Maya city-states","prec":1}},{"type":"MultiPolygon","arcs":[[[72,73]]],"id":"mixtec_empire","properties":{"name":"Mixtec Empire","subjecto":"Mixtec Empire","partof":"Mixtec Empire","prec":1}},{"type":"MultiPolygon","arcs":[[[-73,74]]],"id":"zapotec_empire","properties":{"name":"Zapotec Empire","subjecto":"Zapotec Empire","partof":"Zapotec Empire","prec":1}},{"type":"MultiPolygon","arcs":[[[75,76]]],"id":"chim_empire","properties":{"name":"Chimú Empire","subjecto":"Chimú Empire","partof":"Chimú Empire","prec":1}},{"type":"MultiPolygon","arcs":[[[77,78,79,80,81,82]]],"id":"aymara_kingdoms","properties":{"name":"Aymara kingdoms","subjecto":"Aymara kingdoms","partof":"Aymara kingdoms","prec":1}},{"type":"MultiPolygon","arcs":[[[83,-77,84,-78]]],"id":"andean_states_and_chiefdoms","properties":{"name":"Andean states and chiefdoms","subjecto":"Andean states and chiefdoms","partof":"Andean states and chiefdoms","prec":1}},{"type":"MultiPolygon","arcs":[[[85,86]]],"id":"morocco","properties":{"name":"Morocco","subjecto":"Morocco","partof":"Morocco","prec":1}},{"type":"MultiPolygon","arcs":[[[87,88]]],"id":"ethiopia","properties":{"name":"Ethiopia","subjecto":"Ethiopia","partof":"Ethiopia","prec":1}},{"type":"MultiPolygon","arcs":[[[89,90,91,92,93,94,95,96]]],"id":"great_zimbabwe","properties":{"name":"Great Zimbabwe","subjecto":"Great Zimbabwe","partof":"Great Zimbabwe","prec":1}},{"type":"MultiPolygon","arcs":[[[97,98]]],"id":"makkura","properties":{"name":"Makkura","subjecto":"Makkura","partof":"Makkura","prec":1}},{"type":"MultiPolygon","arcs":[[[-98,99]]],"id":"alwa","properties":{"name":"Alwa","subjecto":"Alwa","partof":"Alwa","prec":1}},{"type":"MultiPolygon","arcs":[[[100,101,-69]]],"id":"hadramaut","properties":{"name":"Hadramaut","subjecto":"Hadramaut","partof":"Hadramaut","prec":1}},{"type":"MultiPolygon","arcs":[[[102]]],"id":"muscat","properties":{"name":"Muscat","subjecto":"Muscat","partof":"Muscat","prec":1}},{"type":"MultiPolygon","arcs":[[[103,104,105,106]]],"id":"islamic_city_states","properties":{"name":"Islamic city-states","subjecto":"Islamic city-states","partof":"Islamic city-states","prec":1}},{"type":"MultiPolygon","arcs":[[[107,108,109]]],"id":"pandya_state","properties":{"name":"Pandya state","subjecto":"Pandya state","partof":"Pandya state","prec":1}},{"type":"MultiPolygon","arcs":[[[-109,110,111]]],"id":"chola_state","properties":{"name":"Chola state","subjecto":"Chola state","partof":"Chola state","prec":1}},{"type":"MultiPolygon","arcs":[[[112,113,114]]],"id":"pagan","properties":{"name":"Pagan","subjecto":"Pagan","partof":"Pagan","prec":1}},{"type":"MultiPolygon","arcs":[[[115,116,117,118,119,120,121]]],"id":"i_vi_t","properties":{"name":"Đại Việt","subjecto":"Đại Việt","partof":"Đại Việt","prec":1}},{"type":"MultiPolygon","arcs":[[[122,-122,123]]],"id":"champa","properties":{"name":"Champa","subjecto":"Champa","partof":"Champa","prec":1}},{"type":"MultiPolygon","arcs":[[[124,125,126,127]]],"id":"tibet","properties":{"name":"Tibet","subjecto":"Mongol Empire","partof":"Mongol Empire","prec":1}},{"type":"MultiPolygon","arcs":[[[128,129,130,-125,131]]],"id":"kashmir_and_ladakh","properties":{"name":"Kashmir and Ladakh","subjecto":"Kashmir and Ladakh","partof":"Kashmir and Ladakh","prec":1}},{"type":"MultiPolygon","arcs":[[[132,-55,133,-50,134,135,136,137,138,139,140,141,142,143,144,145,146,-52],[147],[148]],[[149,150]],[[151,152]],[[153]],[[154]]],"id":"novgorod","properties":{"name":"Novgorod","subjecto":"Mongol Empire","partof":"Mongol Empire","prec":1}},{"type":"MultiPolygon","arcs":[[[155]],[[156,157,-144,158]]],"id":"siberians","properties":{"name":"Siberians","subjecto":"Siberians","partof":"Siberians","prec":1}},{"type":"MultiPolygon","arcs":[[[159,160,161,162,163]]],"id":"bosnia","properties":{"name":"Bosnia","subjecto":"Bosnia","partof":"Bosnia","prec":1}},{"type":"MultiPolygon","arcs":[[[164,165]],[[166,167]]],"id":"venice","properties":{"name":"Venice","subjecto":"Venice","partof":"Venice","prec":1}},{"type":"MultiPolygon","arcs":[[[168]]],"id":"corsica","properties":{"name":"Corsica","subjecto":"Corsica","partof":"Corsica","prec":1}},{"type":"MultiPolygon","arcs":[[[169,170,171,172]]],"id":"papal_states","properties":{"name":"Papal States","subjecto":"Papal States","partof":"Papal States","prec":1}},{"type":"MultiPolygon","arcs":[[[173,-171]]],"id":"sicily","properties":{"name":"Sicily","subjecto":"Sicily","partof":"Sicily","prec":1}},{"type":"MultiPolygon","arcs":[[[174,175,176,177,178,179,180,-160,181]]],"id":"kingdom_of_hungary","properties":{"name":"Kingdom of Hungary","subjecto":"Hungary","partof":"Hungary","prec":1}},{"type":"MultiPolygon","arcs":[[[182,183,184,185,186,187,188,189,190]],[[191]],[[192]],[[193,194]],[[195,196]]],"id":"france","properties":{"name":"France","subjecto":"France","partof":"France","prec":1}},{"type":"MultiPolygon","arcs":[[[197,198]]],"id":"granada","properties":{"name":"Granada","subjecto":"Granada","partof":"Granada","prec":1}},{"type":"MultiPolygon","arcs":[[[199,-59,200,201,-199,202,-45]]],"id":"castile","properties":{"name":"Castile","subjecto":"Castile","partof":"Castile","prec":1}},{"type":"MultiPolygon","arcs":[[[203,204,205,206]]],"id":"mamluke_sultanate","properties":{"name":"Mamluke Sultanate","subjecto":"Mamluke Sultanate","partof":"Mamluke Sultanate","prec":1}},{"type":"MultiPolygon","arcs":[[[-86,207,-204,208]]],"id":"hafsid_caliphate","properties":{"name":"Hafsid Caliphate","subjecto":"Hafsid Caliphate","partof":"Hafsid Caliphate","prec":1}},{"type":"MultiPolygon","arcs":[[[209,210]]],"id":"trebizond","properties":{"name":"Trebizond","subjecto":"Trebizond","partof":"Trebizond","prec":1}},{"type":"MultiPolygon","arcs":[[[211,212,213]]],"id":"georgia","properties":{"name":"Georgia","subjecto":"Georgia","partof":"Georgia","prec":1}},{"type":"MultiPolygon","arcs":[[[214,215,-180]]],"id":"principality_of_wallachia","properties":{"name":"Principality of Wallachia","subjecto":"Principality of Wallachia","partof":"Principality of Wallachia","prec":1}},{"type":"MultiPolygon","arcs":[[[216,217]]],"id":"aceh","properties":{"name":"Aceh","subjecto":"Aceh","partof":"Aceh","prec":1}},{"type":"MultiPolygon","arcs":[[[218,219]],[[220,221,222,223]],[[-217,224]],[[225,226]],[[227]]],"id":"srivijaya_empire","properties":{"name":"Srivijaya Empire","subjecto":"Srivijaya Empire","partof":"Srivijaya Empire","prec":1}},{"type":"MultiPolygon","arcs":[[[228,-223,229,230]],[[231,-219]],[[232]],[[233]]],"id":"kediri","properties":{"name":"Kediri","subjecto":"Kediri","partof":"Kediri","prec":1}},{"type":"MultiPolygon","arcs":[[[234,-231,235,-221]],[[236]]],"id":"minor_hindu_and_buddhist_kingdoms","properties":{"name":"minor Hindu and Buddhist kingdoms","subjecto":"minor Hindu and Buddhist kingdoms","partof":"minor Hindu and Buddhist kingdoms","prec":1}},{"type":"MultiPolygon","arcs":[[[237,238,-226,239]]],"id":"sukhothai","properties":{"name":"Sukhothai","subjecto":"Sukhothai","partof":"Sukhothai","prec":1}},{"type":"MultiPolygon","arcs":[[[240,241]],[[242]]],"id":"scotland","properties":{"name":"Scotland","subjecto":"Scotland","partof":"Scotland","prec":1}},{"type":"MultiPolygon","arcs":[[[243,-57,244,-187]],[[-242,245]],[[246]]],"id":"english_territory","properties":{"name":"English territory","subjecto":"English territory","partof":"England","prec":1}},{"type":"MultiPolygon","arcs":[[[247]],[[248]],[[249,250,251,252,-175,253,-168,254,-166,255,-173,256,-191,257]]],"id":"holy_roman_empire","properties":{"name":"Holy Roman Empire","subjecto":"Holy Roman Empire","partof":"Holy Roman Empire","prec":1}},{"type":"MultiPolygon","arcs":[[[258]],[[259]],[[260]]],"id":"guanches","properties":{"name":"Guanches","subjecto":"Guanches","partof":"Guanches","prec":1}},{"type":"MultiPolygon","arcs":[[[261]],[[262]],[[263]]],"id":"shogun_japan_kamakura","properties":{"name":"Shogun Japan (Kamakura)","subjecto":"Shogun Japan (Kamakura)","partof":"Shogun Japan (Kamakura)","prec":1}},{"type":"MultiPolygon","arcs":[[[264,-142,265,266,267,268]]],"id":"s_mi","properties":{"name":"Sámi","subjecto":"Sámi","partof":"Sámi","prec":1}},{"type":"MultiPolygon","arcs":[[[269]],[[270]]],"id":"dorset","properties":{"name":"Dorset","subjecto":"Dorset","partof":"Dorset","prec":1}},{"type":"MultiPolygon","arcs":[[[271,272]]],"id":"innu","properties":{"name":"Innu","subjecto":"Innu","partof":"Innu","prec":1}},{"type":"MultiPolygon","arcs":[[[273]]],"id":"shuar","properties":{"name":"Shuar","subjecto":"Shuar","partof":"Shuar","prec":1}},{"type":"MultiPolygon","arcs":[[[274]]],"id":"australian_aboriginal_hunter_gatherers","properties":{"name":"Australian aboriginal hunter-gatherers","subjecto":"Australian aboriginal hunter-gatherers","partof":"Australian aboriginal hunter-gatherers","prec":1}},{"type":"MultiPolygon","arcs":[[[275]]],"id":"tasmanian_hunter_gatherers","properties":{"name":"Tasmanian hunter-gatherers","subjecto":"Tasmanian hunter-gatherers","partof":"Tasmanian hunter-gatherers","prec":1}},{"type":"MultiPolygon","arcs":[[[276,277]]],"id":"guanahatabeyes","properties":{"name":"Guanahatabeyes","subjecto":"Guanahatabeyes","partof":"Guanahatabeyes","prec":1}},{"type":"MultiPolygon","arcs":[[[278,279]]],"id":"thule_2","properties":{"name":"Thule","subjecto":"Thule","partof":"Thule","prec":1}},{"type":"MultiPolygon","arcs":[[[-279,280,281,282,283,284]]],"id":"athabaskan","properties":{"name":"Athabaskan","subjecto":"Athabaskan","partof":"Athabaskan","prec":1}},{"type":"MultiPolygon","arcs":[[[285,286,287,288,-282,289,-272]]],"id":"subarctic_forest_hunter_gatherers","properties":{"name":"Subarctic forest hunter-gatherers","subjecto":"Subarctic forest hunter-gatherers","partof":"Subarctic forest hunter-gatherers","prec":1}},{"type":"MultiPolygon","arcs":[[[290,291,292,293,294,295,-82,296]],[[297,298]]],"id":"savanna_hunter_gatherers","properties":{"name":"Savanna hunter-gatherers","subjecto":"Savanna hunter-gatherers","partof":"Savanna hunter-gatherers","prec":1}},{"type":"MultiPolygon","arcs":[[[299]],[[300]],[[301]],[[302,303,304]]],"id":"patagonian_shellfish_and_marine_mammal_h","properties":{"name":"Patagonian shellfish and marine mammal hunters","subjecto":"Patagonian shellfish and marine mammal hunters","partof":"Patagonian shellfish and marine mammal hunters","prec":1}},{"type":"MultiPolygon","arcs":[[[305,-80,306,-297]],[[307,-304,308,-295]]],"id":"andean_hunter_gatherers","properties":{"name":"Andean hunter-gatherers","subjecto":"Andean hunter-gatherers","partof":"Andean hunter-gatherers","prec":1}},{"type":"MultiPolygon","arcs":[[[-292,309]],[[-298,310]]],"id":"amazon_hunter_gatherers","properties":{"name":"Amazon hunter-gatherers","subjecto":"Amazon hunter-gatherers","partof":"Amazon hunter-gatherers","prec":1}},{"type":"MultiPolygon","arcs":[[[311]]],"id":"caribbean_hunter_gatherers","properties":{"name":"Caribbean hunter-gatherers","subjecto":"Caribbean hunter-gatherers","partof":"Caribbean hunter-gatherers","prec":1}},{"type":"MultiPolygon","arcs":[[[-305,-308,-294,312]]],"id":"pampas_cultures","properties":{"name":"Pampas cultures","subjecto":"Pampas cultures","partof":"Pampas cultures","prec":1}},{"type":"MultiPolygon","arcs":[[[313]],[[-284,314,315,316]],[[317]],[[318]]],"id":"north_american_pacifi_foraging_hunting_a","properties":{"name":"North American Pacifi foraging, hunting and fishing peoples","subjecto":"North American Pacifi foraging, hunting and fishing peoples","partof":"North American Pacifi foraging, hunting and fishing peoples","prec":1}},{"type":"MultiPolygon","arcs":[[[319,320,321,322,323,-288,324]]],"id":"plain_bison_hunters","properties":{"name":"Plain bison hunters","subjecto":"Plain bison hunters","partof":"Plain bison hunters","prec":1}},{"type":"MultiPolygon","arcs":[[[-283,-289,-324,325,-315]]],"id":"plateau_fichers_and_hunter_gatherers","properties":{"name":"Plateau fichers and hunter gatherers","subjecto":"Plateau fichers and hunter gatherers","partof":"Plateau fichers and hunter gatherers","prec":1}},{"type":"MultiPolygon","arcs":[[[-326,-323,326,-316]],[[327,-321]],[[328]]],"id":"desert_hunter_gatherers","properties":{"name":"Desert hunter-gatherers","subjecto":"Desert hunter-gatherers","partof":"Desert hunter-gatherers","prec":1}},{"type":"MultiPolygon","arcs":[[[329,330,331,-92,332,-90,333,334]]],"id":"khoiasan","properties":{"name":"Khoiasan","subjecto":"Khoiasan","partof":"Khoiasan","prec":1}},{"type":"MultiPolygon","arcs":[[[-287,335,336,337,-325],[338],[339],[340],[341],[342]],[[343]]],"id":"eastern_north_amercian_hunter_gatherers","properties":{"name":"Eastern North Amercian hunter-gatherers","subjecto":"Eastern North Amercian hunter-gatherers","partof":"Eastern North Amercian hunter-gatherers","prec":1}},{"type":"MultiPolygon","arcs":[[[344,-161,-181,-216,345,346]]],"id":"bulgar_khanate","properties":{"name":"Bulgar Khanate","subjecto":"Ottoman Empire","partof":"Ottoman Empire","prec":1}},{"type":"MultiPolygon","arcs":[[[347,348]]],"id":"beylik_of_aydin","properties":{"name":"Beylik of Aydin","subjecto":"Beylik of Aydin","partof":"Beylik of Aydin","prec":1}},{"type":"MultiPolygon","arcs":[[[349,-211,350,351,352]]],"id":"seljuk_caliphate","properties":{"name":"Seljuk Caliphate","subjecto":"Seljuk Caliphate","partof":"Seljuk Caliphate","prec":1}},{"type":"MultiPolygon","arcs":[[[353,354,355,-162,-345,356]]],"id":"ottoman_empire","properties":{"name":"Ottoman Empire","subjecto":"Ottoman Empire","partof":"Ottoman Empire","prec":1}},{"type":"MultiPolygon","arcs":[[[-353,357,-349,358]]],"id":"ottoman_empire_2","properties":{"name":"Ottoman Empire","subjecto":"Ottoman Empire","partof":"Ottoman Empire","prec":1}},{"type":"MultiPolygon","arcs":[[[359]],[[360]],[[361]],[[362]],[[363]],[[364]],[[365]],[[366]],[[367]],[[368]],[[369]],[[370]],[[371]],[[372]],[[373]],[[374]],[[375,-163,-356]],[[376,-354]],[[377]],[[378]],[[379]],[[380]],[[381]]],"id":"byzantine_empire","properties":{"name":"Byzantine Empire","subjecto":"Byzantine Empire","partof":"Byzantine Empire","prec":1}},{"type":"MultiPolygon","arcs":[[[382,383,384,-194,385,-196,386,-189]]],"id":"britany","properties":{"name":"Britany","subjecto":"Britany","partof":"Britany","prec":1}},{"type":"MultiPolygon","arcs":[[[-334,-97,387,-95,388,-330,389,390,391,392,393,394]]],"id":"bantou","properties":{"name":"Bantou","subjecto":"Bantou","partof":"Bantou","prec":1}},{"type":"MultiPolygon","arcs":[[[395]]],"id":"caribbean_hunter_gatherers_2","properties":{"name":"Caribbean hunter-gatherers","subjecto":"Caribbean hunter-gatherers","partof":"Caribbean hunter-gatherers","prec":1}},{"type":"MultiPolygon","arcs":[[[396]],[[397]],[[398]],[[399]],[[400]],[[401]],[[402]],[[403]],[[404]],[[405]],[[406]],[[407]],[[408]],[[409]],[[410]],[[411]],[[412]],[[413]],[[414]],[[415]],[[416]],[[417]],[[418]],[[419]],[[420]],[[421]],[[422]]],"id":"kalinago","properties":{"name":"Kalinago","subjecto":"","partof":"","prec":1}},{"type":"MultiPolygon","arcs":[[[423]],[[424]],[[-277,425]],[[426]]],"id":"taino","properties":{"name":"Taino","subjecto":"Taino","partof":"Taino","prec":1}},{"type":"MultiPolygon","arcs":[[[427,-337]]],"id":"caloosahatchee_cultureure","properties":{"name":"Caloosahatchee cultureure","subjecto":"Caloosahatchee cultureure","partof":"Caloosahatchee cultureure","prec":1}},{"type":"MultiPolygon","arcs":[[[428,429]]],"id":"mali","properties":{"name":"Mali","subjecto":"Mali","partof":"Mali","prec":1}},{"type":"MultiPolygon","arcs":[[[430,-67,431,-88,432,-60,433,-106,434,-392,435,-62,436,-429]]],"id":"west_african_cereal_farmers","properties":{"name":"West African cereal farmers","subjecto":"West African cereal farmers","partof":"West African cereal farmers","prec":1}},{"type":"MultiPolygon","arcs":[[[437,438]]],"id":"nanzan","properties":{"name":"Nanzan","subjecto":"Nanzan","partof":"Nanzan","prec":1}},{"type":"MultiPolygon","arcs":[[[-120,439,-113,440,-126,-131,441,442,-157,443]],[[444]],[[445]],[[446]],[[447]],[[448]],[[449]],[[450]],[[451]],[[452]],[[453]],[[454]],[[455]],[[456]],[[457]],[[458]],[[459]],[[460]]],"id":"great_khanate","properties":{"name":"Great Khanate","subjecto":"Mongol Empire","partof":"Mongol Empire","prec":1}},{"type":"MultiPolygon","arcs":[[[461,462,-438,463]]],"id":"ch_zan","properties":{"name":"Chūzan","subjecto":"Chūzan","partof":"Chūzan","prec":1}},{"type":"MultiPolygon","arcs":[[[-462,464]]],"id":"hokuzan","properties":{"name":"Hokuzan","subjecto":"Hokuzan","partof":"Hokuzan","prec":1}},{"type":"MultiPolygon","arcs":[[[465,-178,466,-176,-253,467,-53,-147,468]]],"id":"poland_lithuania","properties":{"name":"Poland-Lithuania","subjecto":"Poland-Lithuania","partof":"Riazan","prec":1}},{"type":"MultiPolygon","arcs":[[[469,470,-346,-215,-179,-466]]],"id":"moldova","properties":{"name":"Moldova","subjecto":"Moldova","partof":"Mongol Empire","prec":1}},{"type":"MultiPolygon","arcs":[[[471]],[[472]],[[473]],[[474]],[[475]],[[476]],[[477]],[[478]],[[-250,479]],[[480]],[[481]],[[-269,482]],[[483]],[[-11,484]],[[-267,485,-150,486,-136,487]],[[488,-140]],[[489,-138]],[[490,-152]],[[491]],[[492]],[[493]],[[494]],[[495]],[[496]],[[497]],[[498]],[[499]],[[500]],[[501]],[[502]],[[503]],[[504]],[[505]],[[506]],[[507]],[[508]],[[509]],[[510]],[[511]],[[512]],[[513]]],"id":"kalmar_union","properties":{"name":"Kalmar Union","subjecto":"Kalmar Union","partof":"Kalmar Union","prec":1}},{"type":"MultiPolygon","arcs":[[[514]]],"id":"sicily_2","properties":{"name":"Sicily","subjecto":"Sicily","partof":"Sicily","prec":1}},{"type":"MultiPolygon","arcs":[[[515,516,517,-213,518,-470,-469,-146]]],"id":"blue_horde","properties":{"name":"Blue Horde","subjecto":"Mongol Empire","partof":"Mongol Empire","prec":1}},{"type":"MultiPolygon","arcs":[[[519,520,521,522,-516,-145,-158,-443,523]]],"id":"white_horde","properties":{"name":"White Horde","subjecto":"Mongol Empire","partof":"Mongol Empire","prec":1}},{"type":"MultiPolygon","arcs":[[[524,-524,-442,-130],[525]]],"id":"chagatai_khanate","properties":{"name":"Chagatai Khanate","subjecto":"Mongol Empire","partof":"Mongol Empire","prec":1}},{"type":"MultiPolygon","arcs":[[[-129,526,527,-206,528,-351,-214,-518,529,-522,530,-520,-525]]],"id":"timurid_empire","properties":{"name":"Timurid Empire","subjecto":"Timurid Empire","partof":"Timurid Empire","prec":1}},{"type":"MultiPolygon","arcs":[[[-244,-186,531,-184,532,-201,-58]]],"id":"arag_n","properties":{"name":"Aragón","subjecto":"Aragón","partof":"Aragón","prec":1}},{"type":"MultiPolygon","arcs":[[[533,-111,-108,534,-527,-132,-128,535,-71]]],"id":"sultanate_of_delhi","properties":{"name":"Sultanate of Delhi","subjecto":"Sultanate of Delhi","partof":"Sultanate of Delhi","prec":1}},{"type":"MultiPolygon","arcs":[[[536,-117,537]]],"id":"sukhothai_2","properties":{"name":"Sukhothai","subjecto":"Sukhothai","partof":"Sukhothai","prec":1}},{"type":"MultiPolygon","arcs":[[[538,-538,-116,-123,539]]],"id":"khmer_empire","properties":{"name":"Khmer Empire","subjecto":"Khmer Empire","partof":"Khmer Empire","prec":1}},{"type":"MultiPolygon","arcs":[[[540,541,-114,-440,-119]]],"id":"sukhothai_3","properties":{"name":"Sukhothai","subjecto":"Sukhothai","partof":"Sukhothai","prec":1}},{"type":"MultiPolygon","arcs":[[[-238,542,-541,-118,-537,-539,543]]],"id":"ayutthaya","properties":{"name":"Ayutthaya","subjecto":"Ayutthaya","partof":"Ayutthaya","prec":1}},{"type":"MultiPolygon","arcs":[[[544]],[[545]],[[546]],[[547]],[[548]],[[549]],[[550]],[[551]],[[552]],[[553]],[[554]],[[555]],[[556]],[[557]],[[558]],[[559]],[[560]],[[561]],[[562]],[[563]],[[564]],[[565]],[[566]],[[567]],[[568]],[[569]],[[570]],[[571]],[[572]],[[573]],[[574]],[[575]],[[576]],[[577]],[[578]],[[579]],[[580]],[[581]],[[582]],[[583]],[[584]],[[585]],[[586]],[[587]],[[588]],[[589]],[[590]],[[591]],[[592]],[[593]],[[594]],[[595]],[[596]],[[597]],[[598]],[[599]],[[600]],[[601]],[[602]],[[603]]],"id":"tu_i_tonga_empire","properties":{"name":"Tuʻi Tonga Empire","subjecto":"Tuʻi Tonga Empire","partof":"Tuʻi Tonga Empire","prec":1}},{"type":"MultiPolygon","arcs":[[[604]]],"id":"polynesians_2","properties":{"name":"Polynesians","subjecto":"Polynesians","partof":"Polynesians","prec":1}}]}},"arcs":[[[2673,8674],[19,-25],[27,-16],[8,-17],[-1,-30],[25,-1],[22,-18],[-15,-16],[-12,1],[-30,13],[-14,27],[-13,8],[-9,-9],[0,-22],[-16,-6],[-16,-25],[-14,-10],[-8,2],[1,28],[-5,11],[-42,-15],[2,15],[27,28],[-5,29],[6,41],[13,54],[14,-18],[-4,-17],[17,-14],[5,15],[18,-13]],[[2875,8895],[17,5],[21,-16],[-1,-39],[-17,-20],[-14,-4],[-22,6],[-5,24],[13,35],[8,9]],[[2273,8932],[-33,14],[5,11],[24,19],[2,22],[14,10],[43,-39],[5,-18],[14,-17],[-20,-20],[-16,0],[-22,8],[-16,10]],[[2251,9289],[12,9],[16,5],[17,-3],[11,-7],[-15,-24],[-20,-12],[-5,-12],[9,-11],[9,3],[29,-14],[7,-9],[2,-14],[-8,-11],[-5,-34],[-13,-16],[-15,3],[-10,11],[-8,-4],[13,-18],[-10,-12],[-16,1],[-25,39],[-13,15],[-37,17],[-28,34],[11,22],[21,-20],[19,-9],[24,37],[-26,32],[-1,11],[21,-3],[14,7],[20,-13]],[[2444,9225],[-17,-3],[-30,5],[-16,-2],[18,-23],[-3,-10],[-10,-12],[-12,-2],[-15,6],[-2,17],[-11,27],[-3,18],[4,34],[5,11],[16,-1],[-9,23],[6,5],[26,2],[34,-11],[16,-2],[16,5],[43,-4],[0,-29],[-37,-25],[-19,-29]],[[2654,9438],[25,8],[56,-4],[21,-18],[29,-10],[7,-14],[-28,-18],[-2,-8],[6,-21],[-56,-5],[-16,10],[-4,21],[-15,3],[1,-23],[-27,-6],[-16,0],[-30,14],[-3,-14],[-33,-6],[-18,2],[-5,8],[-2,23],[-15,-5],[-9,-16],[-12,-6],[-38,26],[-8,-16],[-14,2],[-14,46],[7,15],[-3,23],[-23,30],[-1,11],[23,7],[31,1],[32,-3],[5,-16],[-5,-13],[-32,-15],[32,-2],[11,-7],[15,-28],[8,-3],[3,12],[17,2],[11,6],[10,-3],[19,-17],[12,-1],[10,15],[17,9],[21,4]],[[2011,9157],[2,8],[-16,44],[-5,43],[3,12],[46,-14],[25,-23],[8,-16],[2,-23],[7,-21],[15,-28],[-6,-34],[2,-10],[21,-25],[20,-13],[19,-4],[26,-18],[13,-13],[4,-26],[-15,0],[-22,15],[-15,-12],[-16,-5],[2,-23],[14,3],[16,8],[11,-17],[0,-8],[-13,-13],[-25,-7],[-28,3],[-20,8],[-29,16],[-12,18],[-13,-2],[-5,-12],[-14,-16],[-31,-4],[-16,-14],[-34,-11],[-33,-4],[-25,2],[-17,-3],[-13,10],[2,28],[-11,10],[-39,3],[-16,4],[-21,12],[-9,16],[-16,18],[10,10],[20,1],[8,6],[29,3],[60,-2],[35,1],[5,5],[-37,23],[-24,7],[-71,2],[-40,-3],[-21,17],[0,7],[30,10],[13,-1],[34,8],[6,9],[-5,12],[-25,-3],[-20,-5],[-28,25],[-9,-1],[-9,16],[16,32],[33,28],[32,19],[17,5],[8,9],[14,3],[13,-8],[-8,-19],[0,-26],[20,5],[14,18],[11,1],[22,-8],[12,-9],[-3,-28],[15,3],[17,12],[14,1],[-12,32],[19,-4],[23,-15],[6,-25],[12,-34],[8,-12],[13,11]],[[667,9102],[-4,-15],[18,-6],[11,16],[17,-6],[42,-4],[23,-29],[42,-4],[37,5],[15,-4],[28,-12],[43,-4],[26,-11],[54,6],[14,-8],[31,-25],[15,-10],[23,2],[12,-4],[25,-15],[20,-17],[15,-8],[42,-10],[20,-12],[-6,20],[-8,11],[-1,14],[17,14],[18,3],[31,-5],[32,25],[30,8],[10,14],[23,4],[11,-4],[-6,-14],[-18,-8],[-13,-12],[-31,-14],[-9,-17],[-22,-9],[-9,-15],[11,-9],[18,-24],[-1,29],[15,8],[14,22],[22,1],[26,25],[26,6],[8,11],[22,14],[4,17],[-17,27],[11,-3],[18,-19],[16,-43],[23,-25],[14,-7],[7,5],[-5,30],[19,8],[5,-11],[-2,-23],[22,-2],[14,15],[7,16],[20,1],[19,-8],[39,-25],[67,-30],[28,-7],[31,2],[11,-3],[25,-21],[8,-19],[-36,-9],[-4,-23],[41,-12],[44,-3],[20,4],[34,13],[12,-1],[17,-16],[19,-6],[20,-18],[0,-10],[-11,-11],[27,-36],[-2,23],[13,6],[-13,27],[-3,21],[1,24],[40,10],[9,17],[7,1],[33,-18],[24,1],[8,-13],[15,-10],[24,-7],[14,0],[11,7],[46,-1],[13,2],[15,9],[24,-25],[6,0],[3,27],[-18,12],[-17,2],[1,15],[22,0],[38,-21],[-3,-38],[2,-17],[28,-21],[-7,51],[5,24],[19,0],[15,28],[19,7],[-6,27],[-14,-6],[-13,3],[7,17],[23,7],[15,-18],[0,40],[-10,-3],[-19,5],[-11,11],[-9,-3],[-16,6],[-22,14],[-9,11],[-1,15],[15,20],[-21,19],[8,26],[12,11],[13,-8],[4,12],[-11,21],[9,12],[28,2],[16,-9],[16,-15],[8,-23],[-3,-19],[15,-18],[25,-32],[-5,-11],[-12,-1],[-11,-27],[19,-10],[22,3],[33,-11],[0,-81],[7,12],[8,37],[9,14],[6,-1],[23,-27],[8,-27],[-2,-14],[-14,2],[-3,-23],[4,-13],[28,-46],[23,15],[3,21],[17,26],[8,46],[3,6],[21,0],[2,17],[-24,22],[1,29],[7,9],[23,0],[43,-20],[16,-22],[14,3],[5,-7],[3,-33],[-14,-11],[-9,18],[-13,-9],[5,-27],[9,-24],[25,-36],[-6,-31],[-23,-31],[-9,-2],[-14,-17],[-9,9],[-21,31],[-13,10],[-9,-9],[17,-17],[19,-29],[-34,-2],[-12,24],[-38,-3],[-3,-7],[24,-22],[-2,-6],[-33,-47],[-15,-6],[-11,8],[-13,18],[-24,16],[-13,3],[0,-14],[30,-32],[21,-14],[28,-6],[-8,-35],[-26,-37],[-20,-7],[-11,4],[-13,13],[-1,-21],[4,-18],[-4,-3],[-92,26],[26,-28],[20,-5],[17,-9],[29,-6],[0,-26],[-40,-7],[-24,5],[-4,-9],[15,-14],[-6,-14],[-22,-20],[-140,219],[-391,74],[-454,49],[-875,265],[-10,23],[38,1],[29,7],[25,27],[12,0],[14,-15]],[[2172,9484],[1,8],[17,-8],[30,-30],[4,11],[-16,20],[-5,11],[17,5],[32,-19],[8,19],[23,-14],[4,-25],[0,-20],[-14,-18],[5,-32],[-5,-5],[-21,3],[-28,-4],[-13,7],[-2,10],[16,22],[-6,10],[-14,2],[-43,-10],[-10,9],[0,11],[9,0],[14,10],[-5,19],[2,8]],[[2891,9922],[3,12],[-22,26],[6,8],[41,-9],[21,-2],[20,-15],[6,5],[-4,18],[40,-2],[21,-19],[7,0],[-4,23],[13,3],[80,-22],[24,3],[38,-1],[41,-8],[23,-10],[21,-1],[17,-12],[-5,-11],[-16,-4],[-15,-12],[-23,-6],[-40,7],[-28,-1],[-34,-10],[-7,-15],[9,-12],[23,0],[21,10],[10,-1],[8,-18],[-33,-11],[-41,-27],[-16,-7],[-27,-21],[-28,0],[8,-29],[-5,-6],[-29,-15],[-30,2],[-18,7],[-30,5],[-8,-11],[32,-22],[-8,-5],[-41,0],[-33,7],[-25,-2],[-1,-22],[29,3],[28,-9],[7,-5],[2,-22],[-17,-10],[-7,-23],[-19,1],[-5,-6],[14,-16],[-25,-7],[-32,7],[-5,-3],[4,-33],[-18,-15],[-44,8],[-18,7],[-13,-2],[-15,-17],[18,-5],[49,-8],[19,-5],[25,-2],[8,-11],[0,-11],[-11,-13],[-45,-13],[-27,-9],[-16,29],[-15,-1],[-18,10],[4,-22],[-37,5],[-24,26],[-5,-2],[7,-23],[-13,-10],[-62,7],[-26,17],[-3,-15],[-8,-5],[-23,10],[5,27],[19,4],[19,13],[15,-1],[6,6],[-13,13],[-13,21],[7,9],[38,-5],[11,-6],[14,-17],[17,-11],[34,-2],[10,5],[8,18],[-38,0],[-13,6],[-2,27],[3,5],[-46,10],[-12,-4],[3,25],[14,18],[14,5],[23,0],[32,-4],[42,-13],[20,6],[-42,26],[-22,10],[-45,41],[-5,-7],[-17,28],[4,12],[22,-3],[49,-2],[20,-13],[32,-25],[28,-2],[-17,18],[-25,11],[15,24],[18,10],[22,1],[19,7],[57,8],[-22,16],[-18,4],[-31,0],[-15,-8],[-35,-12],[-25,-4],[-19,14],[-10,-8],[-27,0],[-19,-12],[4,27],[12,10],[-8,14],[-17,5],[-17,0],[-53,-16],[-25,-22],[-12,12],[13,5],[-10,23],[-42,9],[-4,21],[34,10],[0,3],[70,9],[22,-10],[10,15],[16,9],[22,3],[25,-6],[41,-5],[33,-10],[36,-8],[6,5],[-39,25],[-10,14],[3,8],[31,13],[48,9],[45,-10],[32,-25]],[[3190,9691],[176,-77],[188,-255],[6,-35],[-116,-22]],[[3444,9302],[-19,57],[-7,15],[-23,13],[-12,15],[-1,22],[-11,14],[-32,8],[-48,25],[-27,6],[-32,3],[-10,-6],[-41,-14],[-34,15],[4,-28],[-30,7],[-39,20],[25,22],[-7,13],[-41,1],[-18,3],[-26,20],[7,10],[16,2],[38,-5],[42,-2],[27,5],[16,10],[1,11],[-18,17],[-29,-14],[-31,3],[-20,-5],[-19,8],[-9,11],[-18,8],[-15,1],[-18,16],[4,26],[45,11],[42,8],[12,13],[24,11],[31,0],[13,3],[25,-1],[9,11]],[[2803,9067],[-8,-5],[-31,16],[-5,-4],[12,-12],[36,-23],[6,-18],[-14,-10],[-17,3],[-24,17],[-9,2],[-3,-12],[8,-22],[-27,19],[-13,-8],[-18,11],[-11,-4],[-43,11],[-31,0],[-10,6],[-1,19],[-15,7],[-5,-11],[-23,-2],[-14,6],[-16,15],[-4,22],[11,2],[30,-6],[14,7],[-21,24],[-25,7],[-17,0],[-15,7],[5,31],[12,7],[1,7],[-13,13],[5,31],[15,30],[28,32],[33,14],[35,2],[11,-6],[-40,-49],[-5,-17],[2,-12],[16,-18],[-7,-22],[14,-29],[20,-20],[-17,-14],[-1,-10],[31,-5],[8,21],[-6,22],[-14,8],[-11,18],[13,19],[23,-2],[-15,16],[-18,10],[0,24],[11,10],[34,-1],[-28,21],[10,9],[30,11],[21,10],[32,-6],[29,-47],[1,-5],[-16,-43],[0,-23],[13,-4],[13,10],[4,15],[17,1],[6,-5],[1,-21],[0,-97]],[[3385,7541],[7,35],[14,44],[19,43],[15,20],[16,7],[4,-10],[-14,-12],[4,-15],[-24,-72],[-2,-26],[6,6],[12,24],[14,-10],[-11,-22],[24,-28],[9,1],[4,14],[13,0],[18,-14],[-17,-33],[10,-22],[15,9],[3,-9],[-8,-17],[-13,-7],[8,-33],[7,15],[6,-5],[1,-23],[10,-7],[-10,-52],[-15,11],[0,21],[-8,-13],[-6,8],[7,32],[-9,18],[-10,-22],[-10,-12],[-13,-28],[-11,2],[-1,11],[15,14],[14,28],[-16,6],[-4,-15],[-7,5],[0,16],[-9,-1],[-7,-16],[-13,-2],[-36,11],[-30,-7],[-4,21],[18,30],[15,16],[-15,8],[8,24],[11,3],[5,9],[-9,21]],[[669,5434],[19,-28],[9,-24],[-6,-17],[-10,-6],[-8,-21],[-7,11],[-4,51],[6,13],[1,21]],[[602,5527],[4,9],[9,-29],[-12,-1],[-5,21],[4,0]],[[663,5471],[-10,-14],[-9,25],[3,9],[16,-20]],[[5938,6511],[4,-19],[-11,0],[-1,-11],[-25,-13],[-9,7],[-4,24],[10,8],[7,-3],[1,18],[16,-4],[31,24],[-19,-31]],[[8888,6956],[3,41],[-9,12],[-2,26],[22,30],[-4,21],[7,10],[13,-16],[6,6],[0,39],[11,13],[1,52],[-6,40],[10,18],[32,-70],[13,-22],[15,-15],[16,-8],[21,29],[-8,-33],[10,-44],[-12,-17],[-12,-6],[-11,6],[-9,-12],[-14,-41],[-4,-20],[-35,42],[-15,1],[-13,-19],[-7,21],[-13,-13],[1,-10],[14,-16],[11,-19],[-5,-7],[-11,2],[-9,-25],[-7,4]],[[8973,7798],[2,-40],[-5,-39],[0,-25],[3,-25],[8,-28],[8,-47],[11,-52],[14,-55],[-26,35],[-12,2],[-9,-10],[-6,-33],[-4,-55],[4,-32],[10,-36],[7,-7],[6,-21],[-4,-40],[-9,41],[-10,9],[-8,-10],[-12,-47],[-6,16],[-2,30],[8,37],[-5,29],[9,35],[-2,24],[-7,37],[5,10],[4,30],[1,68],[2,43],[-4,39],[-10,27],[-2,29],[6,30],[-1,46],[12,2],[13,18],[11,-35]],[[9059,7106],[0,0]],[[9079,7135],[0,0]],[[9065,7175],[4,-5],[-12,-8],[-8,-22],[-11,-8],[10,16],[9,30],[8,-3]],[[9125,7237],[-16,-19],[-9,-4],[-11,-29],[-11,-10],[9,20],[-1,7],[21,31],[12,3],[11,18],[4,-12],[-9,-5]],[[9153,7259],[4,19],[18,26],[5,-1],[-27,-44]],[[9190,7320],[0,0]],[[9187,7340],[0,0]],[[9233,7389],[0,0]],[[9251,7419],[0,0]],[[9254,7443],[0,0]],[[9281,7499],[0,0]],[[9277,7502],[0,0]],[[9293,7513],[0,0]],[[9298,7547],[4,3],[-5,-26],[1,23]],[[9289,7565],[0,0]],[[9226,7366],[0,0]],[[9318,7586],[-7,-5],[1,18],[10,6],[8,23],[6,3],[1,-16],[-10,-24],[-9,-5]],[[9337,7631],[9,7],[-2,-16],[-7,9]],[[9317,7642],[0,0]],[[6240,2801],[15,14],[6,-4],[9,15],[20,2],[-2,12],[15,24],[9,-1],[-4,16],[9,23],[6,-11],[6,19],[-5,20],[10,22],[-4,29],[6,10],[6,-17],[3,13],[12,29],[3,37],[-1,19],[6,15],[11,-32],[7,-9],[5,-34],[4,-80],[10,-65],[0,-12],[-9,-34],[-12,40],[-4,-18],[3,-29],[5,-30],[-13,-53],[0,-43],[-2,-31],[-35,-275],[-16,-146],[-7,-51],[-11,-32],[-17,-3],[-13,-11],[-6,-15],[-10,-3],[-7,20],[-15,5],[-10,23],[-3,34],[-8,21],[0,24],[5,35],[-15,72],[6,66],[9,13],[18,83],[3,46],[-9,31],[4,22],[-7,28],[-5,62],[13,59],[0,35],[6,1]],[[6333,2744],[-15,8],[-23,-59],[-38,-355],[7,-68],[13,0],[33,34],[36,222],[0,43],[-13,175]],[[9869,1280],[9,-6],[-2,33],[7,-6],[8,-55],[28,-28],[11,-2],[20,27],[9,-6],[1,-21],[-5,-41],[-13,-4],[-2,-27],[-15,-1],[-9,-16],[4,-30],[-32,-101],[-18,-29],[-13,26],[13,72],[-13,23],[-25,27],[-5,14],[24,31],[2,17],[0,32],[6,27],[-6,27],[1,19],[-16,53],[-4,27],[-8,11],[7,-29],[-27,85],[-3,28],[-9,22],[11,3],[-1,-15],[10,-26],[4,4],[20,-22],[11,-33],[-7,-9],[12,-26],[-2,-13],[7,-23],[-9,-4],[16,-17],[3,-18]],[[9779,804],[-19,-30],[-11,5],[7,-20],[-2,-28],[-15,5],[11,-15],[-12,-63],[-16,-30],[-17,-25],[-20,8],[-8,-4],[-7,15],[-15,7],[-8,13],[-3,-10],[-10,-3],[-9,8],[0,19],[9,4],[-6,16],[10,-9],[-4,24],[12,-5],[-4,26],[22,42],[1,10],[12,18],[14,9],[20,26],[10,28],[29,34],[1,12],[9,15],[2,37],[17,21],[4,47],[6,21],[9,-6],[7,-17],[7,-34],[12,21],[10,-2],[0,-29],[5,-23],[-11,-35],[-17,-36],[-22,-37],[5,-13],[11,-11],[-10,-6],[-6,9],[-10,-9]],[[4791,6655],[-9,-13],[-23,7],[-9,-10],[4,39],[0,70],[-11,-6],[-1,15],[9,8],[-3,13],[-3,-13],[-10,-3],[3,39],[8,30],[12,97],[-6,56],[3,8]],[[4755,6992],[18,15],[7,-15],[22,-1],[11,7],[16,-32],[-3,-15],[-15,-16],[-3,-63],[0,-37],[-15,-13],[14,-41],[-11,-33],[-2,-15],[10,-4],[5,-10],[-11,-21],[-7,-43]],[[5244,6782],[-12,24],[4,46],[-2,38],[-7,14],[1,14],[15,0],[15,24],[14,-45],[-5,-34],[2,-29],[-6,-40],[-12,6],[-7,-18]],[[8039,5277],[-22,27],[-2,51],[17,36],[7,-2],[3,19],[10,-9],[4,11],[16,5],[7,-22],[-12,-35],[-5,-43],[-16,-15],[-7,-23]],[[7237,4399],[-9,9],[-6,32],[-5,41],[0,75],[-3,22],[2,17],[-3,21],[6,-1],[7,38],[-1,17],[15,-28],[12,-48],[-1,-16],[7,-11],[4,-24],[10,-44],[1,-17],[-7,-45],[-11,-27],[-18,-11]],[[5518,7884],[18,1],[0,-8],[28,30],[-14,-3],[3,23],[29,-3],[6,11],[1,28],[-6,21],[-3,33],[2,37],[10,18],[0,23],[10,21],[24,11],[1,-8],[13,-18],[4,-20],[16,-8],[13,11],[3,10],[-3,41],[7,35],[-5,7],[-7,-15],[-11,10],[1,30],[-5,-6],[-5,14],[2,25],[17,4],[9,14],[11,6],[14,-6],[5,9],[25,-3],[38,-11]],[[5769,8248],[-1,-23]],[[5768,8225],[-16,-2],[-4,-11],[17,-51]],[[5765,8161],[-1,-35],[2,-65]],[[5766,8061],[2,-31],[-8,-40],[-32,13],[-26,42],[-16,-10],[-78,0],[-21,-16],[4,-44],[10,0],[10,-19],[-2,-22],[5,-11],[3,-48],[-21,-22],[-10,0],[-9,-13],[-10,10],[-1,-19],[-9,0],[0,11],[-24,-30],[-17,-11],[-9,18],[11,65]],[[5765,8169],[1,8]],[[5766,8177],[-1,-8]],[[4940,7096],[6,-1]],[[4946,7095],[12,-7],[-2,-12],[18,-12]],[[4974,7064],[-21,-55],[2,-25],[-15,3]],[[4940,6987],[-5,18],[7,0],[-4,13],[-13,13],[4,47],[11,4],[0,14]],[[6229,4721],[-21,-48],[-29,-16],[-25,57]],[[6154,4714],[-2,34],[4,42],[33,31],[-8,-15],[23,-8],[25,-77]],[[5113,4436],[-4,10],[39,155],[43,-6],[13,-53],[0,-70],[-13,-59]],[[5191,4413],[-22,-129]],[[5169,4284],[-14,22],[-7,44],[3,16],[-8,12],[-15,42],[-15,16]],[[5232,4194],[0,17],[7,24],[6,-3],[-7,-39],[-6,1]],[[5290,4871],[-11,126],[21,27],[26,117],[6,298],[13,47],[24,-2],[47,-428],[23,-53],[0,-85],[-31,-45]],[[5408,4873],[-65,-94],[-46,7],[-7,85]],[[6302,4943],[-8,-5],[-22,0],[-24,-42],[-7,0],[-7,-13],[-17,2],[-10,19],[-5,22],[2,24],[-16,137],[3,37],[-4,48],[69,76],[29,-42],[10,-122]],[[6295,5084],[-9,-96],[11,-11],[5,-34]],[[7371,5385],[-7,-11],[-24,-72],[-8,-17],[-8,-9],[-9,-27],[-28,-45],[-3,-32],[-13,-23],[-11,1],[-12,-45],[-6,9],[-8,-5]],[[7234,5109],[-28,18],[-3,87],[70,108],[68,146],[11,-39],[19,-44]],[[2500,5369],[0,129],[4,6],[22,11],[20,14],[20,-8],[12,3],[7,-16],[0,-24],[-20,-56],[0,-23],[-6,-21],[6,-1],[-6,-86],[-8,37],[-4,-11],[-3,-31],[8,6],[0,-14],[-5,-41],[2,-8],[-3,-26],[3,-11],[-6,-41],[-8,-12],[-33,51],[11,55],[18,69],[-5,41],[-26,8]],[[2258,5342],[-11,-109]],[[2247,5233],[-86,146],[-12,77],[18,31],[91,-145]],[[2258,5342],[52,-56],[30,-77],[17,-62],[-24,-31],[-9,-9],[-12,3],[-15,13],[-16,6],[-27,39],[-10,9],[3,56]],[[2869,3051],[-17,90],[-11,19],[1,30],[-38,189],[-21,74],[-7,31]],[[2776,3484],[40,-32],[19,-51],[43,-186],[0,-60],[-9,-104]],[[3010,2730],[58,245]],[[3068,2975],[9,-14],[35,-102],[20,-212],[-3,-60]],[[3129,2587],[-13,-236]],[[3116,2351],[-6,-257]],[[3110,2094],[-1,-31]],[[3109,2063],[-16,-34],[-26,0],[-25,106],[2,16],[-3,30],[1,64],[3,20],[-6,12],[0,24],[8,13],[5,89],[0,76],[-3,117],[-2,32],[-8,39],[-22,28],[-7,35]],[[3010,2730],[-7,7],[-39,54],[-21,23],[-33,60],[-15,35],[-13,45],[0,44],[-13,53]],[[2776,3484],[-15,28],[-20,24],[12,10],[0,22],[-12,43],[-3,23],[3,25],[8,20],[27,-15],[36,-128],[30,-16],[9,-102],[49,-212],[121,-152],[47,-79]],[[4939,6500],[3,-17],[9,-16],[2,-29],[0,-68],[2,-15],[-6,-45]],[[4949,6310],[-217,-146],[-5,25],[0,39],[14,49],[2,44],[17,39],[9,16],[27,26],[9,12],[14,42],[16,92],[10,10],[11,-32],[16,-19],[32,1],[12,16],[5,-18],[18,-6]],[[6131,4701],[2,-42],[-17,-105],[-29,-69],[-12,0]],[[6075,4485],[-39,0],[-38,69],[-12,140],[33,278],[26,47],[42,-47],[37,-162],[7,-109]],[[5927,2528],[0,-54],[-15,-89]],[[5912,2385],[-49,-76]],[[5863,2309],[-49,0]],[[5814,2309],[-24,38],[-5,76]],[[5785,2423],[10,115]],[[5795,2538],[29,76]],[[5824,2614],[44,13]],[[5868,2627],[39,0],[20,-38],[0,-61]],[[5976,5090],[-66,-16],[-50,24]],[[5860,5098],[-41,318],[16,49],[25,16],[60,-24],[121,-128],[33,-59],[6,-46],[-104,-134]],[[5976,5090],[-35,-252],[-18,-41],[-19,0],[-38,24],[-12,41],[6,236]],[[6295,5084],[33,72],[74,52],[96,186],[83,66],[28,-17]],[[6609,5443],[-4,-17],[-1,-62],[2,-20],[-18,-7],[-13,-18],[-5,-34],[-8,-17],[-19,-3],[-8,-19],[-2,-38],[-8,-13],[-23,4],[-33,-30],[-7,-8],[-12,-28],[-2,-30],[-23,-32],[-29,-21],[-26,-23],[-11,-30],[-11,-13],[-14,0],[-19,-27],[-13,-14]],[[6609,5443],[-32,136],[-34,89],[-22,87],[19,50],[2,-4],[13,29],[10,34],[1,-27],[-7,-28],[6,-2],[1,-46],[11,-39],[10,-21],[26,-35],[15,-3],[23,-66],[10,-19],[-8,-34],[-19,-50],[-9,-50],[-16,-1]],[[6122,3162],[-32,6],[-28,133]],[[6062,3301],[-14,341],[46,230],[135,342]],[[6229,4214],[61,52],[33,1]],[[6323,4267],[-36,-103],[-23,-51],[-27,-36],[-23,-48],[-36,-94],[-23,-78],[0,-21],[-14,-18],[-5,4],[-5,-38],[-8,-3],[-5,-13],[-1,-27],[-16,-64],[1,-17],[-5,-21],[-7,-12],[-9,-62],[0,-51],[8,-32],[9,-19],[-8,-54],[6,-14],[-2,-53],[7,-77],[5,-15],[15,-27],[7,-28],[-6,-33]],[[7112,4733],[58,36]],[[7170,4769],[43,28]],[[7213,4797],[4,-78],[-1,-8],[-16,-4],[-8,-51],[6,-15],[-23,-21],[-5,-36],[-7,-17],[-11,-17],[-4,2],[-18,47],[-5,30],[-4,45],[-9,59]],[[7170,4769],[-3,49],[-20,146],[4,31],[73,54]],[[7224,5049],[2,-76],[-2,-16],[6,-24],[-2,-36],[-13,-79],[-2,-21]],[[7738,5829],[0,-26],[53,-78],[-10,-68],[24,-140],[-22,-75]],[[7783,5442],[-10,7],[-63,-292]],[[7710,5157],[-7,6],[-3,30],[-10,29],[-3,-1],[-1,-32],[-7,-27],[-21,-25],[-11,-35],[-3,24],[-7,-12],[-6,7],[2,20],[-19,-15],[0,15],[9,76],[-1,63],[-13,76],[-3,-18],[-11,16],[10,6],[-2,25],[-11,31],[-12,6],[0,19],[-7,2],[-13,35],[-7,34],[-2,39],[-8,46],[-5,13],[18,195],[74,40],[108,-16]],[[7972,5055],[-27,-39],[-5,-1]],[[7940,5015],[-3,69],[-23,146],[-23,40],[-36,0]],[[7855,5270],[-30,0]],[[7825,5270],[-2,0],[0,119]],[[7823,5389],[5,63],[99,99],[23,-15],[34,-52]],[[7984,5484],[-2,-7],[-16,2],[-1,-19],[-11,-38],[-11,-17],[-4,-13],[-8,-62],[23,-60],[2,-33],[16,-37]],[[7972,5200],[-6,-48],[2,-63],[4,-34]],[[8025,4795],[-39,18],[-4,49],[3,17],[1,60],[-6,33],[0,22],[-8,61]],[[7972,5200],[22,-54],[8,-2],[4,-13],[7,-52],[8,-19],[8,-67],[7,-91],[-7,-30],[0,-61],[-4,-16]],[[7223,6134],[-7,52],[0,33],[8,52],[-8,85],[3,71],[37,0],[15,33],[0,19]],[[7271,6479],[25,-2],[115,27],[86,5],[2,32],[-2,26],[2,38],[47,-11],[107,53],[171,-57],[20,-187],[-48,-362],[-57,-88]],[[7739,5953],[-2,59],[-26,46],[-71,-15],[-90,-104],[-88,-63]],[[7462,5876],[-67,43],[-172,215]],[[7021,6440],[42,43]],[[7063,6483],[48,48],[68,-26],[77,13]],[[7256,6518],[15,-39]],[[7223,6134],[-183,216],[-10,21],[-9,69]],[[5765,8161],[15,-17],[0,14],[-15,11]],[[5766,8177],[6,12],[-4,36]],[[5769,8248],[9,11],[2,15],[5,-7],[5,12],[9,-4],[8,17],[19,-12],[10,5],[-12,23]],[[5824,8308],[-20,107]],[[5804,8415],[8,0],[15,20],[-9,14],[14,6],[-9,4],[8,15],[-8,12],[0,-12],[-11,9],[2,-28],[-14,-3],[-2,16],[-4,-6]],[[5794,8462],[-10,20]],[[5784,8482],[-3,28],[6,8],[-17,-7]],[[5770,8511],[-11,23]],[[5759,8534],[-2,8]],[[5757,8542],[93,113],[102,33]],[[5952,8688],[4,-21],[9,-31],[3,-23],[6,-5],[26,-7],[6,-20],[33,-12],[14,7],[3,20],[-4,13],[-18,1],[-7,6],[-12,26],[9,22],[6,0],[14,-15],[44,-25],[12,-3],[10,5],[9,-6],[4,21],[-13,29],[-4,21],[3,10],[39,27],[24,33],[29,-12],[17,-17],[5,2]],[[6223,8734],[110,-78],[90,-123],[51,-127],[46,-188],[5,-56]],[[6525,8162],[-197,-21]],[[6328,8141],[-52,-6],[2,313],[-9,10],[-125,-75],[0,-52],[-7,-19],[-31,-5],[-54,66],[-22,10],[-22,-38],[-2,-38],[60,-61],[13,-66],[-31,-99],[-45,-19],[-51,80],[-22,10],[-27,-5],[-3,-45],[-32,0],[-15,-21],[6,-43],[-4,-17]],[[5855,8021],[-3,-18],[-21,46],[-24,0],[-7,25],[-20,-7],[-2,-16],[-12,10]],[[5841,8371],[6,-14],[17,-48],[-2,-14],[11,-3],[7,24],[22,-5],[13,34],[-12,34],[-26,23],[-6,14],[-8,-1],[-7,12],[-10,-21],[-7,2],[-4,-20],[-7,-2],[13,-15]],[[6011,8400],[-5,6],[-15,40],[3,22],[-2,12],[-33,29],[2,-15],[20,-14],[6,-20],[-14,-2],[-1,-10],[-10,30],[0,-27],[-9,6],[-8,23],[-2,-8],[16,-29],[2,-25],[23,-22],[4,-23],[-12,3],[-5,10],[-5,-8],[18,-6],[11,-11],[15,25],[1,14]],[[5801,8432],[-1,1]],[[5800,8433],[1,-1]],[[5799,8441],[-2,8]],[[5797,8449],[17,3],[-2,-23],[-7,0],[-6,12]],[[5777,8513],[0,0]],[[5979,8433],[0,0]],[[6582,9262],[-34,16],[-30,-8],[-18,19],[24,24],[28,3],[1,11],[-9,11],[10,14],[19,6],[-10,13],[20,29],[20,1],[12,18],[24,19],[28,8],[16,-1],[9,5],[10,20],[15,3],[21,-9],[30,12],[63,13],[14,23],[56,7],[11,-11],[2,-12],[-10,-15],[-24,-16],[-32,-14],[-54,-16],[-54,-19],[-23,-10],[-26,-8],[-12,-6],[-4,-9],[8,-7],[-17,-19],[-32,1],[-7,-14],[8,-8],[-19,-22],[-15,8],[-7,-10],[11,-9],[1,-11],[-14,-21],[-10,-9]],[[8790,7841],[-279,91],[-231,142],[-251,51],[-419,-51]],[[7610,8074],[-247,92],[-224,275],[-176,41],[-245,-194],[-99,-103],[-79,-21],[-15,-2]],[[6223,8734],[9,41],[-4,35],[-15,13],[15,32],[-2,27],[-9,17],[5,12],[18,-7],[25,3],[8,-4],[22,-49],[-33,-5],[-10,-7],[-6,-16],[14,-15],[9,-18],[19,-10],[33,7],[4,5],[10,49],[15,6],[16,14],[36,23],[37,18],[12,10],[2,-15],[11,1],[8,24],[14,9],[10,-2],[-3,-32],[-10,-3],[-3,-12],[9,-6],[26,8],[5,-8],[11,25],[5,6],[24,6],[23,-8],[14,3],[12,15],[23,11],[16,-11],[-8,-15],[2,-7],[17,-7],[5,20],[16,1],[12,16],[1,14],[-17,33],[19,20],[34,-3],[46,-17],[26,-17],[14,-3],[34,-22],[45,-49],[8,2],[17,43],[-17,1],[-11,21],[0,22],[-9,9],[-25,5],[2,24],[13,19],[-4,35],[-14,2],[-3,9],[4,17],[28,23],[14,16],[14,33],[7,39],[8,14],[24,-7],[40,7],[22,-1],[7,-4],[4,-19],[-10,-39],[-17,-27],[-2,-11],[9,-11],[15,-33],[3,-26],[-10,-20],[4,-38],[-1,-42],[9,-32],[13,-8],[2,-10],[-6,-16],[-9,-37],[-26,-35],[-14,-15],[4,-17],[-20,-12],[-29,15],[-20,-5],[3,-10],[16,-16],[20,-7],[48,-4],[10,23],[17,11],[14,16],[8,28],[11,11],[10,20],[-2,30],[-7,18],[3,17],[11,8],[18,5],[22,0],[19,-22],[2,-25],[-4,-34],[15,-15],[16,-2],[11,5],[2,9],[-17,12],[-12,2],[0,13],[13,12],[-9,48],[-7,9],[-50,20],[-19,-10],[-28,6],[-7,43],[4,21],[13,38],[-16,41],[-13,23],[11,18],[15,3],[21,20],[5,28],[-2,22],[17,-7],[-1,-33],[-8,-19],[0,-33],[10,-18],[37,-10],[21,-2],[10,-14],[14,1],[-7,29],[-6,9],[-36,5],[-14,20],[3,10],[17,2],[20,-8],[9,5],[-1,24],[16,6],[16,1],[31,-20],[14,-17],[23,-14],[23,0],[9,5],[1,-11],[-18,-20],[-5,-57],[4,-4],[9,25],[8,8],[8,-17],[-1,-25],[18,16],[-1,10],[-14,42],[11,32],[-10,14],[-21,17],[-3,12],[-37,16],[-4,10],[0,31],[-11,22],[11,17],[29,3],[31,1],[45,10],[10,-12],[24,18],[18,3],[7,-6],[-12,-11],[-5,-13],[28,11],[15,21],[-4,14],[-16,15],[-4,10],[4,25],[64,49],[20,10],[46,3],[54,17],[31,22],[35,-1],[5,-6],[-5,-14],[32,-2],[32,13],[12,2],[21,-8],[9,7],[0,16],[6,11],[23,1],[16,12],[-8,17],[1,11],[15,14],[19,13],[28,13],[16,2],[31,-1],[10,-9],[1,-9],[-19,-13],[-8,-11],[6,-5],[23,4],[19,-5],[26,3],[-3,-13],[-14,-15],[-4,-9],[35,0],[3,-3],[13,18],[39,3],[49,-9],[18,-8],[15,-14],[6,-14],[20,2],[5,-16],[-17,-27],[14,-16],[-29,-28],[-27,-11],[-80,-66],[-10,-9],[-30,-12],[-30,-19],[-25,-37],[22,8],[12,14],[36,6],[60,22],[13,9],[-7,17],[10,17],[11,-7],[8,-13],[15,-7],[20,0],[14,8],[6,-2],[3,-26],[6,-13],[18,25],[21,0],[19,5],[29,0],[50,-7],[-4,-25],[5,-10],[25,-5],[33,-10],[46,6],[18,-12],[17,30],[-3,23],[23,15],[16,-2],[25,-19],[56,0],[22,-20],[0,-12],[-33,-18],[-31,-23],[0,-10],[25,-3],[9,-5],[28,-28],[25,-41],[23,-26],[17,-10],[8,0],[9,13],[25,57],[11,11],[3,-15],[9,-10],[31,-14],[11,3],[24,15],[20,0],[15,-8],[24,-24],[15,21],[-1,8],[15,10],[14,-14],[16,-1],[0,31],[3,29],[-14,-5],[-11,3],[10,13],[35,8],[20,21],[25,-8],[66,-16],[29,-2],[-22,-21],[23,2],[1,-17],[-22,-15],[-3,-10],[9,-1],[18,9],[12,11],[20,26],[50,-3],[23,-10],[5,-10],[-28,-19],[28,-14],[27,-6],[22,-19],[4,-14],[14,-16],[35,4],[46,15],[28,4],[37,-4],[28,-9],[23,-19],[11,-23],[-5,-33],[6,-8],[28,-6],[0,-22],[5,-13],[9,5],[7,14],[15,13],[30,1],[19,9],[9,-1],[7,-14],[9,-4],[47,-2],[11,4],[17,16],[21,-31],[25,-19],[4,-13],[7,-5],[20,5],[20,10],[2,8],[-13,38],[-10,4],[11,29],[53,-8],[15,-5],[3,-11],[17,5],[55,2],[16,-5],[25,-13],[17,-3],[26,-17],[9,-2],[29,-22],[0,-286],[-27,-13],[-8,-12],[-20,-4],[-16,4],[-9,23],[-11,-11],[-11,0],[-10,9],[5,-16],[-7,-10],[16,-9],[8,11],[9,-4],[0,-15],[13,-16],[17,5],[7,-35],[-9,-17],[7,2],[18,-35],[-2,-15],[10,4],[-1,-21],[-14,-17],[-40,14],[-3,13],[-10,1],[-8,-22],[-38,-29],[-18,-6],[-17,-20],[-12,-1],[-16,-23],[-12,-1],[-13,-30],[-21,-14],[-5,-15],[-20,-12],[-2,-19],[-11,-11],[-7,10],[-5,21],[-8,10],[-26,0],[-31,-12],[-30,-40],[-2,4],[7,42],[-12,0],[-10,-17],[-13,-11],[-2,-17],[-8,-5],[-13,30],[-10,-14],[-10,-5],[-10,-25],[6,-13],[-14,-23],[4,-5],[-19,-30],[-11,-27],[-1,-18],[12,-13],[17,2],[8,-11],[-14,-28],[-3,-9],[7,-32],[10,-3],[1,-32],[-4,-12],[-13,5],[5,24],[-11,-8],[-13,-27],[-10,-41],[4,-22],[10,-18],[-12,-23],[-25,2],[-7,-6],[-13,-20],[-7,-16],[0,-20],[6,-25],[-16,-8],[-24,-22],[-2,-45],[-14,-38],[-33,-52],[-10,69],[0,26],[-9,37],[-9,74],[0,19],[-6,61],[-1,26],[5,71],[2,8],[24,41],[9,30],[-3,16],[20,12],[23,20],[30,42],[7,25],[33,43],[19,28],[8,24],[16,14],[26,17],[14,38],[-7,7],[10,30],[2,28],[7,7],[28,5],[-6,10],[-26,7],[-31,-15],[0,-10],[-8,-30],[1,-11],[-14,-8],[-20,-23],[-25,-34],[-17,-9],[6,26],[-12,2],[-2,9],[12,40],[-5,8],[-21,-16],[-11,17],[-48,-11],[-19,-16],[0,-21],[-21,-24],[2,-16],[-16,-12],[-23,-30],[-11,-30],[0,-12],[7,-7],[16,-1],[4,-13],[-27,-13],[-22,6],[-18,-17],[-8,11],[-24,-17],[-9,8],[1,9],[22,9],[-9,21],[-11,7],[-28,-3],[-11,14],[-19,0],[-9,-8],[1,-13],[-9,-15],[-14,12],[-26,-5],[-19,7],[-7,-2],[-3,-20],[-12,4],[-3,21],[-71,-4],[-14,-9],[-12,-15],[-16,-32],[-21,-18],[-15,-43],[-32,-38],[-15,-23],[-31,-59],[-20,-29],[-34,-40],[-8,-13],[-3,-21],[6,-9],[17,-2],[22,4],[-5,-41],[4,-17]],[[5462,7101],[1,33],[5,28],[16,-7],[9,18],[33,0],[23,39],[15,-2],[11,-19],[8,4]],[[5583,7195],[19,-71]],[[5602,7124],[-6,-60]],[[5596,7064],[-21,-5],[-31,-76]],[[5544,6983],[-13,13],[-6,20],[-11,10],[-26,39],[-17,31],[-9,5]],[[5371,7267],[-26,-22],[-7,-13]],[[5338,7232],[-6,16],[5,24],[26,15],[8,-20]],[[5393,7218],[-8,-19],[-6,21],[-4,30],[8,8]],[[5383,7258],[5,-8],[-5,-11],[3,-24],[7,3]],[[5261,7058],[1,-54],[-8,-50],[-12,15],[0,23],[-6,18],[3,26],[11,14],[11,8]],[[5352,7140],[25,-29],[13,-65]],[[5390,7046],[-10,-17],[-2,10],[-6,-12],[7,-41],[7,-4],[2,-30],[-6,-9]],[[5382,6943],[-22,12],[-9,12],[-19,34]],[[5332,7001],[6,45],[1,43],[13,51]],[[5390,7046],[13,-29],[11,-19],[15,-8],[15,4],[5,-12],[-9,-17],[4,-7],[26,-23],[30,-36],[14,-36],[-4,-25],[-10,14],[-5,22],[-12,3],[-5,15],[-8,-1],[-9,-28],[-2,-29],[17,-20],[-2,-36],[-8,1],[-8,-15],[2,-19],[-7,-10],[-8,-28],[-11,5],[0,17],[8,22],[-3,6],[11,11],[-6,47],[-9,48],[-7,-8],[-15,19],[2,22],[-6,11],[-11,-8],[1,19],[-9,-6],[-8,31]],[[5398,7240],[5,33],[8,6],[2,-27],[15,-4],[1,22],[18,-11],[-1,22],[4,19],[6,-4],[3,19],[-7,3],[6,16],[-2,22],[6,27],[-1,31],[5,8],[17,-2],[2,18],[-7,0],[-1,27],[4,38],[15,-12],[7,4],[11,51],[11,4]],[[5525,7550],[13,13],[5,-19],[9,-5],[3,24],[15,0],[4,-11],[18,16],[12,-9]],[[5604,7559],[0,-11]],[[5604,7548],[70,-60],[80,-57],[7,-42]],[[5761,7389],[6,-33],[-7,-43],[-11,-16]],[[5749,7297],[-13,-21],[-96,-57],[-11,-28]],[[5629,7191],[-9,9],[-7,-23],[-20,23],[-10,-5]],[[5462,7101],[-8,9],[-8,-6],[-5,16],[-13,20],[-8,22],[11,-1],[-15,23],[-1,27],[-17,29]],[[5205,7128],[-24,-45],[-20,-9],[-11,6],[-10,16],[-18,2],[-9,10],[-17,-13],[-15,-31]],[[5081,7064],[-6,-11],[-12,-3],[-15,-13],[-8,8]],[[5040,7045],[-4,-1]],[[5036,7044],[-16,12],[-4,-10],[-21,1],[-7,10]],[[4988,7057],[57,218],[0,16],[-10,20],[-25,0],[-7,-20],[-23,0],[-15,20]],[[4965,7311],[-13,10],[-12,29],[4,14],[-16,20],[16,31]],[[4944,7415],[7,31],[-7,36],[-22,-6],[-8,20],[-13,-4],[-2,-9],[-11,3],[-21,-13]],[[4867,7473],[21,13],[11,-3],[2,9],[13,4],[8,-20],[12,6],[4,-6],[21,6],[-3,7],[0,33],[-9,21],[-1,13],[19,0],[2,-27],[4,5],[22,-8],[16,12],[-7,4],[3,12],[9,11],[21,13],[8,16],[1,43],[5,7]],[[5049,7644],[1,-49],[9,-13],[7,10],[8,-4],[6,-15],[16,-1],[10,8],[12,-11],[30,-14],[16,-35],[-9,0],[3,-18],[8,-4],[-4,-9],[5,-9],[-2,-22],[8,-4],[0,-24],[-8,2],[-4,-18],[-4,-45],[-1,-47],[-6,5],[-4,-15],[7,-16],[-5,-16],[7,-2],[6,-33],[31,-38],[-4,-23],[1,-31],[5,-5],[-2,-17],[12,7],[1,-10]],[[4931,7397],[0,0]],[[4878,7429],[0,0]],[[4879,7448],[1,-8]],[[4880,7440],[-1,8]],[[4879,7461],[-1,-6]],[[4878,7455],[1,6]],[[4927,6626],[-10,-5],[-41,-1],[-9,-17],[-12,-6],[-6,-24],[-7,-5],[-15,20],[-2,21],[-10,32]],[[4815,6641],[40,37],[34,-5],[38,-47]],[[4755,6992],[-2,9],[6,30],[-8,29],[-8,5],[-1,11],[7,17],[20,5],[2,19],[7,9],[9,-1],[14,-12],[19,0],[13,10],[13,-9],[20,-8],[27,-2],[12,-4],[11,12],[7,-1],[11,-15],[6,0]],[[4940,6987],[0,-23],[-4,-17],[7,-2],[3,-44],[-10,-17],[0,-11],[8,-11],[5,-16],[-5,-19],[5,-9],[0,-21],[-6,5],[0,-47],[6,-5],[0,-19],[5,-6],[0,-19],[-11,-5],[3,-14],[-6,-30],[6,-21]],[[4946,6636],[-9,-16],[-10,6]],[[4815,6641],[-16,15],[-8,-1]],[[5499,6035],[-1,155]],[[5498,6190],[27,-40],[11,4],[18,33],[4,17],[-5,47],[4,31],[8,19],[19,24],[17,13],[25,-7],[13,-17],[4,-25],[15,-4],[9,-10],[22,-2],[12,-34],[25,4],[45,-23],[4,-13],[17,-3],[20,-15],[12,22],[12,13],[24,17],[20,-6],[3,-15],[7,-12],[7,5],[13,-9],[7,13],[15,-12],[17,19],[9,28],[9,76],[3,2],[16,102],[10,22],[-4,23],[2,38],[-6,11],[7,30],[-5,21],[4,12]],[[5994,6589],[71,-83]],[[6065,6506],[-9,-39],[-23,-75],[-19,-173],[2,-99],[23,-141],[46,-168],[30,-107],[27,-117],[19,-50],[3,-68],[-31,-78],[-3,13],[-26,39],[-17,59],[-1,85],[-6,34],[-16,69],[-9,21],[-12,11],[-10,28],[0,36],[-15,62],[-10,29],[-24,94],[-9,25],[-10,2],[3,19],[6,71],[-3,9],[-6,-16],[-6,-37],[-6,-66],[-8,-2],[-20,55],[-4,32],[-6,14],[-9,47],[-6,-5],[-3,-17],[9,-56],[20,-62],[16,-97],[5,-15],[11,-56],[19,-85],[-74,-48],[-48,-5],[-40,26],[-54,229],[-55,58],[-104,6],[-103,38]],[[4939,6500],[19,12],[10,29],[20,17],[9,-9],[8,21],[16,25],[8,6],[41,8],[8,10],[14,-4],[11,13],[19,0],[20,-12],[25,12],[8,18],[17,-19],[10,17],[7,-1],[10,-19],[20,8],[22,28],[9,0],[11,-13],[4,-25],[8,3],[13,20],[-3,-30],[-12,-32],[3,-23],[11,-20],[3,-27],[-7,-32],[-8,-11],[-15,-41],[11,-32],[10,-12],[9,5],[3,-20],[25,-27],[12,-10],[18,3],[27,-8],[7,-15],[16,-8],[7,-13],[3,-27],[14,-37],[13,-9],[30,-12],[15,-17]],[[5499,6035],[-27,10],[-124,148],[-129,129],[-62,16],[-89,-11],[-99,-15],[-20,-2]],[[6034,6930],[39,-7],[20,10],[18,-8],[10,1],[25,23],[6,11]],[[6152,6960],[-20,-63],[-16,-15],[-39,-15],[-29,10],[-14,53]],[[6152,6960],[5,26],[-1,23],[-6,48],[-8,17]],[[6142,7074],[67,-13],[48,-29]],[[6257,7032],[-23,-29],[-82,-43]],[[5749,7297],[28,-60]],[[5777,7237],[-5,-32],[8,-19],[-4,-23],[-42,0],[-27,-38],[-24,19],[-10,-14],[-20,19],[-17,-19],[0,28],[-12,14],[5,19]],[[7739,4235],[-4,-31],[4,-33],[29,-90],[-8,-103]],[[7760,3978],[-8,9],[-11,83],[-3,25],[-17,29],[-11,10],[-2,35],[-7,29],[-15,41],[-9,-5],[-23,65],[-7,30],[-4,33],[8,11],[8,-7],[12,-23],[16,-6],[17,8],[16,-47],[6,-11],[-1,-22],[14,-30]],[[8033,3466],[-3,-53]],[[8030,3413],[-14,3],[-12,-11],[-12,5],[-10,16],[-25,4],[-4,5],[6,20],[-18,17],[-20,4],[-1,6],[13,2],[2,22],[7,31],[16,-6],[3,-15],[7,3],[2,18],[11,-9],[12,-22],[11,7],[8,-24],[3,-17],[18,-6]],[[8082,4060],[8,-32]],[[8090,4028],[-18,-45],[2,-55],[18,-55]],[[8092,3873],[-34,-124]],[[8058,3749],[-1,43],[-4,61],[-4,24],[-17,32],[7,11],[-10,22],[2,24],[-8,29],[-1,35],[4,32],[9,45],[12,-19],[16,-7],[19,-21]],[[7739,4235],[34,-54],[0,-24],[7,-2],[10,-31],[11,-17],[-1,21],[6,-6],[12,-39],[11,-8],[7,-36],[10,-23],[21,-11],[13,-32],[-1,-10],[-12,-39],[4,-17],[10,-16],[10,-2],[5,-16],[2,-38],[6,-18],[7,-1],[-6,-30],[2,-7],[9,15],[12,-10],[5,-22],[9,-22],[-6,-65],[2,-45],[0,-44],[-4,-42],[-13,28],[-4,-25],[-13,21],[-3,-3],[5,-24],[-2,-7],[-29,77],[-30,59],[-9,42],[-13,20],[-9,22],[-14,49],[-5,51],[-19,81],[-16,43]],[[7737,4567],[32,72]],[[7769,4639],[5,-14],[-1,-25],[8,-13],[4,-47],[2,-32],[7,-33],[26,-17],[4,-20],[11,-23],[7,-4],[13,-38],[15,-55],[1,-45],[-2,-28],[0,-55],[4,-29],[10,-33],[10,-56],[-16,4],[-5,-5],[-20,36],[-22,33],[-16,32],[-2,32],[-5,23],[-12,26],[-1,47],[-6,34],[-7,83],[2,25],[-7,-1],[-8,14],[-1,26],[-5,20],[-5,-2],[-7,40],[-13,28]],[[7959,3743],[-15,20],[-6,37],[-6,12],[-11,7],[7,29],[6,-18],[6,24],[5,-41],[8,-27],[9,-10],[-5,-15],[2,-18]],[[8220,3741],[-4,-25],[-7,-19],[-27,-35],[-6,50],[-7,18],[-14,-19],[-4,17],[-9,10],[-10,19],[-6,-32],[-9,1],[-14,-18],[0,28],[-4,34],[-4,-13],[-18,-14],[-4,13],[-15,-7]],[[8092,3873],[41,-37],[27,0],[23,16]],[[8183,3852],[37,-111]],[[8033,3466],[23,-3],[10,7],[2,21],[9,9],[7,-23],[34,-12],[7,-17],[-1,-15],[5,-18],[11,-12],[14,-2],[10,6],[9,-14],[-5,-30],[7,-25],[-35,32],[-18,-11],[-46,12],[-20,24],[-26,18]],[[8275,3356],[-7,19],[8,8],[5,-13],[20,-10],[3,-29],[-19,-3],[-2,13],[-10,-15],[-24,-16],[-9,8],[0,26],[8,12],[15,-6],[9,-14],[7,15],[-4,5]],[[8196,3338],[-16,24],[-1,9],[17,7],[12,-17],[-12,-23]],[[8082,4060],[4,3],[-6,17],[13,79],[7,9],[31,20],[6,11],[6,33],[7,11],[11,36],[9,18],[8,4],[9,30],[3,-9],[14,1],[1,17],[-6,12],[3,13],[12,1],[1,19],[16,45],[7,39],[8,-18],[4,14],[4,-16],[9,-16],[1,-11],[-5,-33],[14,8],[-3,-23],[17,4],[19,-34],[-10,-18],[-16,2],[-3,-19],[11,-22],[-8,-17],[-14,-7],[2,-30],[-17,-9],[8,-34],[13,-52],[-3,-29],[6,-23],[16,-30],[7,-25],[-15,-5],[-10,8],[-9,-18],[-6,-55],[3,-34],[-2,-28],[-9,5],[-13,-31],[-5,-21],[-9,-20],[5,-12],[3,-23],[-8,-2],[5,-18],[-8,-36]],[[8183,3852],[39,133],[11,85],[-5,49],[-25,75],[-21,30],[-23,-30],[-35,-60],[-34,-106]],[[8324,3970],[6,40],[9,18],[5,-11],[1,-18],[-9,-14],[-5,-24],[-1,-39],[6,-22],[8,-136],[-7,-14],[3,-42],[-4,-54],[5,-29],[-5,-31],[3,-25],[-21,-16],[-5,27],[4,26],[2,63],[-1,28],[-7,17],[-12,-7],[-3,55],[14,53],[2,15],[-2,38],[6,38],[5,2],[0,28],[3,34]],[[7745,4807],[12,6],[10,-10]],[[7767,4803],[-13,-75],[-3,-43],[2,-38],[5,-15],[11,7]],[[7737,4567],[-7,-7],[-4,32],[2,24],[11,84],[-6,7],[0,26],[5,22],[7,52]],[[4912,7926],[-12,7],[-15,-12],[-9,7],[-4,-13],[-14,8],[1,11],[12,35],[-8,17],[8,17],[-2,17],[-12,-18],[-12,-10],[-2,14],[10,43],[-8,8],[-7,-18],[-6,5],[11,38],[-3,19],[8,9],[-9,17],[6,11],[14,-2],[-8,25],[12,5],[-6,17],[6,12],[11,-12],[19,8],[19,1],[0,-18],[-28,-32],[0,-20],[36,-1],[20,2],[5,-12],[-5,-28],[-15,-39],[-13,-10],[12,-11],[-16,-15],[-17,1],[5,-7],[16,-3],[11,8],[14,-11]],[[4937,7996],[-25,-70]],[[4841,7962],[0,21],[6,-13],[-6,-8]],[[4988,7057],[-5,-4],[-9,11]],[[4946,7095],[10,15],[7,75],[1,41],[3,27],[9,-13],[-11,26],[5,24],[-5,21]],[[4937,7996],[15,-25],[4,-39],[5,-17],[14,-10],[16,-37],[0,-33],[11,-13],[5,-19],[-7,-25],[9,-5],[11,14],[18,-7],[6,-12],[2,-24],[-5,-21],[-13,-15],[-9,-18],[-12,-8],[30,-7],[0,-17],[-19,-14],[-13,-14],[-15,6],[-14,-7],[-7,7],[-27,-8],[1,-10],[-14,0],[-12,11],[-15,-7],[-1,-19],[-9,-11],[-10,14],[-20,-13],[-9,-18],[-14,12],[15,15],[6,16],[12,16],[1,15],[8,14],[12,3],[21,-4],[9,34],[-12,-13],[-9,0],[-18,15],[-23,2],[-7,12],[5,10],[21,14],[5,13],[-1,33],[-13,0],[9,18],[10,9],[29,4],[-4,18],[4,47],[-10,-2],[-9,20],[12,30]],[[4827,7863],[-6,-4],[7,-34],[4,-39],[-10,-49],[-14,0],[-2,-7],[-22,-6],[-22,-30],[-19,-10],[-16,-3],[-1,26],[-10,-3],[-2,16],[9,8],[-15,1],[1,8],[16,-1],[4,20],[15,6],[2,9],[-14,-3],[9,34],[11,3],[-20,14],[-15,2],[1,14],[9,4],[3,18],[-13,2],[0,16],[8,14],[36,-9],[-3,12],[11,9],[2,11],[-17,0],[9,8],[5,25],[16,11],[7,-14],[24,11],[17,-8],[7,-26],[3,-30],[-7,-21],[-8,-5]],[[5390,7860],[-6,-6],[-2,15],[8,-9]],[[5401,7857],[0,0]],[[5246,7882],[5,9],[17,-12],[13,11]],[[5281,7890],[14,-5],[11,3],[-1,-15],[-8,-10],[19,-7],[5,12],[13,5],[17,16],[8,2],[14,-23],[6,4],[3,-22],[18,-13],[1,20]],[[5401,7857],[24,14],[16,4],[16,21],[33,19]],[[5490,7915],[2,-18],[-17,-22],[-12,-6],[3,-13],[0,-29],[-4,29],[-12,-11],[5,-13],[-5,-14],[-5,-45],[-5,0],[-3,-32],[21,-19],[0,12],[10,-18],[0,-19],[9,-3],[3,12],[7,-9],[2,-16],[14,-32],[14,-25],[4,-34],[1,-33],[3,-7]],[[5398,7240],[-5,-22]],[[5383,7258],[-4,10],[-8,-1]],[[5338,7232],[9,-24],[-7,-15],[2,-27],[10,-26]],[[5332,7001],[-13,27],[-11,12],[-10,22],[-7,28],[-6,33],[-10,30],[-28,23],[-7,-1],[-19,-33],[-16,-14]],[[5049,7644],[18,9],[16,19],[19,1],[-5,18],[21,36],[10,49],[11,7],[6,-16],[-6,-5],[-2,-20],[15,-8],[7,12],[-4,14],[2,16],[-10,3],[2,25],[16,14],[22,4],[6,-5],[6,19],[22,4],[6,-23],[0,15],[9,-6],[1,25],[16,0],[-7,5],[0,26]],[[4596,5994],[11,25],[9,47],[8,28],[3,-25],[-10,-15],[-3,-49],[-18,-11]],[[4567,6004],[5,1],[5,-21],[-10,-13],[-9,13],[9,20]],[[4519,6011],[12,3],[22,16],[-16,-36],[-19,-1],[1,18]],[[8626,6205],[5,37],[-5,3],[-9,-36],[-5,14],[4,25],[-4,29],[11,23],[1,19],[-7,26],[-4,1],[-7,-24],[-14,40],[5,11],[18,3],[7,24],[12,0],[3,-12],[9,-8],[8,6],[3,-12],[-7,-15],[11,-30],[-7,-19],[-5,-25],[-2,-41],[-10,-23],[-6,-22],[-5,6]],[[8813,6671],[1,-11],[-9,-17],[1,-27],[35,39],[11,17],[4,21],[10,13],[8,36],[7,19],[8,58],[-6,29],[5,16],[-2,34],[15,29],[5,-19],[14,11],[-2,17],[-8,11],[8,13],[10,-12],[1,-55],[6,-14],[8,-46],[-3,-40],[-8,-24],[-2,-27],[-12,-11],[-6,-25],[3,-47],[0,-22],[-9,-25],[-3,-46],[8,-22],[-12,-19],[-2,-27],[-14,-14],[-1,9],[6,38],[-9,-3],[-7,-20],[-10,-11],[-1,-24],[-8,-3],[-2,25],[-6,-6],[-8,-27],[-11,1],[-14,-5],[-6,18],[-9,11],[-6,-26],[11,-19],[-20,-18],[-12,-48],[-19,25],[-3,32],[10,24],[-3,11],[-8,-6],[-14,7],[-17,-18],[-6,4],[-31,-22],[-8,11],[-5,-14],[0,-21],[-17,10],[-17,2],[3,20],[12,4],[10,15],[27,63],[9,5],[1,-14],[22,12],[26,8],[11,8],[6,-23],[16,20],[1,27],[19,50],[0,36],[4,10],[14,9]],[[8682,6325],[-7,34],[-6,17],[9,13],[10,28],[5,-8],[13,6],[10,21],[6,1],[14,-13],[0,-26],[-15,-36],[-7,17],[-6,1],[-10,-13],[-7,-39],[-9,-3]],[[5550,8974],[9,28],[6,-3],[-5,-28],[10,14],[5,19],[11,3],[8,14],[14,-15],[11,29],[12,-3],[13,-16],[8,24],[9,14],[11,0],[10,19],[23,12],[12,-1],[-17,-24],[-4,-30],[5,-3],[9,19],[19,31],[9,9],[1,-38],[14,13],[11,29],[19,3],[3,-5],[-9,-17],[-3,-21],[11,-3],[3,14],[11,21],[6,0],[21,-19],[20,-5],[9,-16],[-15,-13],[-43,1],[23,-22],[5,-10],[28,4],[17,-7],[20,16],[4,-17],[11,-16],[19,-6],[1,-19],[9,10],[50,-5],[50,-25],[12,-12],[28,-35],[34,-15],[25,-20],[5,-9],[1,-24],[6,-19],[-11,-27],[-24,-26],[-22,-12],[-32,-2],[-63,18],[-45,27],[-20,5],[-12,20],[-10,5],[-12,-4],[15,-25],[20,-24],[30,-23],[5,-14],[-3,-23],[-9,-6]],[[5757,8542],[-2,-1]],[[5755,8541],[-113,30]],[[5642,8571],[37,62],[13,13],[11,-1],[-5,20],[3,24],[-4,9],[-14,3],[-11,15],[-10,1],[-18,-9],[-16,19],[-12,-16],[-7,-20],[-12,-5],[-7,-12],[6,-14],[-15,-22],[12,-23],[-14,-26]],[[5579,8589],[-100,13],[13,25],[-11,20],[33,115],[-3,58],[15,77],[24,77]],[[3109,8719],[6,-15],[14,-3],[14,-45],[7,-14],[11,9],[15,-22],[17,-12],[-8,-4],[1,-13],[23,-31],[1,-36],[-16,37],[-7,8],[1,-17],[13,-41],[0,-10],[-11,4],[11,-37],[-15,16],[-11,22],[-22,5],[-18,22],[-18,31],[3,-25],[-23,20],[-11,1],[12,-30],[10,-14],[23,-21],[16,-20],[10,-18],[11,-38],[-23,11],[-35,22],[-18,4],[-13,8],[-12,21],[-14,4],[-34,21],[-9,11],[10,26],[-17,17],[-14,4],[-10,11],[-11,24],[-1,16],[-14,2],[-16,12],[-8,1],[3,-25],[-7,-2],[-21,11],[-14,-21],[-16,-2],[-34,11],[-10,9],[2,23],[5,11],[13,6],[1,22],[19,-2],[24,-11],[12,-20],[0,25],[20,4],[16,9],[16,-3],[2,9],[-14,27],[-10,12],[1,12],[22,16],[150,-45]],[[2821,8209],[11,17],[10,42],[13,12],[-8,48],[3,21],[-22,3],[14,30],[6,27],[-11,15],[-4,26],[4,14],[14,16],[10,-2],[36,-20],[27,-3],[30,16],[19,-16],[34,-45],[-3,-13],[26,-23],[24,-12],[14,8],[4,-23],[-7,-11],[-2,-15],[11,-79],[-4,-17],[-10,1],[-2,-22],[5,-9],[14,13],[18,3],[13,-22],[3,-23],[6,6],[27,10],[9,31],[7,-5],[8,-23],[6,46],[13,21],[-8,16],[3,14],[12,3],[9,27],[9,-12],[17,-36],[7,-26],[17,-36],[-3,-21],[7,1],[6,-30],[-387,-100],[-3,50],[-6,28],[-17,32],[-26,32],[-3,15]],[[3213,7599],[-1,0],[52,304],[-3,4]],[[3261,7907],[-6,8],[27,112],[11,-5],[27,-37],[3,-17],[-6,-25],[6,-2],[19,8],[9,-5],[22,-22],[31,-14],[-2,-9],[-18,-13],[-19,-9],[-15,-21],[-13,-2],[-8,-11],[-3,-29],[30,17],[15,25],[15,16],[15,3],[12,-18],[-5,-15],[5,-13],[13,12],[21,-22],[3,-14],[-9,-40],[13,-30],[-37,-50],[-43,-8],[-17,-39],[-16,-24],[-12,-7],[-42,-10],[-43,5],[-31,-3]],[[2836,3747],[-14,14],[-5,57],[20,33],[17,-31],[0,-47],[-18,-26]],[[8953,3184],[8,-12],[3,-17],[2,-43],[10,-15],[-5,-29],[8,-11],[4,-29],[1,-42],[8,-58],[9,-9],[9,16],[4,-21],[18,-28],[1,-44],[3,-25],[0,-35],[15,-51],[4,-48],[-2,-28],[11,-60],[21,-31],[9,-3],[5,-21],[16,-23],[15,-2],[-4,-33],[4,-14],[11,-15],[12,-99],[13,-22],[-2,30],[19,-22],[4,-14],[1,-56],[11,-25],[15,-16],[9,-42],[7,-5],[6,-40],[10,-19],[5,-43],[0,-56],[-3,-24],[12,-57],[3,-51],[-4,-23],[-4,-55],[-8,-56],[1,-52],[-4,-26],[-8,-31],[-2,-22],[-8,-26],[-11,-10],[-11,-37],[-4,-50],[-11,-36],[-2,-39],[-15,-32],[-6,-67],[-1,-52],[-3,-21],[-10,-21],[-34,-7],[-7,-5],[-34,-54],[-14,-3],[6,-21],[-27,33],[-1,20],[-15,27],[-15,-13],[9,-15],[-12,-8],[-27,-29],[-18,22],[-22,17],[-10,-7],[-9,5],[-16,21],[-18,38],[-5,28],[1,34],[-3,29],[-8,24],[-3,31],[-6,1],[-10,-13],[-12,-6],[-4,8],[6,15],[4,45],[-13,41],[-6,-24],[-5,-46],[-21,-11],[5,29],[8,-1],[4,13],[-1,32],[10,42],[1,26],[5,5],[2,19],[-8,32],[-2,-23],[-10,-18],[-10,-46],[-10,-8],[-17,-34],[-11,-49],[-5,11],[-5,44],[-6,29],[-8,26],[-6,30],[-12,1],[-3,17],[4,20],[-11,29],[-20,0],[-12,18],[-9,-5],[-10,7],[-20,31],[-12,-7],[-46,-5],[-16,-11],[-13,-14],[-25,-17],[-33,-4],[-12,-9],[-22,-28],[-17,-14],[-17,-55],[-7,-10],[-17,1],[-16,-10],[-12,15],[-9,0],[-32,-11],[-14,0],[-12,-33],[-18,-2],[-13,-35],[-19,-12],[-27,5],[-17,18],[-9,22],[-16,15],[-2,48],[12,-1],[7,29],[3,44],[-1,40],[-5,39],[-14,62],[-4,48],[0,32],[-8,57],[-18,63],[1,29],[-11,54],[-13,33],[-1,26],[9,-37],[9,-7],[-5,37],[-8,24],[1,10],[9,-27],[7,-32],[5,-2],[-1,18],[4,19],[-16,60],[-5,23],[-2,42],[9,37],[2,21],[-4,66],[8,38],[5,-41],[6,3],[5,34],[24,36],[22,44],[8,11],[33,5],[10,21],[18,7],[7,22],[8,3],[10,-8],[20,11],[18,22],[14,41],[5,30],[18,33],[-4,61],[14,36],[5,23],[7,-20],[11,-52],[3,34],[9,-10],[1,24],[-9,15],[1,22],[11,-1],[8,-8],[12,2],[-10,17],[2,43],[8,14],[9,-13],[4,44],[0,17],[9,9],[10,-1],[7,35],[5,10],[7,-20],[9,40],[9,-20],[10,-9],[12,-37],[3,-48],[10,35],[21,-8],[12,-20],[6,33],[-11,23],[-1,14],[10,20],[0,15],[14,33],[-1,15],[6,28],[14,10],[-3,13],[9,15],[10,-12],[24,5],[10,12],[-4,30],[-16,27],[9,6],[8,-17],[8,0],[17,-30],[24,-13],[10,5],[4,-20],[7,-3],[7,14],[14,-13],[4,-15],[6,4],[4,29],[12,-24],[-6,-13],[-5,-43],[-6,-1],[-12,-18],[4,-29],[-2,-23],[-12,-34],[-2,-16],[7,-20],[13,-20],[16,-41],[11,-1],[19,-26],[14,-32],[19,-11],[8,-32],[16,-23],[12,-3],[15,17],[9,44],[5,36],[3,43],[9,45],[-7,34],[5,47],[-4,22],[2,55],[9,24],[-6,17],[7,38],[5,57],[6,17]],[[9074,818],[-20,23],[-7,12],[-15,55],[11,-7],[-1,17],[-17,46],[-6,39],[-1,22],[34,-21],[13,-12],[10,1],[15,11],[9,-1],[13,17],[6,-12],[1,-51],[-9,-49],[-5,-35],[-12,-8],[-7,-13],[-8,-31],[-4,-3]],[[2740,5639],[0,-70]],[[2740,5569],[-12,4],[-11,11],[14,11],[-10,13],[-23,-4],[-15,-30],[-12,-1],[-10,-27],[-14,-5],[9,21],[-2,19],[5,16],[16,20],[20,15],[25,8],[20,-1]],[[1110,8478],[-31,-191]],[[1079,8287],[-6,4],[-2,14],[-27,-5],[-19,4],[-27,-2],[-9,3],[-12,16],[-5,17],[-14,-12],[-11,10],[-3,10],[-16,13],[-19,7],[-19,20],[-15,-11],[1,-14],[-11,-23],[14,-10],[1,-22],[-5,-14],[-23,9],[-7,-4],[-12,-19],[-14,-7],[-24,-29],[-14,-4],[3,14],[9,13],[-9,33],[10,19],[7,29],[20,18],[28,-4],[3,6],[-27,27],[-13,-1],[-16,-25],[-24,-21],[-10,-20],[-9,-7],[0,-28],[-7,-11],[-16,-7],[-16,-29],[5,-15],[18,-11],[-6,-17],[-15,-16],[-12,-25],[-26,-13],[-9,-13],[-21,-23],[5,-22],[-14,-13],[-21,-10],[-22,-24],[-5,-18],[-10,-15],[-30,-13],[-12,11],[4,17],[9,9],[10,19],[14,14],[18,-2],[-1,24],[27,38],[3,48],[9,16],[3,26],[-24,-10],[-8,1],[-6,19],[-11,-9],[1,-30],[-7,2],[-19,33],[-17,5],[-12,-3],[-8,-16],[-14,-4],[-8,2],[-4,41],[4,17],[-2,14],[-11,32],[-32,-23],[-13,-3],[-16,30],[-13,15],[-2,9],[8,19],[25,-14],[12,6],[-11,25],[-18,-7],[-24,23],[-13,0],[-8,35],[9,6],[1,15],[7,7],[4,21],[11,16],[15,37],[5,6],[28,-15],[9,4],[14,22],[15,9],[22,2],[4,6],[1,25],[301,-48],[151,-9],[129,-51]],[[1110,8478],[14,-5],[197,6],[208,168],[188,-153],[192,-300]],[[1909,8194],[-312,-311]],[[1597,7883],[-90,-80]],[[1507,7803],[-59,-52]],[[1448,7751],[-5,7],[-1,31],[-10,0],[-12,35],[2,25],[-7,-2],[-11,-16],[-15,30],[-9,44],[13,31],[-4,23],[-2,-14],[-13,-14],[-7,12],[2,29],[-13,41],[-16,-2],[-14,-12],[-1,21],[5,15],[-21,48],[-15,15],[2,11],[-8,26],[4,8],[-10,11],[-8,18],[-19,23],[-9,44],[-9,12],[-1,-26],[6,-44],[-13,7],[-11,31],[-7,-4],[-15,7],[16,-23],[0,-7],[-20,-5],[-14,11],[-24,40],[-21,8],[-16,18],[12,8],[-6,19],[-16,-9],[-28,5]],[[3213,7599],[-35,4],[-22,-3],[-13,-16],[-13,-48],[-28,-14],[-13,-18],[-20,-38],[-30,-74],[-12,-49]],[[3027,7343],[-3,-8],[-33,-25],[-267,188],[-86,14],[-77,60],[-205,3],[-11,2]],[[2345,7577],[-93,17],[-174,88],[-258,40]],[[1820,7722],[-16,2],[-207,159]],[[1909,8194],[253,-96],[232,-26],[30,-2],[39,24],[24,-1],[20,-16],[27,-14],[24,-29],[12,-30],[44,-22],[20,-20],[19,-12],[25,4],[33,-12],[5,-6],[-5,-51],[6,-20],[-1,-47],[-4,-26],[14,-19],[3,-12],[0,-27],[12,-4],[12,-15],[9,-19],[5,-25],[8,0],[21,-33],[-7,31],[9,24],[12,-32],[4,29],[-3,15],[7,17],[1,18],[-7,35],[127,13],[88,164],[149,5],[77,-39],[8,-11]],[[3169,2651],[35,109],[13,152]],[[3217,2912],[109,64],[198,-34]],[[3524,2942],[129,-683],[-28,-58],[-10,-162],[29,-121],[-4,-16],[-17,-33],[-10,-34],[-15,-80],[-10,-33],[-18,-46],[4,27],[13,37],[8,38],[-1,8],[-10,-4],[-7,7],[-6,-54],[-5,-16],[-12,-23],[-3,-14]],[[3551,1682],[-39,22],[-22,61],[-83,66],[-173,-26],[-109,-116]],[[3125,1689],[0,-1],[-50,167]],[[3075,1855],[34,208]],[[3110,2094],[25,72],[29,353],[5,132]],[[3947,3655],[0,0]],[[3947,3655],[0,0]],[[3077,10],[-13,11],[-29,-11],[3,31],[11,5],[18,-2],[6,-10],[8,0],[-7,22],[-16,11],[-7,24],[20,19],[-2,14],[-23,-9],[-4,7],[5,21],[14,17],[11,21],[5,-10],[14,-2],[11,-16],[-11,-21],[4,-8],[12,-2],[8,-23],[24,-46],[16,-20],[14,-7],[18,-1],[-3,-14],[-35,-11],[-15,12],[-34,4],[-23,-6]],[[2946,837],[-10,14],[4,36],[-1,31],[5,23],[10,4],[5,-21],[-10,-22],[6,-25],[-4,-43],[-5,3]],[[2964,153],[1,27],[-10,-2],[1,23],[20,0],[0,-26],[-6,-28],[-6,6]],[[3080,268],[8,-40],[11,-36],[-16,-1],[-7,9],[-18,-24],[-14,-3],[-9,-9],[-5,-32],[-2,-42],[-13,-4],[-12,13],[20,53],[-8,10],[-17,-18],[-19,-5],[-1,18],[31,18],[-8,5],[-17,0],[3,30],[-10,16],[-8,-12],[-8,6],[4,23],[-9,-7],[-8,17],[6,15],[-17,26],[10,6],[10,34],[-15,-3],[-3,22],[7,13],[-9,26],[10,15],[-2,13],[-8,-13],[-2,49],[5,19],[-2,34],[22,-10],[2,13],[-11,14],[-11,-4],[-11,3],[6,36],[7,-1],[3,20],[-14,16],[-15,2],[0,16],[-12,-5],[0,8],[16,21],[8,25],[11,2],[4,-17],[-12,-16],[1,-16],[13,13],[0,-26],[11,32],[3,43],[4,14],[8,7],[-8,7],[0,14],[18,24],[3,23],[-14,18],[3,34],[-1,27],[13,20],[-5,19],[-1,25],[9,11],[-1,19],[-8,9],[4,21],[-4,5]],[[2979,975],[19,72]],[[2998,1047],[41,-2],[-29,-189],[-16,-201],[4,-200],[16,-169],[9,-33],[57,15]],[[3110,2094],[6,257]],[[3129,2587],[21,4],[19,60]],[[3125,1689],[-4,-139],[-50,-258],[-58,-184],[-15,-61]],[[2979,975],[-4,2],[-8,-17],[-12,4],[-7,40],[-1,22],[4,43],[16,49],[-7,68],[0,52],[-7,29],[3,16],[6,-3],[6,12],[14,109],[13,49],[6,52],[9,39],[-3,37],[9,31],[-3,42],[41,108],[18,75],[3,21]],[[3217,2912],[-135,466],[-31,180],[104,633],[104,80],[114,-13],[75,-164],[2,-59],[-61,-106],[-13,-122],[59,-148],[60,-21],[142,-9],[77,86],[-190,-772],[0,-1]],[[3947,3655],[0,0]],[[3635,3858],[-6,-5],[-31,-3],[-5,30],[4,73],[8,5],[24,-7],[6,6],[20,-14],[-4,-17],[-2,-31],[-7,-26],[-7,-11]],[[3551,1682],[-6,-67],[-15,-55],[-15,-34],[-10,-35],[-7,-18],[-16,-20],[-10,-3],[-11,11],[-26,-13],[-11,22],[-17,13],[-13,-7],[-15,28],[-5,-27],[12,-27],[17,-18],[7,-16],[-5,-40],[3,-20],[14,-20],[3,-29],[-14,-46],[-9,-25],[-8,-33],[-24,-22],[-24,-13],[-51,-11],[-26,11],[-1,-33],[8,-16],[-11,-46],[0,-13],[5,-31],[-19,-24],[-25,-2],[-30,24],[-6,-11],[0,-19],[6,-22],[-2,-46],[10,-18],[15,4],[-5,13],[15,7],[4,-43],[-11,-11],[-6,17],[-13,-2],[-11,-10],[2,-7],[19,-10],[-20,-22],[-7,-20],[1,-47],[-11,-27],[6,-19],[-27,-9],[-16,-21],[-14,-44],[1,-25],[3,-19],[19,-35],[25,-16],[1,-9],[-3,-37],[-7,-19],[-33,-44],[-8,-22],[-4,-24],[2,-17],[-6,-25],[-24,-23],[-9,-20],[-4,-42],[2,-15]],[[1317,7997],[-3,-12],[4,-14],[10,-13],[0,-31],[-23,38],[-7,18],[0,15],[-7,27],[25,-22],[1,-6]],[[1507,7803],[27,-49],[119,-251],[5,-337],[-5,-52]],[[1653,7114],[-24,-280],[5,-59]],[[1634,6775],[-69,0],[-7,39],[2,14],[-6,27],[-9,25],[0,30],[5,32],[1,28],[-3,26],[-8,48],[-2,30],[9,23],[5,24],[-6,29],[7,70],[3,52],[-2,38],[-3,4],[0,43],[-4,37],[-12,48],[2,19],[24,-14],[15,1],[12,-13],[0,-14],[-10,-25],[12,-16],[7,25],[4,34],[-7,54],[-17,32],[0,25],[-9,-8],[-8,11],[-4,22],[-14,-11],[-9,16],[-4,40],[-13,-3],[-21,15],[-7,24],[-7,-7],[-22,2],[-6,16],[6,38],[-15,3],[13,26],[14,21],[-23,-4]],[[1331,7867],[2,-16],[-2,-29],[-14,-8],[-11,27],[-2,30],[19,-6],[8,2]],[[1485,7565],[-12,17],[-12,-1],[-26,45],[-3,11],[17,2],[24,-19],[35,-13],[12,-26],[6,-21],[9,-19],[24,-24],[8,-38],[-4,-11],[-21,8],[-20,20],[6,21],[-13,0],[-5,-8],[-9,9],[2,14],[-6,11],[-13,4],[1,18]],[[2385,6113],[-8,-11],[-10,2],[-2,15],[-6,-7],[6,-24],[-21,-40],[-17,-11],[-14,5],[3,-24],[-32,23]],[[2284,6041],[-12,35],[-121,234]],[[2151,6310],[0,465],[-180,0]],[[1971,6775],[-70,200],[-3,21]],[[1898,6996],[-68,434],[-10,292]],[[2345,7577],[37,-236],[3,-504],[0,-278],[-14,16],[-49,-33],[-21,-85],[37,-126],[38,-57],[9,0],[0,-161]],[[1898,6996],[-95,41],[-109,44],[-41,33]],[[1971,6775],[-337,0]],[[2284,6041],[-133,93],[0,176]],[[1868,6143],[0,0]],[[5347,2597],[11,-46],[436,-18]],[[5794,2533],[-9,-110]],[[5785,2423],[5,-76],[24,-38]],[[5863,2309],[49,76]],[[5927,2528],[37,-2]],[[5964,2526],[-1,-34],[12,-34],[-4,-20],[8,-73],[7,7],[0,-20],[-3,-72],[-3,-27],[6,-8],[-2,-21],[-16,-35],[-8,-11],[-34,-31],[-11,-17],[-13,-38],[11,-22],[1,-11],[-4,-72],[-5,-27],[-7,-10],[1,-25],[-4,-26],[-19,-34],[-32,-116],[-16,-44],[-25,-63],[-35,-69],[-20,-33],[-8,-9],[-29,-6],[-3,-18],[-16,7],[-7,-17],[-7,-2],[-10,14],[-16,5],[-8,-12],[-15,10],[-19,-11],[-9,-18],[-22,0],[-17,-8],[-10,-27],[-16,19],[-4,22],[-9,-1],[-8,18],[-2,-15],[-5,11],[4,30],[-16,60],[10,7],[3,40],[-5,39],[-7,37],[-15,63],[-16,92],[-7,27],[-25,63],[-5,20],[-11,73],[2,19],[-5,24],[-3,28],[2,43],[-7,43],[-8,97],[5,25],[-4,34],[-17,59],[-24,123],[-12,49]],[[3027,7343],[9,23],[13,20],[13,30],[14,26],[25,31],[38,29],[27,15],[18,5],[11,-2],[18,-19],[4,-21],[-6,-14],[-13,-9],[-10,-15],[-18,6],[-17,-8],[18,-10],[6,-21],[16,16],[11,-8],[-8,-16],[-1,-16],[-12,-15],[16,0],[-1,-29],[9,-33],[22,-7],[-9,-8],[9,-13],[7,3],[31,-14],[12,14],[6,-17],[7,4],[6,-13],[-4,-12],[12,-7],[-29,-16],[-29,-26],[-1,9],[-13,-23],[-9,4],[-10,-9],[-13,-23],[-3,-18],[-7,-11],[-7,2],[-4,-17],[-7,3],[-6,22],[-2,-8],[-5,28],[6,25],[-6,0],[48,65],[4,-17],[24,20],[-40,2],[14,18],[3,15],[-8,-2],[-8,-16],[-25,-27],[-8,0],[-10,-13],[-3,5],[-19,5],[7,-27],[-6,-12],[-16,-4],[-9,-18],[-2,12],[-9,-10],[-1,-10],[-9,7],[1,17],[-13,-46],[-4,7],[-3,-14],[-9,-10],[-3,11],[-8,-8],[1,-11],[-10,-17],[-9,-39],[8,-11],[-13,-26],[8,-4],[13,-39],[9,8],[1,-11],[-20,-9],[0,13],[-14,-18],[2,22],[-8,1],[-2,-30],[-39,-10],[-15,-11],[-25,-36],[10,-14],[-6,-49],[-7,-25],[-13,-31],[-2,19],[-5,0],[-14,31],[11,-58],[4,-2],[1,-25],[-11,-37],[-12,-51],[-4,3],[4,28],[6,14],[-18,46],[8,9],[-7,10],[-1,12],[7,16],[-6,1],[9,32],[-12,-27],[-4,-35],[6,-49],[-13,13],[-13,21],[-2,-7],[10,-17],[21,-22],[-6,-17],[-13,26],[9,-27],[8,-5],[-3,-12],[3,-29],[-10,15],[-9,1],[13,-18],[14,-7],[-1,-26],[6,-31],[-11,16],[3,-11],[-18,-16],[19,4],[1,-25],[3,20],[5,-7],[-11,-36],[-20,10],[10,-13],[-5,-17],[-8,-5],[18,-4],[-9,-15],[-18,-7],[-19,-53],[-18,-9],[-16,-25],[-4,-26],[-11,-22],[-14,-19],[-10,-3],[-16,-62],[-9,-66],[2,-47],[11,-58],[12,-56]],[[2761,6026],[-51,-48]],[[2710,5978],[-11,1],[5,77],[-4,15],[-9,9],[-21,59],[-12,3],[-13,-22],[-15,-9],[-5,27],[-6,12],[-10,2],[-9,17],[-19,-8],[-9,6],[0,-10],[-10,-3],[-8,30],[-3,-25],[-5,4],[-25,1],[-13,-16],[-13,15],[-7,-18],[2,-7],[13,7],[14,-19],[-9,-12],[4,-20],[7,-5],[8,-18],[-13,-1],[-4,13],[-16,18],[-3,-11],[6,-11],[-4,-8],[-5,15],[-10,-15],[-13,15],[-5,16],[-14,21],[-8,-2],[7,-13],[-4,-6],[-15,3],[-22,13],[-19,-5]],[[2603,7032],[1,40],[-6,36],[-1,37],[8,50],[19,37],[-3,-22],[6,-1],[1,22],[12,15],[-4,10],[9,20],[-5,11],[-12,7],[-25,-12],[-11,-18],[2,16],[-9,-14],[-1,12],[-20,-64],[-5,-6],[-4,-21],[15,21],[4,-4],[-5,-43],[-4,-16],[-7,-59],[3,-25],[0,-46],[7,-31],[5,-10],[9,4],[10,13],[11,41]],[[2649,7271],[33,-34],[5,-19],[-4,-51],[-11,-22],[-3,-16],[5,-12],[10,21],[12,11],[5,-7],[11,-68],[15,21],[3,60],[10,29],[0,26],[-10,23],[11,0],[11,-43],[7,6],[12,-15],[6,8],[-2,15],[9,-1],[-10,31],[-15,36],[-3,17],[-23,1],[-1,8],[-45,7],[-15,4],[-5,-22],[-18,6],[0,-20]],[[2770,7054],[-2,-10],[-30,-1],[-13,-23],[-11,-9],[-5,-13],[-18,6],[-9,-25],[24,-22],[21,7],[22,25],[13,9],[28,30],[16,23],[2,12],[-20,-1],[-18,-8]],[[2437,7336],[32,17],[9,1],[-3,-22],[5,7],[12,-5],[16,14],[11,4],[28,38],[12,4],[-15,-31],[-2,-16],[7,8],[16,-8],[11,-21],[14,-5],[21,16],[28,2],[3,-16],[11,0],[-1,25],[-7,14],[4,18],[-8,19],[1,24],[-4,6],[-22,2],[-7,15],[-9,39],[-22,4],[-25,17],[-7,-28],[-3,15],[-10,-36],[-2,15],[-10,-13],[-8,-26],[-26,-21],[-19,-24],[-31,-52]],[[2885,7147],[-6,3],[9,19],[-12,-4],[-12,-14],[-8,-18],[-12,12],[-31,-9],[-12,-8],[-14,-20],[-4,-14],[9,-7],[27,12],[18,-1],[9,-10],[17,2],[21,28],[-3,16],[4,13]],[[2982,6922],[22,11],[-19,-17],[-41,-18],[3,16],[9,9],[26,4],[0,-5]],[[5778,7100],[-6,3],[-109,-16],[-61,37]],[[5777,7237],[11,6],[19,-14],[18,6]],[[5825,7235],[-7,-24],[-11,-3],[-11,-28],[-3,-21],[-3,-52],[-12,-7]],[[5852,6623],[-4,-9],[-2,-33],[-23,-8],[-10,7],[-8,38],[-5,-12],[-10,15],[-12,-15],[-1,27],[-19,1],[6,15],[-10,17],[-1,38],[-12,16],[-8,-1],[2,25],[7,-12],[6,12]],[[5748,6744],[103,19],[-2,-67],[-2,-3],[5,-70]],[[5962,6991],[10,13],[2,-18],[9,-12],[15,4],[6,-24],[6,-9],[12,4],[12,-19]],[[6152,6960],[-8,-86],[-57,-117],[-74,-91],[8,-26],[-25,-17]],[[5996,6623],[-18,-27],[-16,18],[-5,-1],[-20,-35],[-16,-12],[-15,2],[-12,17]],[[5894,6585],[44,212],[4,105],[16,20],[4,69]],[[5656,6910],[-13,1],[-8,-10]],[[5635,6901],[-11,-9],[3,-8]],[[5627,6884],[-52,41],[23,137],[-2,2]],[[5778,7100],[-5,-47],[-10,-15],[12,-32],[5,-35],[8,-11],[19,-17],[-7,-21],[-18,10],[-7,-7],[-12,1],[-6,-22],[-18,-19],[-10,-23],[-2,16],[10,14],[-12,8],[-4,18],[-19,3],[-8,9],[-8,-10],[-10,6],[-4,-10],[-16,-6]],[[5894,6585],[-8,19],[-15,15],[-19,4]],[[5748,6744],[-7,18],[9,9],[-12,32],[10,21],[-22,-8],[1,40],[16,27],[14,6],[14,-12],[19,8],[16,-5],[-4,21],[27,9],[-15,0],[-9,17],[4,17],[28,-6],[3,4],[13,-11],[14,1],[4,17],[29,33],[20,15],[12,2],[30,-8]],[[5718,6593],[0,0]],[[5708,6598],[0,0]],[[5720,6633],[0,0]],[[5682,6630],[-3,-15],[-5,7],[8,8]],[[5690,6617],[0,0]],[[5699,6616],[0,0]],[[5702,6626],[0,0]],[[5678,6647],[0,0]],[[5677,6681],[0,0]],[[5676,6662],[0,0]],[[5695,6667],[0,0]],[[5701,6681],[2,-12],[-19,36],[3,7],[14,-31]],[[5688,6636],[0,0]],[[5702,6640],[-10,-3],[10,17],[0,-14]],[[5711,6649],[-4,-15],[-4,12],[8,3]],[[5645,6787],[15,-23],[10,-5],[4,-33],[8,-3],[-1,-13],[-6,1],[-8,29],[-10,1],[-1,9],[-14,24],[-7,-2],[10,15]],[[5627,6884],[-3,-19],[9,-37],[12,-29],[-11,11],[-3,-5],[4,-19],[-11,-11],[19,-15],[11,-23],[7,0],[5,-42],[-4,-6],[-10,28],[-14,-8],[2,-23],[7,0],[3,-12],[-12,-6],[-10,7],[7,-32],[3,-31],[-9,10],[-8,-16],[-11,35],[-6,-14],[-6,21],[2,22],[-11,35],[6,20],[8,-3],[5,9],[23,-22],[11,14],[-22,20],[-14,2],[-18,-8],[-12,36],[11,11],[-4,8],[-9,-2],[-13,23],[-5,30],[-19,32],[4,10],[-4,14],[5,20],[0,25],[-3,9],[5,16],[0,14]],[[5656,6910],[4,-19],[14,-22],[-14,16],[-4,-12],[6,-5],[-2,-13],[-5,15],[-9,3],[9,-22],[-9,3],[-4,21],[-11,16],[4,10]],[[5685,6491],[0,11],[-10,9],[-21,3],[-1,23],[12,-3],[7,-10],[15,2],[21,-9],[6,2],[2,-14],[13,13],[-3,-21],[-7,2],[-34,-8]],[[5771,6560],[-2,20],[15,19],[-3,-16],[-10,-23]],[[5749,6634],[0,0]],[[5749,6616],[5,16],[5,-3],[-10,-13]],[[5746,6647],[0,0]],[[4944,7415],[-16,-31],[3,13]],[[4931,7397],[-10,-1],[-31,30],[-12,-5],[0,8]],[[4878,7429],[-9,9],[11,2]],[[4879,7448],[-1,7]],[[4879,7461],[-12,-2],[0,14]],[[5868,2627],[-44,-13]],[[5795,2538],[-1,-5]],[[5347,2597],[-12,41],[-6,34],[-2,31],[0,77],[0,47],[7,20],[6,47],[2,45],[7,62],[7,21],[6,30],[8,7],[9,33],[4,39],[0,49],[-5,48],[-12,49],[-3,25],[2,16],[8,17],[1,30],[-3,18],[-11,47],[-5,47],[-12,43],[-5,35],[2,22],[-14,67],[-31,79],[-3,15],[-17,38],[4,10],[-11,11],[-12,47],[6,13],[-9,17],[-9,33],[11,19],[8,54],[11,-3],[-15,33],[6,6],[2,34],[-7,6],[13,51],[-1,36],[3,32],[-4,40],[-5,22],[5,12],[-3,12],[-11,0],[-7,9],[-4,35],[-15,16],[0,-17],[-5,-10],[-20,-5],[-11,8],[-5,-16],[-21,3]],[[5169,4284],[18,108]],[[5187,4392],[163,137],[267,-111],[325,-241],[13,-26],[250,2]],[[6205,4153],[-111,-281],[-46,-230],[14,-341]],[[6062,3301],[28,-133],[32,-6]],[[6122,3162],[-1,-23],[4,-75],[-4,-29],[6,-39],[1,-69],[6,-7],[-2,-25],[-7,-18],[2,-13],[-6,-27],[-16,-50],[-9,-21],[-17,-24],[-44,-48],[-11,-21],[-27,-74],[-30,-56],[-3,-17]],[[3167,4561],[-131,28],[-14,52],[4,8],[-1,38],[-11,52],[-2,22],[13,12],[37,30],[-5,19],[-7,-3],[-4,18],[10,16],[10,-49],[26,-12],[8,-26],[2,-21],[9,-13],[42,10],[9,-4],[5,-16],[17,-18],[13,-2],[10,10],[13,26],[38,9],[15,-5],[-5,-11],[-16,1],[0,-13],[15,-25],[2,-21],[6,21],[15,-12],[4,-11],[17,-22],[-9,-17],[-5,-28],[-11,-12],[-12,3],[-26,-23],[-81,-11]],[[3286,5199],[0,0]],[[3285,5244],[0,0]],[[3272,5175],[0,0]],[[3245,5281],[0,0]],[[3263,5208],[0,0]],[[3254,5221],[0,0]],[[3205,5252],[0,0]],[[3203,5294],[0,0]],[[3199,5293],[0,0]],[[3300,5122],[0,0]],[[3305,5150],[0,0]],[[3291,5141],[-5,-19],[-3,21],[6,2],[4,17],[6,-18],[-8,-3]],[[3255,5262],[0,0]],[[3249,5275],[0,0]],[[3345,4930],[0,0]],[[3300,4715],[-1,-14],[-9,-6],[-14,2],[11,16],[-4,32],[19,7],[-3,-10],[1,-27]],[[3295,5073],[-3,25],[5,-3],[-2,-22]],[[3283,4838],[0,0]],[[3289,4860],[0,0]],[[3292,4871],[0,0]],[[3304,5015],[-5,25],[5,1],[6,-26],[-6,0]],[[3306,4963],[0,0]],[[3293,4879],[0,0]],[[3296,4887],[0,0]],[[3298,4908],[0,0]],[[3298,4920],[0,0]],[[3251,5233],[0,0]],[[3173,5298],[-6,-26],[-13,1],[-13,-8],[-7,4],[-1,32],[4,8],[31,-5],[5,-6]],[[2856,5298],[21,-20],[-1,-18],[-10,10],[-13,-14],[-13,9],[-16,30],[15,11],[17,-8]],[[2740,5639],[17,-7],[27,-19],[12,-26],[32,-20],[19,-26],[4,-18],[49,-36],[-2,-24],[17,1],[6,-5],[18,-31],[-15,-6],[-22,-15],[-24,8],[-30,-10],[-6,2],[14,32],[2,13],[-5,13],[-24,8],[-8,11],[-2,24],[-6,22],[-18,0],[-10,4],[-29,31],[-16,4]],[[3062,5367],[31,-34],[7,-22],[-8,-27],[-9,22],[-27,0],[-9,-18],[-11,19],[-10,-12],[-10,-47],[-16,41],[-26,-3],[-15,6],[-11,-14],[-14,19],[2,23],[43,-14],[12,11],[-11,20],[1,33],[-8,15],[-11,4],[-3,13],[15,8],[30,-16],[8,12],[9,-4],[10,7],[4,-10],[12,-10],[8,2],[7,-24]],[[2761,6026],[4,-51],[10,-62],[1,-27],[-4,-59],[-4,-13],[1,-22],[-22,-9],[-1,19],[-7,34],[-10,5],[-4,38],[-5,7],[-2,23],[-5,-3],[-12,51],[9,21]],[[5081,4926],[-153,25],[-97,-247],[-21,-3],[-232,127],[-4,4]],[[4574,4832],[-14,-6],[-7,9],[-6,17],[-8,7],[-5,21],[0,55],[7,8],[1,18],[-16,62],[-11,16],[16,36],[12,59],[2,43],[7,42],[2,27],[231,15],[201,63],[35,0],[98,-51],[29,-63],[-5,-153],[-24,-76],[-38,-55]],[[5081,4926],[-2,-2],[150,-61],[61,8]],[[5408,4873],[26,-86],[83,-82],[57,129],[70,-13],[24,-43],[181,-5],[6,6],[13,-40],[13,-28],[31,-11],[-14,-41],[19,-192],[71,-97],[84,77],[3,38]],[[6131,4701],[23,13]],[[6229,4721],[21,4],[25,28],[14,-12],[7,2],[20,33],[17,-3],[15,16],[21,-6],[21,16],[18,34],[13,-12],[2,-9],[-5,-30],[2,-38],[-7,-31],[-1,-49],[-2,-17],[-16,-73],[-10,-26],[-1,-22],[-21,-92],[-3,-30],[-13,-57],[-23,-80]],[[6229,4214],[-24,-61]],[[5187,4392],[4,21]],[[5113,4436],[-4,10],[-13,-14],[-24,-3],[-29,-8],[-11,-11],[-6,-23],[-24,-8],[-19,-24],[-16,-13],[-24,-32],[-19,25],[-9,16],[-3,-9],[-22,9],[-29,-2],[-16,-8],[-21,-18],[-34,-39],[-19,22],[-28,38],[-20,50],[-13,25],[-21,28],[-16,35],[-14,20],[0,20],[-17,24],[-9,27],[7,21],[-6,10],[0,19],[-13,43],[-1,21],[-11,11],[-15,28],[1,23],[-13,10],[0,17],[-9,5],[0,21],[7,21],[-6,9]],[[8545,5862],[4,-2]],[[8549,5860],[-4,2]],[[7823,5389],[-34,27],[-6,26]],[[7738,5829],[1,124]],[[7256,6518],[299,476],[-56,143],[0,183],[106,117],[0,39],[-15,39],[15,39],[-106,29]],[[7499,7583],[111,491]],[[8790,7841],[16,15],[9,-4],[-8,-23],[25,-2],[7,8],[5,17],[0,20],[27,0],[20,-20],[6,-20],[22,-35],[-8,-16],[7,-17],[-4,-24],[9,-11],[-15,-48],[-9,-44],[-2,-22],[4,-30],[-4,-54],[-7,-62],[-24,-50],[-7,-35],[-17,-32],[-10,-44],[-7,-19],[-34,-75],[-13,-41],[-17,-26],[-13,-37],[-11,-22],[-12,-16],[-33,-23],[-3,14],[-10,1],[-8,23],[-14,-13],[5,19],[-8,-5],[-14,-34],[-35,-64],[-5,-14],[0,-28],[-4,-43],[-9,-3],[-20,-41],[-21,-14],[-7,-18],[-4,-29],[3,-10],[24,-48],[3,15],[8,-37],[19,-62],[4,-40],[-3,-48],[6,-3],[-4,-37],[-9,-26],[-15,4],[-6,-10],[2,-14],[-12,11],[-10,-27],[-4,17],[-4,-7],[4,-13],[-10,-4],[5,16],[-9,-10],[-3,-14],[-3,13],[-5,-21],[-9,21],[2,41],[3,35],[9,18],[-7,18],[-1,42],[-6,4],[6,19],[7,0],[-15,51],[-8,-17],[-5,19],[-5,4],[-8,-25],[-5,20],[-9,12],[-2,15],[6,23],[10,8],[-7,18],[8,39],[-11,19],[-10,-6],[-13,25],[-5,-6],[-24,-9],[-28,-30],[-15,-28],[-12,-9],[17,42],[-11,1],[-1,15],[24,58],[-10,27],[-9,10],[-11,-1],[-21,-51],[-12,-8],[-13,-14],[-11,-45],[-12,-3],[-7,-13],[-6,18],[-9,-3],[-9,-44],[5,-23],[17,-17],[15,2],[3,-9],[-2,-36],[4,-27],[18,3],[16,33],[14,12],[21,-29],[13,3],[14,-5],[-4,-41],[-11,9],[-28,-20],[-9,-14],[0,-24],[-7,-5],[-4,15],[-6,-4],[2,-15],[-8,-28],[-18,-36],[-1,-26],[8,-7],[19,-33],[5,-17],[5,-40],[8,-21],[1,-37],[11,-15],[5,-19],[10,-17],[1,-15],[-10,-12],[6,-13],[4,-25],[-2,-16],[-15,-8],[-12,-18],[-18,-17],[14,-8],[11,14],[9,0],[6,-20],[11,-6],[-3,-15],[-9,-15],[8,-7],[-6,-35],[-2,-32],[-5,-19],[-4,11],[-14,-50],[-5,-30],[-13,-34],[-12,-8],[3,-23],[-2,-36],[-4,-17],[-7,-7],[-7,-42],[-13,-28],[-12,7],[-4,-10],[2,-27],[-13,-26],[-12,-10],[-15,-25],[-2,-21],[-13,-6],[-5,-14],[-11,10],[-13,-19],[-8,-3],[0,15],[-23,-14],[-7,21],[-2,-44],[-8,-13],[-6,5],[-4,-22],[-20,-6],[-5,6],[-9,-18],[-12,-1],[-15,-18],[-9,3],[-4,-30],[10,-31],[-14,-14],[-6,24],[-3,35],[5,31],[-8,8],[-11,-14],[-8,7],[-7,23],[-5,-21],[-14,-3],[-13,-22],[1,-15]],[[8516,6368],[-12,2],[4,14],[13,7],[4,-7],[-9,-16]],[[8520,6444],[0,0]],[[8531,6453],[0,0]],[[8549,6458],[0,0]],[[8504,6449],[0,0]],[[8549,6465],[0,0]],[[8498,6470],[0,0]],[[8499,6480],[0,0]],[[8557,6483],[0,0]],[[8500,6485],[0,0]],[[8554,6481],[0,0]],[[8575,6480],[-6,7],[5,7],[1,-14]],[[8502,6499],[0,0]],[[8511,6597],[0,0]],[[8504,6627],[0,0]],[[8635,6672],[0,0]],[[8462,6706],[0,0]],[[8550,5879],[0,-1]],[[8550,5878],[-1,-18]],[[8545,5862],[5,17]],[[8550,5879],[1,12],[11,16],[0,-13],[-12,-16]],[[5808,7448],[-47,-59]],[[5604,7548],[0,11]],[[5490,7915],[17,3],[7,-29],[4,-5]],[[5855,8021],[205,-444],[-1,-28],[-31,9],[-65,-84],[-134,51],[-11,-66],[-10,-11]],[[5808,7448],[35,-150]],[[5843,7298],[-8,-19],[-13,-8],[-3,-16],[6,-20]],[[5561,8303],[0,0]],[[5544,8317],[0,0]],[[5556,8321],[0,-16],[-7,-1],[3,23],[4,-6]],[[5566,8313],[0,0]],[[4748,9078],[-1,5],[30,22],[1,-10],[-18,-6],[-12,-11]],[[5563,8303],[0,0]],[[5335,7923],[-3,-8],[-7,18],[10,-10]],[[5328,7914],[-10,-4],[-12,10],[-1,10],[18,1],[5,-17]],[[5246,7882],[-9,4],[11,10],[-10,25],[2,22],[-3,21],[-14,8],[8,21],[-6,24],[2,24],[13,-5],[10,21],[8,-12],[2,29],[23,-3],[3,-27],[14,-2],[-2,-25],[-16,-1],[2,-9],[-9,-33],[11,8],[14,-23],[-2,-16],[-17,1],[-12,29],[-4,-10],[-4,-27],[16,-27],[-4,-13],[8,-6]],[[5411,7958],[9,-11],[-3,-9],[-10,7],[4,13]],[[5460,8036],[-5,-6],[0,18],[18,60],[2,-3],[-10,-38],[-5,-31]],[[5579,8589],[-5,-15],[-28,-31],[-10,4],[-7,-18],[-16,-15],[-5,-14],[-12,0],[2,-18],[-6,-13],[-12,6],[5,-26],[-3,-31],[-9,-9],[4,-62],[21,-6],[13,-29],[11,-6],[6,-28],[-28,-26],[-26,14],[-16,2],[-3,-9],[10,2],[17,-17],[25,3],[3,-9],[-17,-21],[-1,17],[-10,-26],[-8,-7],[-18,-1],[9,-23],[-1,-31],[-7,1],[5,-33],[-7,-26],[-1,-19],[-16,-57],[-8,10],[-8,-6],[-16,3],[-10,-16],[-4,-17],[4,-11],[-4,-12],[-9,5],[-14,-8],[-14,3],[5,23],[-16,42],[13,19],[-16,27],[-12,45],[-7,21],[5,27],[-16,10],[-3,61],[-8,-4],[-11,28],[0,-17],[-7,-19],[-13,0],[-9,-15],[-33,-44],[-1,-6],[-33,-9],[-9,15],[-21,18],[-8,2],[-6,19],[7,18],[13,-12],[-9,20],[13,15],[-30,2],[-2,14],[8,15],[16,0],[6,8],[-13,-5],[5,29],[-17,-2],[-5,10],[13,17],[-14,6],[1,23],[8,9],[-7,8],[1,43],[19,6],[-12,13],[18,24],[13,0],[2,18],[19,-7],[7,8],[-12,8],[-1,14],[25,3],[7,-8],[1,16],[10,19],[9,6],[7,-9],[7,16],[11,13],[6,27],[26,32],[10,-6],[1,15],[14,21],[6,15],[11,-1],[0,20],[-6,3],[11,35],[11,-2],[2,18],[12,4],[-12,19],[6,16],[17,1],[-7,17],[29,21],[-6,8],[11,14],[12,-4],[10,15],[-5,11],[14,16],[9,-13],[7,13],[-4,21],[15,0],[-5,16],[15,15],[4,15],[15,6],[6,22],[7,-9],[12,5],[16,-9],[7,13]],[[4395,8750],[9,-9],[5,-18],[-7,-23],[12,-26],[7,11],[18,14],[-1,32],[7,8],[11,-24],[11,-4],[-3,15],[17,12],[15,-22],[7,-2],[-4,23],[30,-7],[16,11],[-1,23],[15,-3],[8,-15],[26,-19],[-3,-18],[10,-9],[20,-5],[4,-23],[-5,-29],[-18,-8],[-1,-14],[-12,-20],[-13,6],[-10,-16],[-25,-20],[-29,-6],[-10,-19],[-19,-8],[-26,7],[-23,20],[-32,2],[-23,4],[-4,6],[20,18],[9,19],[-17,5],[-5,13],[-34,-5],[-3,14],[13,7],[32,8],[7,16],[-6,14],[-24,7],[-24,-11],[-13,9],[5,18],[19,2],[-9,19],[7,11],[12,-14],[12,4],[-10,21],[5,7],[25,-9]],[[3190,9691],[7,5],[8,41],[-12,8],[-24,1],[-14,-6],[-12,4],[-16,12],[8,25],[17,11],[78,27],[26,5],[14,-2],[32,4],[5,13],[-5,32],[6,4],[24,2],[19,-7],[53,-26],[10,9],[-20,17],[-9,16],[29,6],[38,10],[32,7],[22,-6],[3,-57],[11,6],[7,10],[6,33],[12,-1],[25,-11],[42,-21],[3,10],[-29,40],[3,9],[32,-1],[48,-19],[16,-9],[50,-20],[23,-6],[10,6],[11,48],[-21,18],[-14,17],[9,8],[30,0],[37,11],[16,2],[19,-5],[28,-16],[45,-10],[3,24],[-3,16],[33,7],[25,2],[57,-8],[53,13],[26,0],[23,-7],[23,2],[24,-6],[7,3],[24,-4],[43,-5],[30,-25],[17,-8],[17,3],[46,-13],[6,-14],[-10,-10],[-80,-14],[-81,7],[-17,-6],[-59,-3],[-41,-16],[-4,-15],[9,-8],[32,9],[17,2],[49,-1],[28,4],[41,1],[12,-2],[31,-17],[53,22],[25,5],[7,-15],[-7,-16],[-41,-32],[-16,-24],[5,-15],[16,5],[20,18],[40,30],[31,17],[21,5],[38,-6],[18,10],[9,11],[14,7],[27,0],[35,-5],[43,-15],[1,-17],[-43,-13],[-22,-25],[-21,-12],[-19,-18],[-13,-2],[-59,1],[-28,-14],[-6,-17],[2,-11],[24,10],[20,2],[23,-4],[0,-13],[-9,-8],[-30,-4],[-9,-11],[-7,-42],[-9,-6],[-22,2],[-23,-65],[-2,-11],[11,-13],[16,27],[11,2],[34,-12],[2,-16],[-23,3],[-9,-10],[4,-9],[29,-10],[23,4],[9,-17],[-4,-19],[-23,7],[-30,4],[-17,-3],[-17,-15],[-16,9],[-13,-1],[-4,-13],[17,-19],[15,-7],[37,-7],[9,-5],[10,-30],[0,-18],[-10,-15],[-26,9],[-5,-3],[2,-26],[22,-15],[21,-10],[5,-12],[-5,-8],[-18,-8],[-22,1],[-35,5],[-7,-14],[7,-7],[17,-1],[22,-13],[1,-29],[-31,-2],[-7,-8],[-16,-1],[-15,5],[-19,13],[-16,18],[-26,-21],[-21,-8],[-30,3],[-17,-8],[-2,-14],[5,-17],[9,-8],[16,-2],[19,-8],[19,2],[32,-32],[31,-23],[4,-9],[6,-30],[15,12],[9,-21],[3,-49],[-7,-10],[-13,7],[-25,-2],[-18,9],[-8,14],[-10,29],[-25,28],[-23,7],[-19,-8],[27,-9],[4,-11],[-18,-11],[-35,-4],[-14,-13],[-8,-31],[13,-13],[12,-5],[34,-2],[23,7],[24,2],[27,-16],[40,-2],[-16,-21],[-44,-31],[-16,4],[-12,-22],[-29,-31],[-16,-11],[-28,-2],[-40,-18],[-12,13],[-5,-1],[-8,-30],[-12,-4],[-17,9],[-8,15],[-19,21],[-1,-7],[9,-34],[-26,-24],[-7,-13],[-21,-50],[-13,-28],[-10,-9],[-13,-2],[-12,9],[-8,-37],[-9,-9],[-21,2],[-14,-15],[12,56],[-25,6],[3,-28],[-15,-26],[-14,-6],[-28,-2],[8,-27],[-6,-15],[-32,6],[16,-26],[4,-11],[-4,-13],[-28,-5],[22,-25],[5,-11],[-10,-18],[-14,0],[4,-20],[-5,-15],[-14,6],[3,-31],[-13,3],[-26,-4],[8,-16],[18,-19],[-1,-34],[-4,-30],[-16,-1],[6,-19],[1,-36],[-20,-4],[10,-12],[5,-20],[-1,-15],[-16,8],[-13,16],[-12,-29],[-8,20],[2,18],[-18,13],[-8,10],[5,21],[-9,15],[-8,-11],[-30,-7],[-13,-18],[-10,31],[-26,28],[-7,25],[1,24],[-26,15],[-3,11],[9,36],[-17,7],[-4,27],[-14,3],[-7,18],[10,27],[16,11],[11,14],[-3,21],[-24,-9],[-8,-13],[-14,-14],[-5,10],[1,20],[-4,52],[-3,10],[-10,-1],[-15,27],[-1,12],[11,17],[-4,6],[-13,-2],[3,15],[22,5],[4,22],[-27,1],[-5,11],[13,17],[-12,3],[3,19],[14,11],[64,-21],[4,30],[-4,6],[-65,38],[4,11],[10,0],[18,-11],[20,2],[2,30],[17,0],[-2,18],[-12,10],[9,29],[-3,9],[-30,5],[-35,26],[-21,4],[-20,27],[6,6],[15,1],[35,-11],[43,-30],[-3,23],[-11,18],[-10,29],[-14,9],[13,17],[-9,8],[-21,3],[-15,11],[-18,-34],[-11,-8],[-17,2],[-13,11],[-5,18],[10,31],[-2,40],[16,-4],[6,15],[-5,12],[-17,22],[-18,41]],[[5755,8541],[-1,-20],[11,-17],[3,5],[-3,-37],[7,2],[2,-20],[11,-4],[15,-17]],[[5801,8432],[-17,-8],[-5,-17],[-7,16],[-13,-14],[-2,-15],[10,-8],[12,1],[-3,-11],[9,0],[16,12],[-5,9],[1,22],[7,-4]],[[5824,8308],[-20,-2],[-11,7],[-4,10],[3,20],[-29,-14],[-9,1],[-7,-9],[-11,6],[-5,-9],[-21,-1],[-4,-8],[-26,-11],[-2,-9],[-13,5],[-21,-9],[-9,18],[3,11],[-17,-7],[-4,10],[-19,19],[-3,36],[3,34],[-9,27],[3,35],[-8,9],[4,21],[8,9],[5,21],[12,-6],[6,8],[7,37],[7,-10],[9,14]],[[5770,8511],[-13,14],[2,9]],[[5794,8462],[-15,-2],[-9,25],[9,8],[5,-11]],[[5799,8441],[-2,8]],[[5290,8100],[-6,-17],[-39,-2],[-2,-13],[-8,-15],[-8,15],[10,24],[21,2],[15,30],[20,12],[-5,-17],[2,-19]],[[5321,7950],[-8,2],[-5,32],[13,18],[11,-22],[3,28],[10,0],[-1,-31],[-7,-12],[8,-9],[-13,-21],[-6,16],[-5,-1]],[[5503,8117],[9,24],[15,7],[-5,-15],[-3,-33],[-9,-8],[-2,-14],[-5,39]],[[4919,8215],[0,0]],[[4907,8221],[0,0]],[[4911,8220],[-5,14],[8,1],[9,-15],[-12,0]],[[4929,8248],[0,0]],[[4917,8247],[0,0]],[[4969,8318],[-5,-29],[-3,3],[3,24],[-5,-7],[-6,11],[10,4],[-8,9],[8,11],[1,-11],[7,-2],[-2,-13]],[[4967,8341],[0,0]],[[4973,8350],[0,0]],[[4809,8404],[0,0]],[[4813,8427],[0,0]],[[4800,8444],[0,0]],[[4809,8443],[-10,12],[1,10],[13,-20],[-4,-2]],[[4814,8460],[0,0]],[[4807,8455],[-1,12],[10,-10],[-1,-10],[-8,8]],[[4817,8458],[0,0]],[[4816,8462],[0,0]],[[4819,8465],[0,0]],[[5766,8390],[0,0]],[[5775,8403],[0,0]],[[5791,8403],[-7,-4],[1,23],[5,1],[1,-20]],[[5415,6621],[-9,3],[-12,19],[-33,35],[-11,4],[-5,13],[10,25],[7,-3],[8,11],[13,-18],[27,6],[17,11],[2,-7],[-8,-31],[-2,-28],[5,-17],[-9,-23]],[[6328,8141],[66,-804]],[[6394,7337],[-19,-9],[-13,-29],[-6,-4],[-15,-23],[-12,-6],[-5,5],[-4,-22],[-10,-42],[-9,-13],[0,-17],[13,-19],[7,-25],[0,-60],[6,-11],[1,-17]],[[6328,7045],[-55,-10],[-10,5],[-6,-8]],[[6142,7074],[-25,18],[-36,68],[-23,20],[-6,17],[-12,-2],[-14,38],[20,9],[1,16],[8,31],[13,6],[-6,17],[-14,20],[18,9],[25,25],[-4,14],[-48,-13],[-6,-14],[-38,-16],[-12,-12],[-5,10],[-9,-26],[-23,-1],[-7,-5],[33,-42],[1,-20],[7,-1],[15,9],[19,-4],[-7,-21],[-11,-5],[-14,4],[-9,-16],[-19,-8],[-10,-19],[-17,8],[5,24],[-5,23],[-11,9],[-14,5],[11,16],[21,19],[-3,15],[-28,-1],[-9,3],[-8,17],[8,14],[-7,19],[-5,-11],[-26,-10],[-13,-32]],[[6807,7312],[-102,5]],[[6705,7317],[7,27],[-5,0],[-15,-20],[-3,21],[-11,-18],[-4,12],[-8,-10],[6,-19],[17,-4],[-6,-8],[-22,4],[-8,12],[0,-26],[-3,-13],[-3,16],[-14,-7],[-11,-49],[-5,-29],[0,-29]],[[6617,7177],[-115,-192]],[[6502,6985],[-3,23],[-7,2],[-19,-7],[-3,-19],[0,-28],[-7,11],[-5,39],[9,41],[-7,13],[-14,0],[-9,25],[-9,0],[1,15],[-8,24],[-6,35],[-16,7],[-1,19],[15,5],[12,-11],[7,6],[-13,23],[7,13],[4,23],[31,2],[18,-6],[-12,13],[0,10],[9,23],[3,26],[-4,13],[4,13],[-2,13],[-18,9],[-11,-11],[-10,13],[-12,6],[-20,-13],[-12,-18]],[[7499,7583],[-45,23],[-75,-6],[-90,-52],[-90,-13],[-241,52],[-151,-275]],[[7063,6483],[52,429],[-123,142],[43,106],[-41,100],[-203,23],[16,29]],[[7192,7346],[-15,-10],[-3,-13],[-4,9],[-13,4],[-11,-3],[-22,2],[-8,10],[-10,3],[-12,-6],[-13,6],[-9,-5],[-15,-23],[-3,-18],[-9,-2],[3,-10],[-9,-26],[19,-47],[0,38],[5,9],[0,25],[13,8],[4,19],[14,17],[6,-8],[17,4],[24,-7],[9,3],[16,-11],[25,2],[9,25],[-8,5]],[[7021,6440],[-31,-32],[-51,-146],[-44,-172],[-54,-280]],[[6841,5810],[-15,-13],[-37,-10],[-10,16],[-12,-4],[-6,-13],[-27,0],[-31,-10],[-13,5],[-11,15],[-32,3],[-8,-2],[-8,16],[-23,0],[-3,8],[-15,11],[-9,48],[-4,37],[-10,9],[-15,0],[-13,-10],[-22,-41],[-16,22],[-12,3],[-7,12],[-13,10],[-14,39],[-12,14],[-10,3],[-7,15],[-16,71],[-2,28],[-16,48],[-12,-5],[-11,7],[-2,27],[-8,-6],[-6,-28],[-23,-8],[3,-29],[-11,-15],[5,-7],[9,6],[13,-84],[7,-42],[8,1],[1,-11],[10,-27],[11,-5],[6,-14],[-6,-19],[4,-12],[-4,-26],[6,-30],[7,-5],[6,-43],[0,-14],[10,-17],[-3,60],[6,49],[8,6],[6,-31],[0,-57],[-8,-38],[8,-20],[-20,-9],[-62,130],[-126,335],[-113,293],[-46,54]],[[5994,6589],[8,14],[-6,20]],[[6328,7045],[4,-2],[15,-48],[10,-17],[10,-29],[3,-24],[13,-27],[11,-1],[7,-22],[-12,6],[-13,-12],[-8,-84],[-4,13],[-8,-64],[-3,-42],[3,-15],[18,-16],[15,-5],[6,-24],[9,-15],[24,-16],[10,-2],[37,15],[19,3],[7,19],[-5,78],[2,39],[3,24],[-11,30],[-13,6],[3,12],[14,-6],[-8,21],[5,15],[-20,-4],[-4,39],[6,42],[6,-21],[10,-1],[4,9],[2,-17],[11,7],[5,-5],[-1,17],[12,-1],[-2,18],[-16,25],[-2,22]],[[6617,7177],[5,-20],[-1,-31],[11,0],[10,19],[3,-11],[7,4],[6,-17],[10,-5],[24,60],[5,20],[17,16],[4,8],[-19,10],[-5,22],[0,43],[11,22]],[[5036,7044],[4,1]],[[5081,7064],[4,-37],[1,-37],[-25,-30],[-4,-10],[-21,-10],[-12,-10],[-5,-17],[2,-9],[-7,-5],[-8,-25],[-11,-26],[-6,-33],[6,-34],[9,-16],[-17,-22],[-6,-18],[-6,-30],[2,-11],[-15,-5],[-13,-18],[-3,-25]],[[7234,5109],[-4,-9],[-6,-34],[0,-17]],[[7112,4733],[-11,62],[-13,49],[-13,114],[-9,53],[-16,70],[-12,85],[-9,106],[-6,87],[-3,59],[10,45],[0,10],[-9,24],[-3,50],[1,20],[-11,-1],[-5,-20],[4,-20],[-4,-29],[-7,-12],[-24,-24],[-15,9],[-7,12],[-31,74],[-6,23],[17,-3],[13,7],[12,29],[-36,11],[-20,31],[-9,31],[-10,4],[-11,20],[-3,36],[-14,12],[-2,40],[-9,13]],[[7462,5876],[37,-52],[0,-271],[-3,15],[-2,-22],[-6,-10],[-4,18],[-6,-21],[-5,9],[-1,-17],[-8,0],[-5,26],[-5,-23],[-3,1],[-6,25],[-11,-27],[-20,-20],[-4,-11],[4,-32],[-8,-35],[-15,-29],[-20,-15]],[[7860,4990],[-5,280]],[[7940,5015],[-80,-25]],[[7842,4850],[18,140]],[[8025,4795],[-6,-20],[-15,-13],[-21,-43],[-11,5],[-7,15],[-1,-41],[-7,-38],[-7,0],[-8,-26],[-12,-11],[-8,-27],[-13,-12],[2,71],[4,36],[-6,14],[-9,8],[-7,17],[-18,0],[4,18],[-4,21],[-14,-12],[-2,34],[-8,51],[-9,8]],[[7825,5270],[-12,-44],[-73,-48],[-5,-125],[-8,-95]],[[7727,4958],[-10,68],[-3,28],[-4,103]],[[7745,4807],[-6,5],[1,29],[-2,49],[-3,27],[-8,41]],[[7842,4850],[-12,29],[-9,6],[-7,-8],[-13,9],[3,49],[-2,6],[-18,3],[-9,-16],[3,-19],[-6,-34],[2,-32],[-7,-40]],[[262,2940],[0,0]],[[259,2943],[0,0]],[[291,2942],[0,0]],[[288,2949],[0,0]],[[287,2950],[0,0]],[[36,2482],[0,0]],[[50,2540],[0,0]],[[45,2589],[0,0]],[[9993,2592],[0,0]],[[39,2593],[0,0]],[[9954,2606],[0,0]],[[29,2607],[0,0]],[[4,2603],[0,0]],[[9958,2611],[0,0]],[[42,2627],[0,0]],[[9994,2631],[0,0]],[[9933,2638],[0,0]],[[9947,2648],[0,0]],[[35,2659],[0,0]],[[9978,2671],[0,0]],[[28,2677],[0,0]],[[47,2682],[0,0]],[[9983,2684],[0,0]],[[20,2689],[0,0]],[[9967,2700],[0,0]],[[24,2711],[0,0]],[[9948,2656],[-8,-2],[-15,11],[-2,17],[3,18],[12,19],[10,2],[12,-21],[3,-28],[-15,-16]],[[9918,2723],[0,0]],[[25,2726],[0,0]],[[9983,2728],[0,0]],[[30,2730],[0,0]],[[9921,2739],[0,0]],[[9953,2758],[0,0]],[[9996,2749],[0,0]],[[5,2761],[0,0]],[[9932,2767],[0,0]],[[9997,2771],[0,0]],[[9999,2782],[0,0]],[[1,2785],[0,0]],[[9987,2763],[8,18],[3,-16],[-18,-5],[-3,7],[-5,-16],[-9,-5],[-6,17],[14,21],[11,4],[3,10],[14,7],[-14,-38],[2,-4]],[[281,2591],[0,0]],[[140,2431],[0,0]],[[137,2445],[0,0]],[[145,2509],[0,0]],[[155,2534],[0,0]],[[158,2542],[0,0]],[[137,2550],[0,0]],[[159,2548],[0,0]],[[138,2554],[0,0]],[[159,2559],[0,0]],[[149,2617],[0,0]],[[165,2624],[0,0]],[[166,2624],[0,0]],[[163,2625],[0,0]],[[165,2627],[0,0]],[[120,2845],[0,0]],[[52,2939],[0,0]],[[106,3009],[0,0]],[[237,2958],[-12,3],[2,15],[10,-18]],[[216,2993],[0,-17],[-9,0],[-6,19],[11,6],[4,-8]],[[1965,2015],[0,0]]]}